{"type":"Feature","properties":{"slug":"achasan-yongmasan-traverse","osm_id":17496414,"name":"[서울둘레길] 5코스 / 아차산 코스","length_km":4.5,"closed":false,"endpoints":{"start":[37.57864,127.10301],"end":[37.5455,127.10368]},"source":"https://www.openstreetmap.org/relation/17496414"},"geometry":{"type":"MultiLineString","coordinates":[[[127.10301,37.57864],[127.10292,37.57851],[127.10281,37.57842],[127.10269,37.57835],[127.10259,37.57826],[127.10251,37.5781],[127.10239,37.57793],[127.1023,37.57784],[127.10215,37.57776],[127.10216,37.57761],[127.10208,37.57744],[127.10209,37.57731],[127.10188,37.57693],[127.10181,37.57683],[127.10175,37.57666],[127.10168,37.57652],[127.10159,37.57644],[127.10149,37.57636],[127.10141,37.57623],[127.10139,37.57608],[127.10122,37.57591],[127.10112,37.5757],[127.10108,37.57555],[127.10113,37.57541],[127.10114,37.57521],[127.10123,37.57512],[127.10126,37.57494],[127.10126,37.57483],[127.10123,37.57471],[127.1012,37.57454],[127.10112,37.5744],[127.10098,37.57425],[127.1009,37.57416],[127.10094,37.57398],[127.10096,37.57388],[127.10102,37.57376],[127.10093,37.57367],[127.10087,37.57341],[127.10099,37.57331],[127.10113,37.57323],[127.10131,37.57311],[127.10136,37.57292],[127.10143,37.57281],[127.10156,37.57276],[127.10173,37.57268],[127.10188,37.5726],[127.10193,37.57247],[127.10205,37.57238],[127.10219,37.57237],[127.10237,37.57236],[127.10252,37.57233],[127.10298,37.57235],[127.10311,37.57231],[127.10329,37.57212],[127.10355,37.57199],[127.10378,37.57183],[127.10389,37.57164],[127.10395,37.57152],[127.10396,37.57138],[127.10385,37.57124],[127.10378,37.57109],[127.10373,37.57099],[127.10379,37.57084],[127.10377,37.57071],[127.10389,37.57051],[127.10383,37.57039],[127.10366,37.57028],[127.10357,37.57017],[127.10348,37.56995],[127.10344,37.56983],[127.10339,37.56968],[127.10343,37.56956],[127.1034,37.56939],[127.10335,37.56928],[127.10331,37.56908],[127.10329,37.56888],[127.10327,37.56874],[127.10326,37.56859],[127.10325,37.56835],[127.10324,37.56824],[127.10322,37.56808],[127.10312,37.568],[127.10307,37.56789],[127.10297,37.56773],[127.1029,37.56762],[127.1029,37.56745],[127.10296,37.56728],[127.10305,37.56719],[127.10309,37.56701],[127.10321,37.56689],[127.10321,37.56675],[127.1031,37.5666],[127.10307,37.56636],[127.10304,37.56624],[127.10295,37.56612],[127.1029,37.56588],[127.10268,37.5656],[127.10263,37.56547],[127.10247,37.56535],[127.10237,37.56522],[127.10233,37.56503],[127.10242,37.56475],[127.1023,37.56438],[127.10209,37.564],[127.10187,37.56347],[127.1018,37.56332],[127.10176,37.5632],[127.10183,37.56308],[127.10184,37.56294],[127.10194,37.56274],[127.10178,37.56259],[127.10156,37.5621],[127.1014,37.56185],[127.10135,37.56171],[127.10134,37.56145],[127.1013,37.56129],[127.10145,37.56113],[127.10143,37.56083],[127.10139,37.56055],[127.1014,37.5603],[127.10148,37.56017],[127.10152,37.56002],[127.10148,37.55991],[127.10153,37.55977],[127.10153,37.55964],[127.10155,37.55951],[127.10167,37.55943],[127.10186,37.55936],[127.102,37.55931],[127.10212,37.55921],[127.10228,37.55913],[127.10251,37.55897],[127.10264,37.55877],[127.10283,37.5587],[127.10297,37.55869],[127.10314,37.55865],[127.10324,37.55852],[127.10343,37.55837],[127.10355,37.55822],[127.1038,37.55803],[127.10374,37.55791],[127.10379,37.5578],[127.10361,37.55766],[127.10356,37.55752],[127.10349,37.5574],[127.10334,37.55726],[127.10319,37.55717],[127.1031,37.55696],[127.10297,37.55684],[127.10288,37.55665],[127.10275,37.55641],[127.10276,37.55623],[127.10272,37.55609],[127.10271,37.55596],[127.10243,37.5558],[127.10223,37.55567],[127.10189,37.5555],[127.10174,37.55548],[127.10159,37.5554],[127.10149,37.55532],[127.1013,37.55512],[127.1012,37.55495],[127.10115,37.55477],[127.10119,37.55458],[127.10128,37.5544],[127.10122,37.55427],[127.10118,37.55414],[127.10112,37.55404],[127.10105,37.55394],[127.10092,37.55378],[127.10085,37.55365],[127.10053,37.55345],[127.1003,37.5533],[127.10006,37.5532],[127.09988,37.55313],[127.09974,37.55302],[127.09967,37.55279],[127.09971,37.55267],[127.09983,37.55254],[127.09987,37.55238],[127.09986,37.55224],[127.09987,37.55211],[127.09994,37.552],[127.10012,37.5518],[127.10029,37.55167],[127.10058,37.55126],[127.1008,37.55097],[127.10094,37.55086],[127.10095,37.55067],[127.10113,37.5505],[127.10116,37.55034],[127.10116,37.55021],[127.10108,37.55004],[127.10107,37.5499],[127.10109,37.54953],[127.10114,37.54934],[127.10127,37.54918],[127.10152,37.54892],[127.10165,37.54871],[127.10181,37.5487],[127.10197,37.54839],[127.10201,37.54826],[127.10222,37.54816],[127.10214,37.54799],[127.10202,37.54772],[127.10224,37.54743],[127.10209,37.54723],[127.10216,37.54699],[127.10209,37.54682],[127.10231,37.54628],[127.10244,37.54595],[127.10256,37.54586],[127.10278,37.54579],[127.10337,37.5456],[127.10368,37.5455]]]}}