{"type":"Feature","properties":{"slug":"ang-ka-nature-trail","osm_id":14384078,"name":"Angkha Nature Trail","length_km":0.4,"closed":true,"endpoints":{"start":[18.5883,98.48623],"end":[18.58891,98.48553]},"source":"https://www.openstreetmap.org/relation/14384078"},"geometry":{"type":"MultiLineString","coordinates":[[[98.48623,18.5883],[98.48604,18.58833],[98.48593,18.58835],[98.4858,18.58835],[98.48579,18.58851],[98.48573,18.58863],[98.48566,18.58886],[98.48564,18.58899],[98.48541,18.58916],[98.48525,18.58913],[98.48503,18.58909],[98.48483,18.58897],[98.48477,18.58886],[98.48488,18.58857],[98.48515,18.58857],[98.48538,18.58861],[98.48558,18.58864],[98.48573,18.58863],[98.48553,18.58891]]]}}