{"type":"Feature","properties":{"slug":"arnarstapi-cliff-walk","osm_id":6126272,"name":"Basaltküste von Arnarstapi","length_km":7.8,"closed":false,"endpoints":{"start":[64.7659,-23.62264],"end":[64.77009,-23.62094]},"source":"https://www.openstreetmap.org/relation/6126272"},"geometry":{"type":"MultiLineString","coordinates":[[[-23.62264,64.7659],[-23.62291,64.76587],[-23.62318,64.7658],[-23.62345,64.76567],[-23.62379,64.76576],[-23.62439,64.76575],[-23.62514,64.76573],[-23.62542,64.76571],[-23.62579,64.76581],[-23.62614,64.76592],[-23.62668,64.766],[-23.62761,64.76628],[-23.62741,64.76617],[-23.62763,64.76589],[-23.62761,64.766],[-23.62741,64.76617],[-23.62704,64.7656],[-23.62661,64.76536],[-23.62619,64.76507],[-23.62595,64.7649],[-23.62586,64.76475],[-23.62577,64.76455],[-23.62604,64.76448],[-23.62646,64.76432],[-23.62672,64.76417],[-23.62707,64.76396],[-23.62758,64.76361],[-23.62801,64.76328],[-23.6285,64.76306],[-23.62898,64.76294],[-23.62929,64.76287],[-23.62961,64.76274],[-23.62995,64.76252],[-23.63026,64.76232],[-23.63074,64.76205],[-23.63102,64.76191],[-23.63141,64.76186],[-23.63163,64.76176],[-23.63156,64.76165],[-23.63139,64.76155],[-23.6314,64.7614],[-23.63163,64.7612],[-23.63179,64.76111],[-23.632,64.76088],[-23.63204,64.76077],[-23.63209,64.76057],[-23.63218,64.76033],[-23.63234,64.76017],[-23.63245,64.76006],[-23.63259,64.75987],[-23.63259,64.75974],[-23.63261,64.75958],[-23.63246,64.75944],[-23.63231,64.75933],[-23.63228,64.75922],[-23.6322,64.75909],[-23.63235,64.75886],[-23.63242,64.75876],[-23.63252,64.75865],[-23.63258,64.75847],[-23.63257,64.75833],[-23.63268,64.75823],[-23.63301,64.75823],[-23.63329,64.75825],[-23.6335,64.75814],[-23.63366,64.758],[-23.63395,64.75793],[-23.63427,64.75785],[-23.63464,64.75777],[-23.63476,64.75764],[-23.63491,64.75748],[-23.63497,64.75735],[-23.6353,64.75729],[-23.63527,64.75717],[-23.63545,64.75707],[-23.63564,64.75689],[-23.63589,64.75675],[-23.63603,64.75663],[-23.63613,64.75652],[-23.63636,64.75644],[-23.63673,64.75649],[-23.63708,64.75651],[-23.63737,64.75649],[-23.63755,64.75637],[-23.63771,64.75625],[-23.63807,64.75614],[-23.63831,64.75603],[-23.63847,64.75587],[-23.63874,64.75579],[-23.63903,64.75576],[-23.63928,64.75568],[-23.63939,64.75555],[-23.63958,64.75546],[-23.63982,64.75542],[-23.64008,64.7554],[-23.64023,64.75528],[-23.64037,64.75511],[-23.64053,64.75501],[-23.64073,64.75488],[-23.64105,64.75479],[-23.6413,64.75473],[-23.64155,64.75462],[-23.64182,64.75456],[-23.64212,64.75458],[-23.64242,64.75453],[-23.64247,64.75439],[-23.64261,64.75424],[-23.64299,64.75395],[-23.64322,64.7538],[-23.64359,64.75365],[-23.64335,64.75373],[-23.64376,64.75327],[-23.64386,64.75343],[-23.64386,64.75357],[-23.64397,64.75316],[-23.64417,64.75303],[-23.64433,64.75286],[-23.64447,64.75275],[-23.64466,64.75265],[-23.64493,64.75254],[-23.645,64.75232],[-23.64508,64.75183],[-23.64498,64.75196],[-23.64498,64.75217],[-23.64508,64.75183],[-23.64498,64.75196],[-23.64498,64.75217],[-23.645,64.75232],[-23.64499,64.75245],[-23.64481,64.75259],[-23.64455,64.75269],[-23.64433,64.75286],[-23.64417,64.75303],[-23.64397,64.75316],[-23.64378,64.75325],[-23.64386,64.75343],[-23.64386,64.75357],[-23.64359,64.75365],[-23.64335,64.75373],[-23.6431,64.75388],[-23.6427,64.75415],[-23.64253,64.75432],[-23.64242,64.75453],[-23.64212,64.75458],[-23.64182,64.75456],[-23.64155,64.75462],[-23.6413,64.75473],[-23.64105,64.75479],[-23.64082,64.75485],[-23.64053,64.75501],[-23.64037,64.75511],[-23.64024,64.75521],[-23.6402,64.75535],[-23.63995,64.75541],[-23.63967,64.75544],[-23.63939,64.75555],[-23.63928,64.75568],[-23.63903,64.75576],[-23.63874,64.75579],[-23.63847,64.75587],[-23.63831,64.75603],[-23.63807,64.75614],[-23.63771,64.75625],[-23.63755,64.75637],[-23.63737,64.75649],[-23.63708,64.75651],[-23.63673,64.75649],[-23.63645,64.75644],[-23.63613,64.75652],[-23.63603,64.75663],[-23.63589,64.75675],[-23.63564,64.75689],[-23.63561,64.75702],[-23.63533,64.75709],[-23.63534,64.75724],[-23.63514,64.75731],[-23.63489,64.75742],[-23.63483,64.75755],[-23.63473,64.75771],[-23.63442,64.7578],[-23.63406,64.75788],[-23.63376,64.75797],[-23.6336,64.75806],[-23.63341,64.75821],[-23.6332,64.75827],[-23.63289,64.7582],[-23.63259,64.75829],[-23.63258,64.75847],[-23.63254,64.75859],[-23.63248,64.75871],[-23.63235,64.75886],[-23.63225,64.75903],[-23.63218,64.75915],[-23.63229,64.75927],[-23.63246,64.75944],[-23.63258,64.75954],[-23.63258,64.75968],[-23.63259,64.75987],[-23.63253,64.76],[-23.6324,64.76011],[-23.63218,64.76033],[-23.63209,64.76057],[-23.63204,64.76077],[-23.632,64.76088],[-23.63186,64.76102],[-23.63163,64.7612],[-23.63148,64.7613],[-23.63138,64.76148],[-23.63156,64.76165],[-23.63163,64.76176],[-23.63141,64.76186],[-23.6311,64.76189],[-23.63074,64.76205],[-23.63026,64.76232],[-23.62995,64.76252],[-23.62961,64.76274],[-23.62929,64.76287],[-23.62898,64.76294],[-23.62868,64.76302],[-23.62817,64.76321],[-23.62758,64.76361],[-23.62707,64.76396],[-23.62672,64.76417],[-23.62646,64.76432],[-23.62604,64.76448],[-23.62577,64.76455],[-23.62556,64.76461],[-23.62537,64.76469],[-23.62514,64.76481],[-23.62495,64.76492],[-23.62454,64.76516],[-23.62401,64.76542],[-23.62345,64.76567],[-23.62321,64.76557],[-23.62281,64.76547],[-23.62242,64.7654],[-23.6223,64.76554],[-23.62239,64.76569],[-23.62255,64.76578],[-23.62264,64.7659],[-23.62257,64.76607],[-23.62232,64.76622],[-23.62194,64.76636],[-23.62143,64.76655],[-23.62128,64.76664],[-23.62111,64.76672],[-23.62091,64.76679],[-23.62043,64.76693],[-23.62017,64.76697],[-23.61947,64.76699],[-23.61909,64.76701],[-23.61887,64.76709],[-23.61844,64.76719],[-23.61798,64.76733],[-23.61767,64.7674],[-23.61757,64.76752],[-23.6177,64.76763],[-23.61775,64.76777],[-23.61768,64.76787],[-23.6176,64.76805],[-23.61769,64.76818],[-23.6182,64.76847],[-23.61842,64.76863],[-23.6185,64.7688],[-23.61839,64.76893],[-23.61805,64.7691],[-23.61783,64.76919],[-23.6176,64.76927],[-23.61736,64.76936],[-23.61722,64.76947],[-23.61739,64.76961],[-23.61761,64.76979],[-23.61765,64.76994],[-23.61786,64.77009],[-23.61817,64.77015],[-23.61877,64.77011],[-23.6191,64.7701],[-23.61965,64.77011],[-23.62002,64.77013],[-23.62027,64.77016],[-23.62068,64.77016],[-23.62094,64.77009],[-23.62068,64.77016],[-23.62027,64.77016],[-23.62002,64.77013],[-23.61965,64.77011],[-23.6191,64.7701],[-23.61877,64.77011],[-23.61817,64.77015],[-23.61792,64.77013],[-23.61777,64.77003],[-23.61763,64.76986],[-23.61739,64.76961],[-23.61722,64.76947],[-23.61736,64.76936],[-23.6176,64.76927],[-23.61783,64.76919],[-23.61805,64.7691],[-23.6182,64.769],[-23.61845,64.76889],[-23.61848,64.76872],[-23.61833,64.76853],[-23.61782,64.76826],[-23.61763,64.76813],[-23.61761,64.76796],[-23.61773,64.76782],[-23.6177,64.76763],[-23.61757,64.76752],[-23.61767,64.7674],[-23.61798,64.76733],[-23.61844,64.76719],[-23.61868,64.76714],[-23.61909,64.76701],[-23.61947,64.76699],[-23.61999,64.76698],[-23.62043,64.76693],[-23.62074,64.76684],[-23.62111,64.76672],[-23.62128,64.76664],[-23.62143,64.76655],[-23.62194,64.76636],[-23.62232,64.76622],[-23.62257,64.76607],[-23.62264,64.7659],[-23.62255,64.76578],[-23.62239,64.76569],[-23.6223,64.76554],[-23.62228,64.76543],[-23.62259,64.76543],[-23.62321,64.76557],[-23.62345,64.76567],[-23.62401,64.76542],[-23.62454,64.76516],[-23.62495,64.76492],[-23.62514,64.76481],[-23.62537,64.76469],[-23.62556,64.76461],[-23.62577,64.76455],[-23.62556,64.76461],[-23.62537,64.76469],[-23.62514,64.76481],[-23.62495,64.76492],[-23.62454,64.76516],[-23.62401,64.76542],[-23.62345,64.76567],[-23.62321,64.76557],[-23.62281,64.76547],[-23.62242,64.7654],[-23.6223,64.76554],[-23.62239,64.76569],[-23.62255,64.76578],[-23.62264,64.7659],[-23.62257,64.76607],[-23.62232,64.76622],[-23.62194,64.76636],[-23.62143,64.76655],[-23.62128,64.76664],[-23.62111,64.76672],[-23.62091,64.76679],[-23.62043,64.76693],[-23.62017,64.76697],[-23.61947,64.76699],[-23.61909,64.76701],[-23.61887,64.76709],[-23.61844,64.76719],[-23.61798,64.76733],[-23.61767,64.7674],[-23.61757,64.76752],[-23.6177,64.76763],[-23.61775,64.76777],[-23.61768,64.76787],[-23.6176,64.76805],[-23.61769,64.76818],[-23.6182,64.76847],[-23.61842,64.76863],[-23.6185,64.7688],[-23.61839,64.76893],[-23.61805,64.7691],[-23.61783,64.76919],[-23.6176,64.76927],[-23.61736,64.76936],[-23.61722,64.76947],[-23.61739,64.76961],[-23.61761,64.76979],[-23.61765,64.76994],[-23.61786,64.77009],[-23.61817,64.77015],[-23.61877,64.77011],[-23.6191,64.7701],[-23.61965,64.77011],[-23.62002,64.77013],[-23.62027,64.77016],[-23.62068,64.77016],[-23.62094,64.77009]]]}}