{"type":"Feature","properties":{"slug":"blahnukur-brennisteinsalda-loop","osm_id":6133108,"name":"Blahnukur","length_km":6,"closed":true,"endpoints":{"start":[63.97677,-19.06917],"end":[63.97677,-19.06917]},"source":"https://www.openstreetmap.org/relation/6133108"},"geometry":{"type":"MultiLineString","coordinates":[[[-19.06917,63.97677],[-19.06925,63.9769],[-19.06943,63.977],[-19.0698,63.97723],[-19.07004,63.97727],[-19.07026,63.97736],[-19.0707,63.97744],[-19.07095,63.97753],[-19.07129,63.97748],[-19.07158,63.97744],[-19.07183,63.9774],[-19.07207,63.97732],[-19.07247,63.97715],[-19.07259,63.97705],[-19.07288,63.97702],[-19.07313,63.97695],[-19.07339,63.97685],[-19.07376,63.97668],[-19.07438,63.97655],[-19.07466,63.97646],[-19.07495,63.97642],[-19.07531,63.97635],[-19.07598,63.97625],[-19.07643,63.97615],[-19.07657,63.97602],[-19.07673,63.97589],[-19.0768,63.97572],[-19.07699,63.97564],[-19.07706,63.97539],[-19.07723,63.97517],[-19.07716,63.97483],[-19.07707,63.97453],[-19.07702,63.97436],[-19.07669,63.97411],[-19.0767,63.97393],[-19.07648,63.97366],[-19.07649,63.97354],[-19.07643,63.97336],[-19.07644,63.9731],[-19.07649,63.97299],[-19.07672,63.97293],[-19.07753,63.97309],[-19.07799,63.97322],[-19.07822,63.97327],[-19.07852,63.97336],[-19.07918,63.9735],[-19.07992,63.97369],[-19.08033,63.97384],[-19.08058,63.97395],[-19.08116,63.97427],[-19.08146,63.97451],[-19.08175,63.97482],[-19.08181,63.97511],[-19.08172,63.9756],[-19.08165,63.97578],[-19.08165,63.97604],[-19.08161,63.9763],[-19.08198,63.97665],[-19.08204,63.9769],[-19.08212,63.97702],[-19.0825,63.97709],[-19.08273,63.97699],[-19.08292,63.97706],[-19.08317,63.97716],[-19.08338,63.97726],[-19.08369,63.9772],[-19.08378,63.97733],[-19.08368,63.97744],[-19.0838,63.97762],[-19.08343,63.97783],[-19.08303,63.97808],[-19.08267,63.97836],[-19.08297,63.97844],[-19.08322,63.9786],[-19.0834,63.97874],[-19.08358,63.97882],[-19.0838,63.97891],[-19.08373,63.97903],[-19.08373,63.97952],[-19.08398,63.97971],[-19.08388,63.97996],[-19.08333,63.98076],[-19.08347,63.9809],[-19.08359,63.98115],[-19.08377,63.98136],[-19.08381,63.98153],[-19.08366,63.98175],[-19.08349,63.98201],[-19.0834,63.98211],[-19.08352,63.98221],[-19.08359,63.98234],[-19.08384,63.98245],[-19.08412,63.98247],[-19.08456,63.98267],[-19.08429,63.98277],[-19.08391,63.98284],[-19.08368,63.9829],[-19.08306,63.98298],[-19.08259,63.98299],[-19.08238,63.98308],[-19.08221,63.98316],[-19.08195,63.98328],[-19.0817,63.9833],[-19.08135,63.98335],[-19.08099,63.98344],[-19.08043,63.98352],[-19.08013,63.98366],[-19.07982,63.98377],[-19.07948,63.98388],[-19.07924,63.98395],[-19.07892,63.98394],[-19.07845,63.98399],[-19.07805,63.98402],[-19.0778,63.98394],[-19.07791,63.98381],[-19.07786,63.98364],[-19.07763,63.98355],[-19.07727,63.98348],[-19.07682,63.98347],[-19.07654,63.9835],[-19.07631,63.98356],[-19.07615,63.98365],[-19.07519,63.98391],[-19.07472,63.9839],[-19.07446,63.98395],[-19.07356,63.98397],[-19.07309,63.9839],[-19.07267,63.98376],[-19.0724,63.98362],[-19.07221,63.98354],[-19.07196,63.98349],[-19.07167,63.98348],[-19.0713,63.98354],[-19.07092,63.98368],[-19.07055,63.98372],[-19.07011,63.9836],[-19.06964,63.98356],[-19.06926,63.98359],[-19.0686,63.98378],[-19.06842,63.98394],[-19.06813,63.98405],[-19.06774,63.98406],[-19.06752,63.98399],[-19.06715,63.98388],[-19.06662,63.98386],[-19.06624,63.98389],[-19.06601,63.98393],[-19.06567,63.98401],[-19.06539,63.98407],[-19.06498,63.98417],[-19.0646,63.98422],[-19.06416,63.98436],[-19.06383,63.98451],[-19.06347,63.98468],[-19.06298,63.98483],[-19.06263,63.98509],[-19.0624,63.98526],[-19.06215,63.98545],[-19.06195,63.98563],[-19.06183,63.98577],[-19.06166,63.98588],[-19.06106,63.98612],[-19.06072,63.98631],[-19.06025,63.987],[-19.05991,63.9876],[-19.05957,63.988],[-19.05944,63.98829],[-19.05938,63.98852],[-19.05957,63.98875],[-19.0595,63.98891],[-19.05957,63.98875],[-19.05938,63.98852],[-19.05944,63.98829],[-19.05957,63.988],[-19.05991,63.9876],[-19.06025,63.987],[-19.06072,63.98631],[-19.06078,63.9861],[-19.06065,63.98598],[-19.06058,63.98588],[-19.06041,63.98562],[-19.06018,63.98546],[-19.05982,63.98523],[-19.05967,63.9851],[-19.05941,63.98495],[-19.05916,63.98478],[-19.05942,63.98474],[-19.0599,63.98483],[-19.06014,63.98494],[-19.06033,63.98506],[-19.06064,63.98508],[-19.06089,63.98519],[-19.06109,63.98527],[-19.06117,63.98513],[-19.06127,63.98499],[-19.06138,63.98486],[-19.06141,63.98475],[-19.06149,63.98464],[-19.06156,63.98453],[-19.06168,63.98441],[-19.06191,63.98432],[-19.06198,63.98419],[-19.06199,63.98402],[-19.06209,63.9839],[-19.0621,63.98376],[-19.06198,63.98366],[-19.06208,63.98356],[-19.06207,63.98343],[-19.06208,63.98331],[-19.06221,63.98321],[-19.0624,63.98313],[-19.06263,63.98295],[-19.06268,63.98281],[-19.06272,63.98265],[-19.06276,63.98252],[-19.06279,63.9824],[-19.06283,63.98227],[-19.06303,63.98221],[-19.06311,63.98208],[-19.06315,63.98197],[-19.06327,63.98187],[-19.06319,63.98177],[-19.06323,63.98159],[-19.06317,63.98148],[-19.06317,63.98131],[-19.06328,63.9812],[-19.06317,63.98107],[-19.06316,63.98093],[-19.06315,63.98081],[-19.06298,63.98072],[-19.06313,63.9805],[-19.06291,63.98028],[-19.06293,63.98013],[-19.06296,63.98002],[-19.06301,63.97987],[-19.06319,63.97961],[-19.06292,63.97941],[-19.06304,63.97927],[-19.06324,63.97883],[-19.06337,63.9787],[-19.06359,63.97856],[-19.06375,63.97837],[-19.06385,63.97827],[-19.0642,63.97817],[-19.06472,63.97795],[-19.0649,63.97787],[-19.06511,63.97779],[-19.06534,63.97772],[-19.06541,63.97758],[-19.06549,63.97746],[-19.06543,63.9773],[-19.06545,63.97719],[-19.06561,63.97704],[-19.0656,63.97692],[-19.06583,63.97687],[-19.06598,63.97678],[-19.06634,63.97674],[-19.06655,63.97666],[-19.06674,63.97659],[-19.06703,63.97659],[-19.0673,63.97658],[-19.06762,63.97658],[-19.06789,63.97665],[-19.06823,63.97666],[-19.06858,63.97673],[-19.06889,63.9767],[-19.06917,63.97677]],[[-19.06031,63.99048],[-19.06069,63.99049],[-19.06031,63.99048],[-19.0602,63.99005],[-19.05978,63.98919],[-19.05965,63.98907],[-19.0595,63.98891]]]}}