{"type":"Feature","properties":{"slug":"bukit-kiara-kl","osm_id":19353291,"name":"Bukit Kiara Main Loop","length_km":4,"closed":true,"endpoints":{"start":[3.14582,101.63362],"end":[3.14582,101.63362]},"source":"https://www.openstreetmap.org/relation/19353291"},"geometry":{"type":"MultiLineString","coordinates":[[[101.63362,3.14582],[101.63361,3.14606],[101.63361,3.14651],[101.63361,3.14694],[101.63362,3.14731],[101.63397,3.14755],[101.6344,3.14776],[101.63502,3.1482],[101.63519,3.14834],[101.63535,3.14856],[101.63544,3.14871],[101.63543,3.1489],[101.63534,3.14913],[101.63519,3.14927],[101.63492,3.14955],[101.63483,3.14972],[101.63479,3.14986],[101.63475,3.14998],[101.63476,3.15011],[101.63477,3.15022],[101.63482,3.15036],[101.63494,3.15052],[101.63511,3.15068],[101.63539,3.15088],[101.63558,3.15103],[101.63568,3.15121],[101.63572,3.15136],[101.63577,3.15151],[101.63577,3.15177],[101.63582,3.15192],[101.63594,3.15204],[101.6361,3.15212],[101.63637,3.15212],[101.63669,3.15212],[101.63681,3.15215],[101.63695,3.15217],[101.63722,3.15215],[101.63736,3.15215],[101.63805,3.15247],[101.63843,3.15254],[101.63903,3.15209],[101.6392,3.152],[101.63936,3.15199],[101.63955,3.15208],[101.63963,3.15223],[101.63967,3.15236],[101.63965,3.15251],[101.63959,3.15278],[101.63951,3.15287],[101.63938,3.15298],[101.63914,3.15307],[101.63893,3.1531],[101.63879,3.15318],[101.63878,3.15331],[101.63888,3.15338],[101.639,3.15343],[101.63919,3.15349],[101.63936,3.15358],[101.63951,3.15367],[101.63963,3.15378],[101.63974,3.15392],[101.63978,3.15407],[101.63978,3.15419],[101.63973,3.15432],[101.63948,3.15455],[101.63945,3.15468],[101.63953,3.15475],[101.63969,3.15479],[101.63986,3.15484],[101.64001,3.15504],[101.63994,3.15524],[101.63985,3.15533],[101.63976,3.15542],[101.63963,3.15556],[101.63959,3.15569],[101.63962,3.15584],[101.6397,3.15601],[101.63967,3.15623],[101.63951,3.15651],[101.63932,3.1567],[101.63913,3.1568],[101.63897,3.15678],[101.63897,3.15667],[101.63905,3.15651],[101.63908,3.15638],[101.63901,3.15621],[101.63866,3.15613],[101.6384,3.15608],[101.63826,3.15618],[101.63813,3.15641],[101.63801,3.15652],[101.63789,3.15656],[101.63768,3.15648],[101.63754,3.15631],[101.63746,3.15619],[101.63738,3.15611],[101.63719,3.15598],[101.63708,3.15586],[101.63696,3.15578],[101.63678,3.15572],[101.63662,3.15568],[101.63656,3.15552],[101.63685,3.15524],[101.63695,3.15514],[101.63698,3.15496],[101.6369,3.15486],[101.63676,3.15473],[101.63669,3.15456],[101.63669,3.15441],[101.63673,3.1541],[101.63675,3.15397],[101.63669,3.15387],[101.63642,3.15356],[101.63632,3.15343],[101.63632,3.15329],[101.63645,3.15315],[101.63669,3.15307],[101.63682,3.15298],[101.63691,3.15287],[101.63697,3.1527],[101.63702,3.15258],[101.63717,3.15247],[101.63727,3.15242],[101.63735,3.15233],[101.63736,3.15215],[101.63722,3.15215],[101.63695,3.15217],[101.63681,3.15215],[101.63669,3.15212],[101.63637,3.15212],[101.6361,3.15212],[101.63594,3.15204],[101.63582,3.15192],[101.63577,3.15177],[101.63577,3.15151],[101.63572,3.15136],[101.63568,3.15121],[101.63558,3.15103],[101.63539,3.15088],[101.63511,3.15068],[101.63494,3.15052],[101.63482,3.15036],[101.63477,3.15022],[101.63476,3.15011],[101.63475,3.14998],[101.63479,3.14986],[101.63483,3.14972],[101.63492,3.14955],[101.63519,3.14927],[101.63534,3.14913],[101.63543,3.1489],[101.63544,3.14871],[101.63535,3.14856],[101.63519,3.14834],[101.63502,3.1482],[101.6345,3.1478],[101.63397,3.14755],[101.63368,3.1474],[101.63361,3.14694],[101.63361,3.14651],[101.63361,3.14606],[101.63362,3.14582]]]}}