{"type":"Feature","properties":{"slug":"dettifoss-waterfall-loop","osm_id":6227770,"name":"Hafragilsfoss und Dettifoss","length_km":10.4,"closed":true,"endpoints":{"start":[65.81221,-16.38928],"end":[65.81395,-16.38702]},"source":"https://www.openstreetmap.org/relation/6227770"},"geometry":{"type":"MultiLineString","coordinates":[[[-16.38928,65.81221],[-16.38897,65.8122],[-16.38874,65.81228],[-16.38928,65.81221],[-16.38967,65.81202],[-16.38996,65.81181],[-16.39023,65.81157],[-16.3903,65.81135],[-16.39045,65.81113],[-16.39067,65.81094],[-16.39074,65.81081],[-16.39089,65.81049],[-16.39114,65.81073],[-16.39119,65.81085],[-16.39122,65.81103],[-16.39149,65.81134],[-16.39158,65.81155],[-16.39169,65.81166],[-16.39216,65.81201],[-16.39253,65.81231],[-16.39193,65.81223],[-16.39143,65.81225],[-16.39108,65.81222],[-16.3908,65.81221],[-16.39064,65.81234],[-16.39038,65.81241],[-16.39,65.81233],[-16.3886,65.81246],[-16.38835,65.8127],[-16.3879,65.81297],[-16.38762,65.81341],[-16.3873,65.81359],[-16.38685,65.81378],[-16.3873,65.81359],[-16.38762,65.81341],[-16.3879,65.81297],[-16.38827,65.81279],[-16.3886,65.81246],[-16.38911,65.81219],[-16.38883,65.81222],[-16.3886,65.81246],[-16.38822,65.81246],[-16.38739,65.81235],[-16.38696,65.81269],[-16.3868,65.81295],[-16.38663,65.81309],[-16.38652,65.81325],[-16.38625,65.81352],[-16.38644,65.81361],[-16.38662,65.81372],[-16.38685,65.81378],[-16.38702,65.81395],[-16.38715,65.81407],[-16.38713,65.8142],[-16.38722,65.81434],[-16.38725,65.81466],[-16.38735,65.81483],[-16.38791,65.81508],[-16.38846,65.81521],[-16.38885,65.81528],[-16.38883,65.81545],[-16.38847,65.81558],[-16.38885,65.81596],[-16.38915,65.81606],[-16.38929,65.8162],[-16.3893,65.81634],[-16.38918,65.81651],[-16.38933,65.81663],[-16.38961,65.8167],[-16.38974,65.81684],[-16.38999,65.81705],[-16.39007,65.81718],[-16.39,65.81737],[-16.38988,65.81748],[-16.38966,65.81766],[-16.38948,65.81778],[-16.38954,65.81819],[-16.38952,65.81844],[-16.38964,65.81861],[-16.38952,65.81872],[-16.38977,65.81886],[-16.38957,65.81903],[-16.38955,65.8192],[-16.38965,65.81952],[-16.38951,65.81969],[-16.38962,65.81986],[-16.38956,65.82016],[-16.38936,65.8203],[-16.38922,65.8205],[-16.38951,65.8208],[-16.38956,65.82097],[-16.3898,65.82123],[-16.39,65.82133],[-16.3907,65.82129],[-16.39094,65.82145],[-16.39125,65.82165],[-16.39162,65.82169],[-16.39189,65.82165],[-16.39206,65.82176],[-16.39314,65.82198],[-16.39348,65.82211],[-16.39357,65.82222],[-16.39415,65.82229],[-16.39424,65.82197],[-16.39457,65.82198],[-16.39514,65.82191],[-16.39569,65.82187],[-16.3963,65.82169],[-16.39641,65.82155],[-16.39674,65.82148],[-16.39712,65.82127],[-16.39749,65.82108],[-16.39768,65.82098],[-16.39799,65.82078],[-16.39848,65.82054],[-16.39875,65.82038],[-16.39897,65.82017],[-16.39918,65.82001],[-16.39948,65.81977],[-16.39966,65.81958],[-16.39983,65.81945],[-16.40011,65.81941],[-16.40013,65.81927],[-16.40057,65.81925],[-16.40087,65.81946],[-16.40126,65.81959],[-16.40173,65.81996],[-16.40195,65.82013],[-16.40229,65.82019],[-16.40261,65.82041],[-16.40311,65.82063],[-16.4039,65.82071],[-16.40458,65.82069],[-16.40488,65.82066],[-16.40681,65.82049],[-16.40726,65.82045],[-16.40809,65.82026],[-16.40828,65.82015],[-16.40905,65.82013],[-16.40952,65.82008],[-16.41017,65.82005],[-16.41051,65.82006],[-16.41091,65.81996],[-16.41139,65.81989],[-16.41185,65.81985],[-16.41229,65.81983],[-16.41302,65.81978],[-16.41385,65.81973],[-16.41427,65.8197],[-16.41598,65.81959],[-16.41627,65.81962],[-16.41659,65.81961],[-16.41705,65.81963],[-16.41758,65.81959],[-16.41792,65.81957],[-16.41843,65.81946],[-16.41885,65.81944],[-16.41946,65.81959],[-16.42012,65.81962],[-16.42075,65.81974],[-16.42134,65.81989],[-16.42172,65.82017],[-16.42206,65.8204],[-16.42222,65.82052],[-16.42225,65.82066],[-16.42212,65.82089],[-16.4222,65.82099],[-16.42216,65.8212],[-16.42207,65.82133],[-16.42192,65.82154],[-16.42191,65.82179],[-16.42203,65.82196],[-16.42213,65.82217],[-16.42236,65.82246],[-16.4222,65.82269],[-16.42226,65.82287],[-16.42216,65.82304],[-16.42206,65.82329],[-16.422,65.82358],[-16.42158,65.82399],[-16.42128,65.82413],[-16.42109,65.82435],[-16.42072,65.82453],[-16.42058,65.82471],[-16.42027,65.8248],[-16.42014,65.82503],[-16.4199,65.82528],[-16.41961,65.82562],[-16.41958,65.82573],[-16.41926,65.82604],[-16.41899,65.82625],[-16.41883,65.82643],[-16.41824,65.82677],[-16.4181,65.82689],[-16.41792,65.82716],[-16.41755,65.82733],[-16.41747,65.82744],[-16.41725,65.82761],[-16.4169,65.82782],[-16.41675,65.82794],[-16.41652,65.8281],[-16.41634,65.82833],[-16.41636,65.82848],[-16.41626,65.82873],[-16.41636,65.82905],[-16.41627,65.82917],[-16.41625,65.82941],[-16.41632,65.8297],[-16.41637,65.83],[-16.41632,65.83027],[-16.41622,65.83056],[-16.41618,65.83075],[-16.41602,65.83117],[-16.41587,65.83139],[-16.41582,65.83151],[-16.41581,65.83168],[-16.4158,65.83195],[-16.41566,65.8322],[-16.41548,65.83232],[-16.41525,65.83269],[-16.41527,65.83283],[-16.41521,65.83307],[-16.41512,65.83322],[-16.41486,65.83349],[-16.41463,65.83375],[-16.41452,65.83396],[-16.41436,65.83409],[-16.4143,65.83434],[-16.41382,65.83466],[-16.41374,65.83481],[-16.41374,65.83502],[-16.41419,65.83536],[-16.41439,65.8355],[-16.41493,65.83566],[-16.41531,65.8358],[-16.4159,65.83603],[-16.41632,65.8362],[-16.41641,65.83641],[-16.41659,65.83657],[-16.41688,65.83668],[-16.41716,65.83684],[-16.41664,65.83698],[-16.41619,65.83692],[-16.41588,65.83707],[-16.41602,65.83747],[-16.41569,65.83749],[-16.415,65.83742],[-16.41451,65.83699],[-16.41418,65.83674],[-16.41401,65.83662],[-16.41414,65.83649],[-16.41409,65.83631],[-16.41396,65.83615],[-16.41348,65.83596],[-16.41326,65.83581],[-16.41306,65.83561],[-16.41289,65.83522],[-16.41282,65.83511],[-16.41291,65.83495],[-16.41321,65.83461],[-16.41347,65.83439],[-16.41356,65.83423],[-16.41371,65.83403],[-16.41399,65.83375],[-16.41394,65.83361],[-16.41407,65.8335],[-16.41397,65.83338],[-16.41397,65.83327],[-16.41375,65.83315],[-16.41348,65.83326],[-16.4133,65.83337],[-16.41319,65.83358],[-16.41274,65.83373],[-16.41256,65.83387],[-16.41214,65.83421],[-16.41216,65.83438],[-16.41213,65.83451],[-16.41206,65.83464],[-16.41186,65.83499],[-16.41165,65.83508],[-16.41142,65.83515],[-16.41112,65.83501],[-16.41066,65.83486],[-16.41034,65.83475],[-16.4101,65.83467],[-16.40945,65.83464],[-16.40861,65.83431],[-16.40787,65.83373],[-16.40792,65.83345],[-16.40781,65.83315],[-16.40721,65.83285],[-16.40686,65.83288],[-16.4065,65.83295],[-16.40595,65.83286],[-16.40561,65.83263],[-16.40509,65.8325],[-16.40475,65.8324],[-16.40438,65.83222],[-16.40386,65.83222],[-16.4034,65.83248],[-16.40267,65.83259],[-16.40182,65.83255],[-16.4021,65.83205],[-16.40178,65.83166],[-16.40195,65.83117],[-16.40154,65.83093],[-16.39987,65.83072],[-16.39952,65.83056],[-16.39869,65.83049],[-16.39712,65.82965],[-16.39697,65.82927],[-16.3962,65.82884],[-16.3962,65.82865],[-16.396,65.82845],[-16.39553,65.82821],[-16.39365,65.82721],[-16.39287,65.82663],[-16.3922,65.82622],[-16.39193,65.82612],[-16.39157,65.82581],[-16.39172,65.8256],[-16.39158,65.82547],[-16.39154,65.82529],[-16.39173,65.82502],[-16.39171,65.82475],[-16.39174,65.82456],[-16.39175,65.82427],[-16.39194,65.82411],[-16.39207,65.82402],[-16.39195,65.82387],[-16.39219,65.82373],[-16.39236,65.82364],[-16.39258,65.82357],[-16.39256,65.82338],[-16.39294,65.82325],[-16.39329,65.82316],[-16.39358,65.82303],[-16.39386,65.82305],[-16.39407,65.82293],[-16.39433,65.82286],[-16.39457,65.82281],[-16.39462,65.8227],[-16.39455,65.82258],[-16.39445,65.82248],[-16.39415,65.82229],[-16.39357,65.82222],[-16.39348,65.82211],[-16.39314,65.82198],[-16.39206,65.82176],[-16.39189,65.82165],[-16.39162,65.82169],[-16.39125,65.82165],[-16.391,65.82155],[-16.3907,65.82129],[-16.39025,65.82136],[-16.3898,65.82123],[-16.38956,65.82097],[-16.38951,65.8208],[-16.38931,65.82059],[-16.38936,65.8203],[-16.38956,65.82016],[-16.38962,65.81986],[-16.38951,65.81969],[-16.38965,65.81952],[-16.38955,65.8192],[-16.38957,65.81903],[-16.38974,65.81892],[-16.38952,65.81872],[-16.38964,65.81861],[-16.38952,65.81844],[-16.38959,65.81829],[-16.38948,65.81778],[-16.38966,65.81766],[-16.38975,65.81754],[-16.39,65.81737],[-16.39007,65.81718],[-16.38999,65.81705],[-16.38974,65.81684],[-16.38961,65.8167],[-16.38933,65.81663],[-16.38918,65.81651],[-16.3892,65.81638],[-16.38928,65.81625],[-16.38915,65.81606],[-16.38885,65.81596],[-16.38873,65.81566],[-16.38837,65.81565],[-16.38883,65.81545],[-16.38885,65.81528],[-16.38846,65.81521],[-16.38807,65.81509],[-16.38741,65.81488],[-16.38734,65.81474],[-16.38722,65.81434],[-16.38713,65.8142],[-16.38715,65.81407],[-16.38702,65.81395],[-16.38702,65.81395]],[[-16.39089,65.81049],[-16.39062,65.80981],[-16.39061,65.80958],[-16.39069,65.80938],[-16.39054,65.8092],[-16.39032,65.80911],[-16.39,65.80849],[-16.39001,65.80831],[-16.39021,65.8081],[-16.39002,65.80788],[-16.38993,65.80742],[-16.38989,65.80728],[-16.38993,65.80742],[-16.39002,65.80788],[-16.39021,65.8081],[-16.39001,65.80831],[-16.39,65.80849],[-16.39032,65.80911],[-16.39054,65.8092],[-16.39067,65.8093],[-16.39061,65.80958],[-16.39064,65.8097],[-16.39087,65.81044],[-16.39089,65.81049]],[[-16.39941,65.81219],[-16.39867,65.8122],[-16.39806,65.81224],[-16.39685,65.81215],[-16.39648,65.81206],[-16.39618,65.81202],[-16.39587,65.81207],[-16.39566,65.81231],[-16.39524,65.81252],[-16.39491,65.81257],[-16.39452,65.8125],[-16.39376,65.81256],[-16.39339,65.81255],[-16.39286,65.81245],[-16.39253,65.81231]]]}}