{"type":"Feature","properties":{"slug":"dynjandi-fjallfoss-trail","osm_id":6224397,"name":"Dynjandifoss","length_km":0.8,"closed":false,"endpoints":{"start":[65.73261,-23.20051],"end":[65.73653,-23.20907]},"source":"https://www.openstreetmap.org/relation/6224397"},"geometry":{"type":"MultiLineString","coordinates":[[[-23.20051,65.73261],[-23.20084,65.7326],[-23.20115,65.73269],[-23.20125,65.73284],[-23.20123,65.73301],[-23.20133,65.73317],[-23.20161,65.73313],[-23.20196,65.73305],[-23.20226,65.73294],[-23.20253,65.73292],[-23.2029,65.73286],[-23.2031,65.73293],[-23.20295,65.7331],[-23.20293,65.73328],[-23.2032,65.73344],[-23.20334,65.73354],[-23.20366,65.73365],[-23.20396,65.73373],[-23.20418,65.7338],[-23.20442,65.73399],[-23.20433,65.73415],[-23.2044,65.73426],[-23.2043,65.73448],[-23.20456,65.73467],[-23.20477,65.73488],[-23.205,65.73501],[-23.20489,65.73511],[-23.20495,65.73525],[-23.20523,65.73526],[-23.20574,65.73535],[-23.20605,65.73545],[-23.20629,65.73556],[-23.20646,65.73566],[-23.20663,65.73575],[-23.20687,65.73581],[-23.2072,65.73587],[-23.20743,65.73594],[-23.20772,65.736],[-23.20796,65.73607],[-23.20861,65.73613],[-23.20892,65.73634],[-23.20907,65.73653]]]}}