{"type":"Feature","properties":{"slug":"fimmvorduhals-trail","osm_id":396940,"name":"Fimmvörðuháls","length_km":16,"closed":false,"endpoints":{"start":[63.53012,-19.51171],"end":[63.63845,-19.4425]},"source":"https://www.openstreetmap.org/relation/396940"},"geometry":{"type":"MultiLineString","coordinates":[[[-19.51171,63.53012],[-19.51148,63.53019],[-19.51141,63.53031],[-19.51129,63.53044],[-19.51101,63.53059],[-19.51074,63.53069],[-19.51056,63.53078],[-19.51045,63.53088],[-19.51039,63.53111],[-19.51045,63.53133],[-19.5102,63.53141],[-19.50997,63.53151],[-19.51007,63.53162],[-19.51032,63.53192],[-19.51025,63.53204],[-19.50988,63.53226],[-19.5096,63.53243],[-19.50935,63.53254],[-19.50908,63.53263],[-19.50882,63.53276],[-19.50851,63.53281],[-19.50815,63.53275],[-19.50767,63.53279],[-19.50728,63.53281],[-19.50693,63.53288],[-19.50664,63.5331],[-19.50642,63.53323],[-19.50602,63.53335],[-19.50578,63.53341],[-19.50551,63.53347],[-19.50525,63.53355],[-19.50505,63.53367],[-19.50502,63.53386],[-19.505,63.534],[-19.50477,63.53417],[-19.5047,63.5343],[-19.50475,63.53446],[-19.50457,63.53461],[-19.50434,63.53473],[-19.50449,63.53494],[-19.50443,63.53505],[-19.50419,63.5351],[-19.50386,63.53517],[-19.50354,63.53524],[-19.50335,63.53515],[-19.5031,63.53514],[-19.5028,63.5351],[-19.50256,63.53508],[-19.50222,63.53508],[-19.50195,63.53513],[-19.50167,63.53524],[-19.5015,63.53536],[-19.50148,63.53548],[-19.5013,63.53558],[-19.50111,63.53571],[-19.50092,63.53583],[-19.50078,63.53597],[-19.50074,63.5361],[-19.50058,63.53623],[-19.50045,63.53635],[-19.50031,63.53649],[-19.50008,63.53661],[-19.49981,63.53688],[-19.49985,63.53699],[-19.49999,63.53712],[-19.49995,63.53723],[-19.49982,63.53736],[-19.49978,63.53749],[-19.49999,63.5376],[-19.50019,63.53771],[-19.50044,63.53778],[-19.50065,63.53789],[-19.5009,63.538],[-19.50104,63.53813],[-19.50112,63.53827],[-19.50141,63.53833],[-19.50152,63.53843],[-19.50171,63.53854],[-19.50182,63.53865],[-19.50178,63.53878],[-19.5017,63.5389],[-19.50151,63.53906],[-19.50133,63.53917],[-19.50138,63.5393],[-19.50114,63.53929],[-19.50122,63.53943],[-19.50137,63.53954],[-19.50131,63.53976],[-19.50124,63.5399],[-19.50115,63.54006],[-19.50041,63.5405],[-19.50032,63.54067],[-19.50016,63.5408],[-19.50022,63.54098],[-19.50041,63.54113],[-19.50031,63.54127],[-19.50033,63.5415],[-19.50027,63.54166],[-19.49996,63.54173],[-19.49988,63.54186],[-19.49966,63.54206],[-19.49944,63.5423],[-19.49943,63.54245],[-19.49936,63.54261],[-19.49902,63.54291],[-19.49922,63.54303],[-19.49914,63.54319],[-19.49915,63.54334],[-19.49941,63.54356],[-19.49972,63.54359],[-19.5001,63.54388],[-19.50015,63.54399],[-19.50041,63.54419],[-19.50054,63.54443],[-19.50085,63.54454],[-19.50099,63.54479],[-19.50072,63.54498],[-19.50025,63.54516],[-19.50002,63.54531],[-19.49995,63.54554],[-19.50029,63.54579],[-19.50003,63.54589],[-19.49989,63.54605],[-19.4997,63.54617],[-19.49964,63.54633],[-19.49891,63.54642],[-19.49865,63.54649],[-19.49831,63.54667],[-19.49806,63.54681],[-19.49791,63.54701],[-19.49746,63.54715],[-19.49725,63.5476],[-19.49698,63.5477],[-19.49679,63.54779],[-19.49654,63.54788],[-19.49605,63.5479],[-19.49566,63.54808],[-19.49546,63.54817],[-19.49529,63.54835],[-19.49508,63.5484],[-19.49477,63.54849],[-19.49447,63.54868],[-19.49454,63.54885],[-19.49405,63.549],[-19.49401,63.54917],[-19.49386,63.54936],[-19.49371,63.5496],[-19.4937,63.54974],[-19.4935,63.54983],[-19.49334,63.55003],[-19.49337,63.55023],[-19.49291,63.55035],[-19.49267,63.55058],[-19.49249,63.55105],[-19.49237,63.55128],[-19.49208,63.55156],[-19.49203,63.5519],[-19.49153,63.55251],[-19.49144,63.55267],[-19.4913,63.55293],[-19.49132,63.55306],[-19.49119,63.55332],[-19.4912,63.55353],[-19.49109,63.55376],[-19.49108,63.55388],[-19.49133,63.55401],[-19.49145,63.55412],[-19.4914,63.55432],[-19.49132,63.55445],[-19.49115,63.55461],[-19.49114,63.55491],[-19.4913,63.55508],[-19.4914,63.5552],[-19.49131,63.55556],[-19.49135,63.55575],[-19.49134,63.55594],[-19.49121,63.5561],[-19.49107,63.55633],[-19.49098,63.55644],[-19.49098,63.55659],[-19.49108,63.55676],[-19.49102,63.55692],[-19.49095,63.55711],[-19.49113,63.55722],[-19.49117,63.55733],[-19.49096,63.55763],[-19.49103,63.55774],[-19.49081,63.55787],[-19.49075,63.55831],[-19.49068,63.55858],[-19.49049,63.55885],[-19.49033,63.55904],[-19.49019,63.55928],[-19.4901,63.55949],[-19.49012,63.55963],[-19.48986,63.55987],[-19.48991,63.55999],[-19.48972,63.56014],[-19.48945,63.56024],[-19.48911,63.56037],[-19.48865,63.56049],[-19.48813,63.56059],[-19.48788,63.5609],[-19.48703,63.56159],[-19.48686,63.56174],[-19.48682,63.56198],[-19.48698,63.56217],[-19.48697,63.56232],[-19.48716,63.56242],[-19.48747,63.56272],[-19.48754,63.5629],[-19.48763,63.56307],[-19.48803,63.56342],[-19.48839,63.56368],[-19.48888,63.56402],[-19.48916,63.56408],[-19.48953,63.56406],[-19.48972,63.56416],[-19.48994,63.56435],[-19.49023,63.56449],[-19.49041,63.56462],[-19.49048,63.56485],[-19.4902,63.56492],[-19.49,63.56506],[-19.4901,63.56525],[-19.49015,63.56537],[-19.49003,63.56547],[-19.48989,63.56567],[-19.48968,63.56589],[-19.48975,63.56611],[-19.48943,63.5662],[-19.48886,63.56633],[-19.48844,63.5665],[-19.48802,63.56668],[-19.48721,63.56717],[-19.48615,63.56757],[-19.48524,63.56776],[-19.48482,63.56793],[-19.48411,63.56806],[-19.4836,63.56824],[-19.48328,63.5684],[-19.48291,63.56859],[-19.48221,63.56874],[-19.48193,63.56875],[-19.48144,63.56878],[-19.4812,63.56887],[-19.48055,63.56905],[-19.48014,63.5691],[-19.47888,63.56987],[-19.4786,63.56997],[-19.47827,63.57009],[-19.47786,63.57016],[-19.47728,63.57049],[-19.47697,63.57067],[-19.47659,63.57087],[-19.47607,63.57091],[-19.47575,63.57096],[-19.47519,63.57101],[-19.47481,63.57096],[-19.47444,63.57094],[-19.47409,63.57098],[-19.47358,63.571],[-19.47213,63.57091],[-19.47172,63.57089],[-19.47097,63.57079],[-19.47064,63.57077],[-19.4704,63.57082],[-19.47003,63.57091],[-19.46944,63.57107],[-19.46871,63.5712],[-19.46796,63.57148],[-19.46753,63.57171],[-19.46732,63.57187],[-19.46704,63.5719],[-19.46664,63.57195],[-19.46639,63.57193],[-19.46601,63.57198],[-19.4657,63.57205],[-19.46535,63.57208],[-19.46501,63.57208],[-19.46402,63.57211],[-19.4632,63.57227],[-19.4628,63.57226],[-19.46262,63.57235],[-19.46232,63.57247],[-19.46216,63.57261],[-19.46184,63.57271],[-19.4617,63.57295],[-19.46128,63.57338],[-19.46102,63.57364],[-19.46077,63.57387],[-19.46048,63.57394],[-19.4603,63.57413],[-19.46013,63.57434],[-19.45993,63.57459],[-19.4598,63.57471],[-19.4596,63.57492],[-19.45905,63.57496],[-19.45831,63.57513],[-19.45758,63.57522],[-19.45692,63.5754],[-19.4566,63.57543],[-19.4561,63.57536],[-19.45574,63.57534],[-19.45535,63.57513],[-19.45509,63.57499],[-19.4548,63.57484],[-19.45463,63.57471],[-19.45436,63.57476],[-19.45407,63.5748],[-19.4536,63.57474],[-19.45331,63.57476],[-19.45278,63.57473],[-19.4523,63.5748],[-19.45177,63.57492],[-19.45143,63.57492],[-19.45121,63.57497],[-19.45091,63.57515],[-19.45003,63.57513],[-19.44964,63.57509],[-19.44906,63.57526],[-19.44882,63.57545],[-19.44847,63.57562],[-19.448,63.57583],[-19.44785,63.57594],[-19.4476,63.57604],[-19.44733,63.57618],[-19.44682,63.57645],[-19.44657,63.5768],[-19.44663,63.57697],[-19.4474,63.5774],[-19.44733,63.57776],[-19.44727,63.57792],[-19.4471,63.57813],[-19.4471,63.57838],[-19.44726,63.57859],[-19.44734,63.57876],[-19.44698,63.57932],[-19.44647,63.58004],[-19.44628,63.5805],[-19.44612,63.58064],[-19.44568,63.58092],[-19.44523,63.58116],[-19.44353,63.58177],[-19.44288,63.58209],[-19.4423,63.58235],[-19.44175,63.58252],[-19.44141,63.58277],[-19.44124,63.58292],[-19.44062,63.58312],[-19.43979,63.58337],[-19.43928,63.58348],[-19.43885,63.5835],[-19.43818,63.5835],[-19.43773,63.5835],[-19.43748,63.58355],[-19.43735,63.58366],[-19.43724,63.5838],[-19.43692,63.58418],[-19.43659,63.58451],[-19.43646,63.58472],[-19.43612,63.58555],[-19.43553,63.58614],[-19.43527,63.5865],[-19.43461,63.58706],[-19.43431,63.58737],[-19.43396,63.5877],[-19.4337,63.58811],[-19.43365,63.58844],[-19.43374,63.5886],[-19.43393,63.58887],[-19.43395,63.58907],[-19.43386,63.58917],[-19.43342,63.58937],[-19.43323,63.58975],[-19.43306,63.5901],[-19.43295,63.59031],[-19.43306,63.59058],[-19.43328,63.59079],[-19.43347,63.59105],[-19.43381,63.59131],[-19.43391,63.59152],[-19.43382,63.59165],[-19.43355,63.59183],[-19.43345,63.59201],[-19.43359,63.59212],[-19.43371,63.59228],[-19.43379,63.59253],[-19.43385,63.59285],[-19.43383,63.59312],[-19.43369,63.59332],[-19.43365,63.59348],[-19.43411,63.59375],[-19.43504,63.59453],[-19.43522,63.59462],[-19.43559,63.59476],[-19.43572,63.59495],[-19.43561,63.59505],[-19.43537,63.59539],[-19.43525,63.59571],[-19.43517,63.59586],[-19.43486,63.59602],[-19.43491,63.59622],[-19.43511,63.59634],[-19.43512,63.59652],[-19.43507,63.59664],[-19.43493,63.59673],[-19.43464,63.59684],[-19.43436,63.59695],[-19.43426,63.59705],[-19.43422,63.59731],[-19.43425,63.59748],[-19.43417,63.59774],[-19.43419,63.59789],[-19.43433,63.59808],[-19.43446,63.59827],[-19.43458,63.59853],[-19.43464,63.59873],[-19.43467,63.59894],[-19.43462,63.59919],[-19.43474,63.59948],[-19.43482,63.59959],[-19.43494,63.59971],[-19.43503,63.59982],[-19.43535,63.59998],[-19.43562,63.60004],[-19.436,63.60012],[-19.43609,63.60024],[-19.43594,63.60043],[-19.43536,63.60105],[-19.43518,63.60127],[-19.43497,63.60153],[-19.43486,63.60167],[-19.43485,63.60187],[-19.43491,63.60214],[-19.43503,63.60228],[-19.43523,63.6024],[-19.43562,63.60252],[-19.43584,63.6026],[-19.43603,63.60279],[-19.43595,63.60302],[-19.43569,63.60324],[-19.43498,63.60376],[-19.43495,63.60389],[-19.43499,63.60408],[-19.43508,63.60429],[-19.43483,63.6046],[-19.43463,63.60483],[-19.43449,63.60515],[-19.4344,63.60533],[-19.43426,63.60544],[-19.4341,63.60553],[-19.43359,63.60581],[-19.43336,63.60597],[-19.43322,63.60615],[-19.43308,63.60624],[-19.43275,63.60633],[-19.43251,63.60642],[-19.43219,63.60658],[-19.43211,63.6067],[-19.43217,63.60689],[-19.43217,63.60703],[-19.4319,63.60734],[-19.43181,63.60784],[-19.43171,63.6084],[-19.43176,63.6087],[-19.43176,63.60883],[-19.43164,63.609],[-19.43142,63.6092],[-19.43139,63.60938],[-19.43128,63.60966],[-19.43126,63.60998],[-19.43127,63.6101],[-19.43143,63.61037],[-19.43145,63.61055],[-19.43168,63.61069],[-19.43226,63.61072],[-19.43312,63.6108],[-19.43341,63.61087],[-19.43365,63.6111],[-19.43386,63.61125],[-19.43413,63.61125],[-19.43478,63.61118],[-19.43536,63.61116],[-19.43591,63.61122],[-19.43626,63.61124],[-19.43682,63.6112],[-19.4375,63.61121],[-19.43792,63.61118],[-19.43827,63.61111],[-19.43859,63.61104],[-19.43896,63.611],[-19.43949,63.61098],[-19.44011,63.61098],[-19.44067,63.61098],[-19.44094,63.61097],[-19.44112,63.61114],[-19.44129,63.61136],[-19.44126,63.61151],[-19.44123,63.6118],[-19.44161,63.61236],[-19.44207,63.61274],[-19.44235,63.61312],[-19.44276,63.61347],[-19.44286,63.61373],[-19.44292,63.61388],[-19.44307,63.61429],[-19.44304,63.61459],[-19.44299,63.61515],[-19.44272,63.61573],[-19.4426,63.61594],[-19.44257,63.61642],[-19.44267,63.61681],[-19.44244,63.61708],[-19.44212,63.61748],[-19.44202,63.61796],[-19.44177,63.61937],[-19.44156,63.6202],[-19.4417,63.62036],[-19.4409,63.62087],[-19.44064,63.62114],[-19.44071,63.62155],[-19.44017,63.62207],[-19.43983,63.62253],[-19.43987,63.62274],[-19.44033,63.6229],[-19.44045,63.62309],[-19.44046,63.62349],[-19.44066,63.6244],[-19.44085,63.62485],[-19.44096,63.62539],[-19.44115,63.62582],[-19.44146,63.62614],[-19.44184,63.62641],[-19.44274,63.62701],[-19.44311,63.6274],[-19.44303,63.62776],[-19.44217,63.62848],[-19.44164,63.62881],[-19.44131,63.62911],[-19.44113,63.62923],[-19.44097,63.62936],[-19.4408,63.62955],[-19.44001,63.63006],[-19.43983,63.63024],[-19.43887,63.63096],[-19.43856,63.63161],[-19.43837,63.632],[-19.43866,63.63381],[-19.43921,63.63376],[-19.4397,63.6338],[-19.44081,63.63383],[-19.4416,63.63386],[-19.44212,63.6339],[-19.44244,63.63402],[-19.44268,63.63424],[-19.4431,63.63461],[-19.44323,63.63481],[-19.44326,63.63498],[-19.44314,63.63518],[-19.44306,63.63532],[-19.4429,63.63559],[-19.44272,63.63573],[-19.44275,63.63606],[-19.4429,63.6365],[-19.4428,63.63663],[-19.4429,63.63677],[-19.44298,63.63688],[-19.44269,63.63698],[-19.44244,63.63715],[-19.4422,63.63729],[-19.44205,63.63753],[-19.44231,63.63785],[-19.44221,63.63799],[-19.44205,63.63817],[-19.4425,63.63845]],[[-19.48223,63.67792],[-19.48262,63.67793],[-19.48132,63.67794],[-19.48088,63.67798],[-19.4801,63.67789],[-19.47926,63.67784],[-19.47891,63.67782],[-19.47863,63.67784],[-19.47746,63.67747],[-19.47698,63.67735],[-19.47656,63.67744],[-19.47622,63.67743],[-19.47547,63.67734],[-19.47502,63.67735],[-19.47433,63.67727],[-19.47408,63.67718],[-19.47369,63.67712],[-19.47308,63.67681],[-19.47261,63.67672],[-19.47231,63.67658],[-19.47123,63.67608],[-19.47044,63.67581],[-19.46999,63.67569],[-19.46961,63.67556],[-19.46929,63.67563],[-19.46926,63.67596],[-19.46912,63.67616],[-19.46893,63.67632],[-19.46874,63.67653],[-19.46818,63.67651],[-19.46749,63.67638],[-19.46717,63.6764],[-19.46648,63.67631],[-19.46588,63.67614],[-19.46529,63.67612],[-19.46503,63.67608],[-19.46459,63.67617],[-19.46409,63.67618],[-19.46353,63.67609],[-19.46327,63.67604],[-19.46303,63.67574],[-19.46275,63.67584],[-19.46242,63.6759],[-19.46215,63.67589],[-19.46194,63.67595],[-19.46136,63.67599],[-19.46085,63.67605],[-19.46047,63.67597],[-19.46032,63.67588],[-19.45997,63.67575],[-19.45968,63.6758],[-19.45944,63.67584],[-19.45916,63.67587],[-19.45888,63.67593],[-19.45858,63.67601],[-19.45812,63.67605],[-19.45787,63.676],[-19.45763,63.67596],[-19.45733,63.67596],[-19.45711,63.67586],[-19.45676,63.67585],[-19.45646,63.67583],[-19.45624,63.67577],[-19.45584,63.67572],[-19.4553,63.67564],[-19.45506,63.67555],[-19.45483,63.67543],[-19.4547,63.67527],[-19.45463,63.67515],[-19.45471,63.67504],[-19.45439,63.67503],[-19.45471,63.67504],[-19.45397,63.67504],[-19.4537,63.67494],[-19.45328,63.67474],[-19.45276,63.67453],[-19.4521,63.67437],[-19.45078,63.6741],[-19.45052,63.67404],[-19.4503,63.67399],[-19.44983,63.674],[-19.44939,63.67394],[-19.44921,63.67384],[-19.44904,63.67376],[-19.44882,63.67355],[-19.44846,63.6735],[-19.44802,63.67351],[-19.44748,63.6734],[-19.44728,63.67333],[-19.44707,63.67312],[-19.44649,63.67298],[-19.44572,63.67255],[-19.44532,63.67242],[-19.44466,63.67239],[-19.44399,63.67228],[-19.44366,63.67215],[-19.4436,63.67188],[-19.44356,63.67176],[-19.4438,63.67173],[-19.44395,63.67163],[-19.44392,63.67149],[-19.44389,63.67137],[-19.44358,63.67138],[-19.44327,63.67143],[-19.443,63.67141],[-19.44261,63.6715],[-19.44222,63.67149],[-19.44222,63.67162],[-19.44223,63.67175],[-19.44208,63.67185],[-19.44179,63.6718],[-19.44156,63.67171],[-19.44063,63.67162],[-19.44025,63.67162],[-19.43969,63.67148],[-19.43929,63.67142],[-19.43877,63.67126],[-19.43792,63.67113],[-19.43736,63.67101],[-19.43687,63.67096],[-19.4359,63.67074],[-19.43467,63.67048],[-19.43328,63.67028],[-19.43195,63.66997],[-19.43116,63.66968],[-19.43058,63.66941],[-19.43003,63.66902],[-19.42949,63.66859],[-19.42906,63.66825],[-19.42881,63.66799],[-19.42842,63.66788],[-19.42844,63.66774],[-19.42841,63.66746],[-19.42853,63.66728],[-19.42844,63.66703],[-19.42843,63.66669],[-19.42838,63.66658],[-19.42846,63.66639],[-19.42832,63.66613],[-19.42812,63.66603],[-19.42785,63.66595],[-19.42758,63.66585],[-19.4272,63.66586],[-19.42701,63.66578],[-19.42699,63.66567],[-19.42709,63.66551],[-19.42705,63.6652],[-19.42723,63.66507],[-19.4272,63.66479],[-19.4272,63.66445],[-19.42753,63.66429],[-19.42771,63.66418],[-19.42778,63.66386],[-19.42769,63.66372],[-19.42764,63.66356],[-19.42718,63.66334],[-19.42705,63.6632],[-19.42681,63.6631],[-19.42651,63.66302],[-19.42654,63.6629],[-19.42626,63.66251],[-19.42626,63.66224],[-19.42607,63.66208],[-19.42591,63.66171],[-19.42569,63.66136],[-19.42553,63.66111],[-19.42548,63.6608],[-19.42541,63.66062],[-19.42545,63.66049],[-19.42551,63.66035],[-19.42542,63.66011],[-19.4255,63.65969],[-19.42572,63.6595],[-19.42613,63.6594],[-19.42574,63.65938],[-19.42549,63.6593],[-19.42561,63.65908],[-19.42554,63.65896],[-19.42561,63.65879],[-19.42562,63.65856],[-19.4255,63.65844],[-19.42579,63.65818],[-19.42583,63.65798],[-19.42609,63.65762],[-19.42635,63.65728],[-19.42655,63.65691],[-19.42687,63.6565],[-19.42703,63.65621],[-19.42733,63.65592],[-19.42733,63.6557],[-19.42758,63.65523],[-19.42793,63.65445],[-19.42839,63.65344],[-19.42887,63.65245],[-19.4297,63.65073],[-19.42995,63.65031],[-19.43034,63.64995],[-19.43033,63.64983],[-19.43054,63.64968],[-19.43063,63.64938],[-19.43068,63.6489],[-19.43088,63.64884],[-19.43123,63.64865],[-19.43154,63.64854],[-19.43174,63.64844],[-19.43192,63.64835],[-19.43222,63.64822],[-19.43261,63.64809],[-19.43247,63.64798],[-19.43304,63.64782],[-19.43329,63.6477],[-19.43345,63.64759],[-19.43377,63.64748],[-19.43414,63.64745],[-19.43445,63.64727],[-19.43467,63.64722],[-19.43502,63.64699],[-19.43548,63.64671],[-19.43611,63.64645],[-19.43613,63.64632],[-19.43637,63.64625],[-19.43645,63.64611],[-19.43661,63.64595],[-19.43668,63.64581],[-19.43688,63.64559],[-19.43681,63.64547],[-19.4367,63.64532],[-19.43662,63.64521],[-19.43683,63.64508],[-19.43722,63.64477],[-19.43724,63.64466],[-19.43728,63.64453],[-19.43733,63.64435],[-19.43766,63.64419],[-19.43768,63.64394],[-19.4376,63.64382],[-19.43778,63.64374],[-19.43789,63.64356],[-19.43811,63.64343],[-19.43845,63.64332],[-19.4385,63.6432],[-19.43872,63.64301],[-19.43909,63.64284],[-19.43918,63.6425],[-19.43914,63.64222],[-19.43913,63.64205],[-19.43919,63.6418],[-19.43906,63.64169],[-19.43891,63.64154],[-19.43862,63.64139],[-19.4384,63.64122],[-19.43811,63.64096],[-19.43809,63.6408],[-19.43831,63.64069],[-19.43859,63.64064],[-19.43902,63.6404],[-19.43969,63.6402],[-19.43997,63.64007],[-19.44029,63.64002],[-19.44096,63.64006]]]}}