{"type":"Feature","properties":{"slug":"glymur-waterfall-hike","osm_id":6125533,"name":"Glymur","length_km":6.3,"closed":true,"endpoints":{"start":[64.38502,-21.29305],"end":[64.38522,-21.28888]},"source":"https://www.openstreetmap.org/relation/6125533"},"geometry":{"type":"MultiLineString","coordinates":[[[-21.29305,64.38502],[-21.29262,64.38496],[-21.29152,64.38487],[-21.29082,64.38487],[-21.29048,64.38489],[-21.29007,64.38496],[-21.28973,64.38502],[-21.28947,64.3851],[-21.28927,64.38517],[-21.28888,64.38522],[-21.28851,64.38525],[-21.28812,64.38521],[-21.28786,64.38513],[-21.28755,64.38503],[-21.28678,64.38488],[-21.28605,64.38475],[-21.28556,64.38468],[-21.28529,64.38459],[-21.28488,64.38456],[-21.28458,64.3845],[-21.28427,64.38451],[-21.2833,64.38463],[-21.28293,64.38461],[-21.28242,64.38462],[-21.28203,64.38462],[-21.28138,64.38459],[-21.2811,64.3846],[-21.2808,64.38453],[-21.28051,64.38451],[-21.27985,64.38444],[-21.27929,64.38444],[-21.27896,64.38443],[-21.27861,64.38442],[-21.27831,64.38436],[-21.27806,64.3843],[-21.27756,64.38425],[-21.27719,64.3842],[-21.27682,64.38409],[-21.27651,64.384],[-21.2762,64.38396],[-21.27575,64.3839],[-21.27543,64.38379],[-21.27523,64.3837],[-21.27485,64.38367],[-21.27448,64.38366],[-21.27396,64.38356],[-21.27355,64.3835],[-21.27307,64.38353],[-21.27271,64.38355],[-21.27235,64.38354],[-21.27198,64.38357],[-21.27162,64.38352],[-21.27106,64.38329],[-21.27075,64.38316],[-21.27003,64.38292],[-21.26966,64.38275],[-21.26939,64.3827],[-21.26913,64.38265],[-21.26853,64.38275],[-21.26747,64.38296],[-21.26704,64.38303],[-21.26676,64.38308],[-21.26647,64.3831],[-21.26612,64.38312],[-21.26584,64.38306],[-21.26561,64.38301],[-21.26536,64.38306],[-21.26507,64.38319],[-21.26477,64.38329],[-21.26457,64.38338],[-21.26429,64.38353],[-21.2641,64.3836],[-21.26384,64.38363],[-21.2637,64.38352],[-21.26347,64.38363],[-21.26336,64.38377],[-21.26329,64.38389],[-21.26313,64.38398],[-21.26297,64.3841],[-21.2629,64.38421],[-21.26278,64.38431],[-21.26258,64.38448],[-21.26231,64.38462],[-21.26207,64.38472],[-21.26198,64.38488],[-21.26183,64.38496],[-21.26153,64.38502],[-21.26123,64.38507],[-21.26092,64.38518],[-21.26074,64.38526],[-21.26038,64.38535],[-21.2597,64.38565],[-21.25947,64.38573],[-21.25912,64.38583],[-21.2589,64.38593],[-21.25868,64.38605],[-21.25821,64.3862],[-21.25828,64.38634],[-21.25835,64.38645],[-21.25823,64.38656],[-21.25807,64.38665],[-21.25778,64.38663],[-21.25757,64.38675],[-21.25745,64.38688],[-21.25727,64.38698],[-21.25691,64.38711],[-21.25679,64.38723],[-21.25646,64.38725],[-21.2562,64.38729],[-21.25595,64.38726],[-21.25567,64.38722],[-21.25549,64.38733],[-21.25515,64.38739],[-21.25495,64.38749],[-21.2549,64.38761],[-21.25495,64.38773],[-21.25507,64.38787],[-21.25486,64.38798],[-21.25456,64.38803],[-21.25439,64.38814],[-21.25408,64.38822],[-21.25373,64.38832],[-21.2535,64.38845],[-21.25336,64.38857],[-21.25317,64.38867],[-21.25297,64.38879],[-21.25283,64.3889],[-21.25276,64.38901],[-21.2527,64.38913],[-21.25257,64.38925],[-21.25253,64.38947],[-21.25217,64.38945],[-21.25186,64.38948],[-21.25159,64.38957],[-21.2515,64.38971],[-21.25132,64.38986],[-21.25123,64.39005],[-21.25116,64.39018],[-21.25102,64.3903],[-21.25107,64.39054],[-21.251,64.39072],[-21.25091,64.39083],[-21.25068,64.39116],[-21.2505,64.39133],[-21.25026,64.39143],[-21.25003,64.39149],[-21.24962,64.39171],[-21.24943,64.39185],[-21.24928,64.39196],[-21.2491,64.39213],[-21.24866,64.39237],[-21.2481,64.39255],[-21.24763,64.39268],[-21.24781,64.3928],[-21.24788,64.39296],[-21.24814,64.393],[-21.24848,64.39289],[-21.24885,64.39279],[-21.2491,64.39271],[-21.24936,64.39259],[-21.24994,64.39244],[-21.25041,64.39228],[-21.2507,64.39209],[-21.25095,64.39198],[-21.25136,64.3919],[-21.25163,64.39187],[-21.25194,64.39182],[-21.25239,64.39166],[-21.25274,64.39156],[-21.25319,64.39142],[-21.25343,64.39133],[-21.25368,64.39126],[-21.25412,64.39117],[-21.25438,64.39109],[-21.2546,64.39102],[-21.25488,64.39081],[-21.2551,64.39068],[-21.25533,64.39063],[-21.25566,64.39064],[-21.25595,64.39067],[-21.25624,64.39068],[-21.25663,64.39071],[-21.25699,64.39073],[-21.25737,64.3908],[-21.2582,64.39081],[-21.25846,64.39086],[-21.25892,64.39102],[-21.25953,64.39114],[-21.25979,64.39121],[-21.26013,64.39131],[-21.26055,64.39147],[-21.26094,64.39152],[-21.26139,64.39144],[-21.26172,64.39148],[-21.26204,64.39149],[-21.26234,64.39144],[-21.26279,64.3915],[-21.26311,64.3916],[-21.26347,64.39167],[-21.26439,64.39203],[-21.26473,64.39219],[-21.2649,64.39231],[-21.26512,64.39239],[-21.26559,64.39249],[-21.26603,64.39255],[-21.26669,64.3927],[-21.26708,64.39273],[-21.26789,64.39258],[-21.26819,64.39243],[-21.26859,64.39235],[-21.26885,64.39233],[-21.26911,64.39233],[-21.2693,64.39242],[-21.26961,64.39242],[-21.27003,64.39248],[-21.27035,64.39249],[-21.27059,64.39257],[-21.27082,64.39272],[-21.27102,64.39279],[-21.27165,64.3928],[-21.27188,64.39261],[-21.27223,64.39262],[-21.27256,64.39261],[-21.27258,64.39246],[-21.27322,64.39209],[-21.27316,64.39185],[-21.27303,64.39158],[-21.27307,64.39147],[-21.27307,64.39132],[-21.27298,64.3911],[-21.27308,64.39096],[-21.27345,64.39093],[-21.27423,64.39105],[-21.27482,64.39106],[-21.27513,64.39107],[-21.27569,64.39101],[-21.27649,64.39075],[-21.27666,64.39067],[-21.27676,64.39031],[-21.2769,64.39007],[-21.2772,64.3899],[-21.27742,64.38984],[-21.27868,64.38973],[-21.27911,64.38975],[-21.27978,64.38972],[-21.28006,64.38975],[-21.28033,64.38975],[-21.28081,64.38985],[-21.28108,64.3899],[-21.28136,64.38992],[-21.28247,64.38979],[-21.28274,64.38965],[-21.28298,64.38959],[-21.28418,64.38955],[-21.28453,64.38944],[-21.28478,64.38895],[-21.28482,64.38879],[-21.28496,64.38858],[-21.28464,64.38821],[-21.28403,64.388],[-21.28406,64.38786],[-21.285,64.38764],[-21.28524,64.38752],[-21.28499,64.38745],[-21.28468,64.38749],[-21.28378,64.38728],[-21.28333,64.38726],[-21.28306,64.38725],[-21.28287,64.38707],[-21.28315,64.38689],[-21.28362,64.38678],[-21.2839,64.38675],[-21.28426,64.38677],[-21.2848,64.38678],[-21.28537,64.38682],[-21.28635,64.38684],[-21.28664,64.38683],[-21.28687,64.38678],[-21.28728,64.3866],[-21.28755,64.38651],[-21.28741,64.38638],[-21.2871,64.3863],[-21.28669,64.3862],[-21.28612,64.38611],[-21.2857,64.386],[-21.28556,64.38587],[-21.28572,64.38575],[-21.28618,64.3856],[-21.28675,64.38552],[-21.28755,64.38543],[-21.28789,64.38539],[-21.28831,64.38539],[-21.28868,64.38527],[-21.28888,64.38522]]]}}