{"type":"Feature","properties":{"slug":"gunung-jasar-cameron-highlands","osm_id":11758413,"name":"Gunung Jasar - Cameron Valley Tea Trail","length_km":5,"closed":false,"endpoints":{"start":[4.47572,101.36632],"end":[4.45392,101.36905]},"source":"https://www.openstreetmap.org/relation/11758413"},"geometry":{"type":"MultiLineString","coordinates":[[[101.36632,4.47572],[101.36624,4.47551],[101.36619,4.4754],[101.36596,4.4754],[101.36582,4.4754],[101.3657,4.47528],[101.36562,4.47546],[101.3655,4.47563],[101.36535,4.47579],[101.36513,4.47601],[101.36501,4.47608],[101.36485,4.4764],[101.36463,4.47656],[101.36452,4.47665],[101.36436,4.47671],[101.36416,4.47689],[101.36402,4.47701],[101.36388,4.47709],[101.36364,4.4773],[101.3635,4.47732],[101.36337,4.47731],[101.36318,4.47716],[101.36305,4.477],[101.36284,4.47688],[101.36267,4.47688],[101.36243,4.47713],[101.36228,4.47725],[101.36212,4.47733],[101.36192,4.47741],[101.36171,4.47741],[101.36155,4.47735],[101.36147,4.4772],[101.36138,4.4771],[101.36128,4.47705],[101.36116,4.47695],[101.36105,4.47677],[101.36102,4.47665],[101.36103,4.47651],[101.3611,4.47635],[101.36116,4.47617],[101.3611,4.47602],[101.36105,4.47582],[101.36101,4.47533],[101.3609,4.47516],[101.36088,4.47493],[101.36091,4.4745],[101.36099,4.47432],[101.36107,4.47379],[101.3611,4.47352],[101.36105,4.47337],[101.36095,4.47324],[101.3609,4.47309],[101.36075,4.47291],[101.36064,4.4728],[101.36061,4.47261],[101.36056,4.4724],[101.36051,4.4723],[101.36047,4.47212],[101.36042,4.47191],[101.3604,4.4717],[101.36044,4.47152],[101.36047,4.47138],[101.36046,4.47125],[101.36046,4.47112],[101.36043,4.47098],[101.3603,4.47079],[101.36021,4.4707],[101.36014,4.47059],[101.36016,4.47041],[101.36019,4.4703],[101.36032,4.47025],[101.36046,4.47011],[101.36049,4.47001],[101.36046,4.4699],[101.36039,4.4698],[101.36033,4.46954],[101.36029,4.46925],[101.36024,4.46904],[101.36016,4.46886],[101.36015,4.46873],[101.36016,4.46847],[101.36014,4.46825],[101.3601,4.46806],[101.36003,4.46792],[101.35996,4.46783],[101.35987,4.46766],[101.35976,4.46762],[101.35964,4.46758],[101.35962,4.46745],[101.35964,4.46731],[101.35977,4.46723],[101.35981,4.46712],[101.35974,4.46703],[101.35966,4.46691],[101.35958,4.46672],[101.35956,4.46655],[101.35953,4.46642],[101.35951,4.46628],[101.35942,4.46606],[101.35938,4.46587],[101.35939,4.46575],[101.3594,4.46564],[101.35931,4.46552],[101.35921,4.46548],[101.35912,4.46534],[101.35919,4.46521],[101.3593,4.46505],[101.35935,4.46488],[101.35938,4.46472],[101.35938,4.46455],[101.35938,4.46437],[101.35935,4.46419],[101.35937,4.46405],[101.35937,4.46394],[101.35938,4.4638],[101.35942,4.46363],[101.35944,4.46345],[101.35953,4.46335],[101.35961,4.46322],[101.35954,4.46307],[101.35942,4.46297],[101.35932,4.46288],[101.35927,4.46268],[101.3594,4.46259],[101.35944,4.46247],[101.35938,4.46231],[101.35935,4.46221],[101.35942,4.46209],[101.35957,4.46203],[101.35973,4.46201],[101.35979,4.46188],[101.35994,4.46171],[101.36003,4.46163],[101.36012,4.46153],[101.36001,4.46142],[101.35987,4.46143],[101.35976,4.46147],[101.35962,4.46154],[101.35946,4.46154],[101.35944,4.46143],[101.35939,4.4613],[101.35937,4.46115],[101.3594,4.46101],[101.35946,4.46089],[101.35957,4.4608],[101.35966,4.46071],[101.35977,4.46059],[101.35982,4.46044],[101.3599,4.46036],[101.35999,4.46026],[101.36003,4.46015],[101.36006,4.46005],[101.36008,4.45988],[101.36008,4.45967],[101.36003,4.45952],[101.35996,4.45943],[101.35988,4.45935],[101.35979,4.45927],[101.35979,4.45916],[101.3598,4.45904],[101.35981,4.45888],[101.35976,4.45876],[101.35959,4.45861],[101.35948,4.45843],[101.35937,4.45832],[101.35923,4.45822],[101.35918,4.45807],[101.3592,4.45791],[101.35919,4.45765],[101.35918,4.45747],[101.35919,4.45735],[101.35919,4.45723],[101.35916,4.45708],[101.35912,4.45697],[101.35932,4.4569],[101.3595,4.45692],[101.35967,4.45693],[101.35983,4.45679],[101.35993,4.4567],[101.36004,4.45666],[101.36013,4.45658],[101.36018,4.45647],[101.36023,4.45632],[101.36032,4.45619],[101.36062,4.45598],[101.36087,4.45596],[101.36103,4.45601],[101.36116,4.45604],[101.36136,4.45597],[101.36153,4.45597],[101.36166,4.45589],[101.36181,4.45587],[101.36198,4.45577],[101.36217,4.45569],[101.36235,4.45558],[101.3625,4.45545],[101.36286,4.45513],[101.36299,4.45517],[101.36314,4.45511],[101.36322,4.45503],[101.36354,4.455],[101.36365,4.45497],[101.36379,4.45486],[101.36387,4.45474],[101.36409,4.45472],[101.36435,4.45456],[101.36447,4.45451],[101.36462,4.45446],[101.36488,4.45445],[101.36496,4.45438],[101.36498,4.45423],[101.36505,4.4541],[101.36515,4.45403],[101.36514,4.45389],[101.36507,4.45378],[101.36509,4.45357],[101.36515,4.45346],[101.36529,4.45329],[101.3654,4.45314],[101.36546,4.45298],[101.36554,4.45281],[101.36571,4.45275],[101.36585,4.45282],[101.36596,4.45288],[101.3661,4.45291],[101.36627,4.45291],[101.36642,4.45284],[101.36654,4.4528],[101.36666,4.45276],[101.36681,4.45273],[101.36681,4.45297],[101.36658,4.45309],[101.36643,4.45318],[101.36641,4.45338],[101.36644,4.45355],[101.36681,4.45374],[101.36709,4.45384],[101.36737,4.4539],[101.36761,4.45389],[101.36791,4.4539],[101.36812,4.45395],[101.36821,4.45404],[101.36835,4.45423],[101.36862,4.45441],[101.36869,4.45431],[101.36871,4.45413],[101.36884,4.45398],[101.36905,4.45392]]]}}