{"type":"Feature","properties":{"slug":"gwaneumsa-trail-hallasan","osm_id":16555367,"name":"관음사코스","length_km":8.4,"closed":false,"endpoints":{"start":[33.361,126.53572],"end":[33.42194,126.55023]},"source":"https://www.openstreetmap.org/relation/16555367"},"geometry":{"type":"MultiLineString","coordinates":[[[126.53572,33.361],[126.53573,33.36112],[126.53578,33.36122],[126.53578,33.36151],[126.53575,33.36164],[126.53578,33.36181],[126.53589,33.36215],[126.53593,33.36227],[126.53594,33.3624],[126.53583,33.36256],[126.53582,33.36275],[126.53579,33.36287],[126.53563,33.36304],[126.53539,33.36314],[126.53525,33.36327],[126.53507,33.36331],[126.53496,33.36345],[126.53478,33.36348],[126.53457,33.36355],[126.53468,33.36376],[126.53463,33.36405],[126.53453,33.36423],[126.53441,33.36486],[126.53433,33.36494],[126.53416,33.365],[126.53397,33.36562],[126.53398,33.36618],[126.53415,33.36653],[126.53416,33.36693],[126.53369,33.36806],[126.53396,33.3686],[126.534,33.36888],[126.53395,33.36919],[126.53378,33.36949],[126.5334,33.36978],[126.53324,33.3699],[126.5331,33.36995],[126.53296,33.36993],[126.53292,33.36958],[126.53295,33.36946],[126.53286,33.36935],[126.53257,33.36927],[126.53238,33.36923],[126.53214,33.36928],[126.53188,33.36929],[126.53171,33.36921],[126.53132,33.36931],[126.53113,33.36948],[126.53108,33.36964],[126.53094,33.36992],[126.53084,33.37013],[126.53066,33.37036],[126.5304,33.37059],[126.53034,33.37077],[126.53005,33.37102],[126.52994,33.37117],[126.52986,33.37132],[126.52978,33.37147],[126.52969,33.37162],[126.52969,33.3718],[126.52991,33.37207],[126.53015,33.37232],[126.52963,33.37262],[126.52976,33.37281],[126.52982,33.37381],[126.52979,33.37396],[126.52972,33.3741],[126.52982,33.37426],[126.52998,33.37442],[126.53004,33.37456],[126.53002,33.37466],[126.53003,33.37491],[126.53013,33.37507],[126.53022,33.37521],[126.53024,33.37534],[126.53026,33.3755],[126.53035,33.37569],[126.53032,33.37581],[126.53031,33.37606],[126.53043,33.37619],[126.53063,33.37635],[126.53069,33.37664],[126.53078,33.37697],[126.53101,33.37723],[126.53123,33.37749],[126.53128,33.37776],[126.53121,33.37793],[126.5312,33.37805],[126.5312,33.37825],[126.53134,33.37836],[126.53155,33.37858],[126.5316,33.37868],[126.53168,33.37879],[126.53188,33.37899],[126.53232,33.3794],[126.53246,33.37957],[126.53277,33.37977],[126.53294,33.37991],[126.5332,33.38026],[126.53376,33.38085],[126.53399,33.38161],[126.53458,33.38268],[126.53486,33.38339],[126.53524,33.38391],[126.53559,33.38421],[126.53572,33.38452],[126.53633,33.38516],[126.53636,33.38533],[126.53651,33.38551],[126.53668,33.38563],[126.53674,33.38585],[126.53689,33.38597],[126.5369,33.38615],[126.53703,33.38628],[126.53717,33.38703],[126.5372,33.38746],[126.53726,33.38766],[126.53738,33.38785],[126.53744,33.38809],[126.53744,33.38823],[126.53742,33.3884],[126.53749,33.38858],[126.53757,33.38873],[126.53774,33.38902],[126.53781,33.38917],[126.53786,33.38934],[126.53791,33.38947],[126.53793,33.3896],[126.53788,33.38972],[126.53784,33.38982],[126.53788,33.38995],[126.5379,33.39009],[126.53797,33.39027],[126.53801,33.39045],[126.53803,33.39064],[126.53802,33.39084],[126.53797,33.391],[126.53788,33.3911],[126.53784,33.39121],[126.53782,33.39137],[126.53785,33.39151],[126.53791,33.3916],[126.53803,33.39171],[126.53801,33.39185],[126.53791,33.39193],[126.5378,33.39203],[126.53782,33.39226],[126.53776,33.3924],[126.53773,33.39253],[126.53771,33.39286],[126.5377,33.39297],[126.53774,33.39312],[126.53786,33.39337],[126.53783,33.39349],[126.53784,33.39364],[126.53791,33.39383],[126.53794,33.39404],[126.53807,33.39438],[126.53807,33.39452],[126.53812,33.39479],[126.53815,33.39496],[126.5382,33.3951],[126.53831,33.39523],[126.53841,33.39542],[126.53851,33.39564],[126.53857,33.39583],[126.5386,33.39603],[126.53864,33.39619],[126.53864,33.3964],[126.53869,33.3966],[126.53881,33.39683],[126.53907,33.39738],[126.53921,33.39768],[126.53929,33.39795],[126.53939,33.39813],[126.53937,33.39832],[126.53932,33.39845],[126.53932,33.39858],[126.53944,33.39888],[126.53948,33.39913],[126.53947,33.39927],[126.53958,33.39944],[126.53967,33.39955],[126.53974,33.39975],[126.53979,33.39993],[126.53989,33.40011],[126.53994,33.40023],[126.54006,33.40036],[126.54022,33.40043],[126.54025,33.40055],[126.54029,33.40083],[126.54034,33.40115],[126.5403,33.40128],[126.54017,33.40143],[126.54009,33.40156],[126.5401,33.4017],[126.54004,33.40181],[126.5399,33.40204],[126.53982,33.40225],[126.5398,33.4024],[126.5398,33.40258],[126.5399,33.40275],[126.53999,33.40295],[126.54039,33.40298],[126.54057,33.40308],[126.54067,33.40316],[126.54098,33.40343],[126.54124,33.40371],[126.54143,33.40381],[126.54159,33.40387],[126.54174,33.40398],[126.54183,33.40413],[126.54207,33.4045],[126.5421,33.40469],[126.54203,33.40487],[126.54193,33.40504],[126.54196,33.40529],[126.54197,33.40544],[126.54196,33.40567],[126.54196,33.40582],[126.54192,33.40597],[126.54197,33.4063],[126.54208,33.4068],[126.5421,33.40704],[126.5421,33.40732],[126.54221,33.40751],[126.54247,33.4076],[126.54272,33.40765],[126.5429,33.40773],[126.54326,33.408],[126.54331,33.40817],[126.54335,33.40827],[126.54355,33.40846],[126.5437,33.40871],[126.54388,33.40891],[126.54403,33.40897],[126.54418,33.40916],[126.54435,33.40924],[126.54442,33.40935],[126.54446,33.40954],[126.54448,33.40965],[126.54437,33.40982],[126.54441,33.40995],[126.54469,33.41018],[126.54491,33.41025],[126.54521,33.41035],[126.54542,33.41031],[126.54556,33.41033],[126.54566,33.41046],[126.54592,33.4107],[126.54626,33.41084],[126.54637,33.4109],[126.54653,33.41101],[126.54663,33.41114],[126.5468,33.41121],[126.54708,33.4112],[126.5473,33.41118],[126.5476,33.41136],[126.54769,33.41144],[126.54783,33.4115],[126.54803,33.41149],[126.54821,33.41153],[126.54828,33.41172],[126.54824,33.41186],[126.54821,33.41209],[126.54821,33.41227],[126.54832,33.41236],[126.5486,33.41244],[126.5487,33.41266],[126.54884,33.41279],[126.5489,33.41292],[126.54898,33.41304],[126.54896,33.41315],[126.54902,33.41333],[126.54921,33.41342],[126.54927,33.41352],[126.54929,33.41364],[126.5493,33.41376],[126.54938,33.41388],[126.54929,33.41418],[126.54921,33.41435],[126.54911,33.41456],[126.54892,33.41465],[126.54878,33.41486],[126.54867,33.41517],[126.54836,33.41526],[126.54825,33.41538],[126.548,33.41543],[126.54783,33.41557],[126.54775,33.41573],[126.54774,33.41592],[126.54775,33.41621],[126.5478,33.41636],[126.54787,33.41647],[126.548,33.41669],[126.5481,33.41687],[126.54809,33.41703],[126.54803,33.41722],[126.54813,33.41752],[126.54815,33.41806],[126.54816,33.4183],[126.54819,33.41847],[126.54827,33.41868],[126.54827,33.41889],[126.54835,33.41903],[126.54843,33.41914],[126.54854,33.41927],[126.54868,33.41935],[126.54879,33.41954],[126.54931,33.41997],[126.54943,33.42023],[126.54949,33.42042],[126.54948,33.42056],[126.54943,33.4207],[126.54939,33.42083],[126.54943,33.42094],[126.54965,33.42113],[126.54988,33.42124],[126.55012,33.42137],[126.55029,33.42149],[126.55033,33.42165],[126.55032,33.42184],[126.55023,33.42194]]]}}