{"type":"Feature","properties":{"slug":"hooker-valley-track","osm_id":6204716,"name":"Hooker Valley Track","length_km":5,"closed":false,"endpoints":{"start":[-43.71797,170.09364],"end":[-43.68891,170.10362]},"source":"https://www.openstreetmap.org/relation/6204716"},"geometry":{"type":"MultiLineString","coordinates":[[[170.09364,-43.71797],[170.09389,-43.71806],[170.09409,-43.71815],[170.09452,-43.71821],[170.09477,-43.71829],[170.09497,-43.7183],[170.09521,-43.71819],[170.09536,-43.71809],[170.0955,-43.71801],[170.09567,-43.71801],[170.09573,-43.71811],[170.09588,-43.71821],[170.09597,-43.71829],[170.09613,-43.71835],[170.09635,-43.71838],[170.09654,-43.71847],[170.09672,-43.71852],[170.09691,-43.71859],[170.09722,-43.71856],[170.09737,-43.71852],[170.09753,-43.71847],[170.09763,-43.71838],[170.09773,-43.71829],[170.0979,-43.71827],[170.09809,-43.71833],[170.09828,-43.71836],[170.09846,-43.71838],[170.09883,-43.71838],[170.099,-43.71838],[170.09916,-43.71838],[170.0994,-43.71839],[170.09958,-43.71839],[170.09982,-43.71839],[170.09998,-43.71841],[170.10014,-43.71841],[170.10037,-43.7184],[170.10059,-43.71836],[170.10074,-43.71829],[170.10088,-43.7182],[170.10113,-43.71805],[170.10132,-43.7179],[170.10143,-43.71779],[170.10152,-43.71769],[170.10156,-43.71756],[170.10168,-43.71744],[170.10182,-43.7174],[170.10195,-43.71734],[170.10208,-43.71724],[170.1022,-43.71716],[170.10235,-43.71707],[170.10246,-43.71698],[170.10263,-43.71692],[170.10278,-43.71686],[170.10295,-43.71686],[170.10315,-43.71691],[170.10332,-43.71688],[170.10326,-43.71675],[170.1031,-43.71664],[170.10301,-43.71653],[170.10289,-43.71645],[170.10277,-43.71637],[170.10264,-43.71628],[170.10282,-43.71608],[170.10335,-43.71557],[170.10338,-43.71547],[170.10335,-43.71532],[170.10342,-43.71517],[170.10345,-43.71484],[170.10345,-43.71472],[170.10362,-43.71456],[170.1037,-43.71446],[170.1036,-43.71435],[170.10342,-43.71427],[170.1033,-43.71419],[170.10333,-43.71405],[170.10352,-43.7139],[170.10364,-43.71376],[170.10365,-43.71356],[170.10363,-43.71337],[170.10335,-43.7131],[170.1031,-43.71283],[170.10296,-43.71271],[170.10288,-43.71258],[170.1029,-43.71244],[170.10291,-43.71231],[170.10293,-43.71219],[170.10286,-43.71203],[170.10284,-43.71191],[170.10269,-43.71171],[170.10256,-43.71155],[170.10249,-43.71142],[170.10245,-43.71131],[170.10227,-43.71117],[170.10229,-43.71098],[170.10228,-43.71082],[170.10226,-43.71068],[170.10225,-43.71054],[170.10222,-43.71041],[170.10225,-43.71029],[170.10208,-43.71028],[170.10199,-43.71019],[170.10187,-43.71006],[170.10172,-43.70998],[170.10156,-43.70992],[170.10144,-43.7098],[170.10139,-43.70967],[170.10147,-43.70957],[170.10132,-43.70951],[170.10114,-43.7094],[170.10114,-43.70926],[170.10108,-43.70916],[170.10097,-43.70905],[170.10084,-43.70897],[170.10064,-43.70882],[170.10046,-43.70883],[170.10031,-43.70866],[170.10027,-43.70855],[170.10016,-43.70845],[170.10008,-43.70836],[170.10005,-43.70823],[170.10003,-43.7081],[170.10004,-43.70797],[170.09993,-43.7079],[170.09981,-43.70765],[170.09982,-43.70745],[170.09988,-43.70726],[170.09999,-43.70715],[170.09997,-43.70697],[170.10003,-43.70679],[170.10028,-43.70669],[170.10044,-43.70648],[170.10034,-43.70622],[170.10048,-43.70596],[170.09959,-43.70522],[170.09917,-43.7049],[170.09901,-43.70479],[170.09892,-43.7047],[170.09893,-43.70458],[170.09902,-43.70449],[170.09909,-43.70439],[170.099,-43.70425],[170.09895,-43.70414],[170.09895,-43.70403],[170.09879,-43.70396],[170.09866,-43.70387],[170.09858,-43.70378],[170.09857,-43.70367],[170.09845,-43.70357],[170.09837,-43.70347],[170.09822,-43.70334],[170.09814,-43.70324],[170.09805,-43.70309],[170.09801,-43.70297],[170.09803,-43.70284],[170.09807,-43.7027],[170.09804,-43.70259],[170.09801,-43.70248],[170.09798,-43.70236],[170.09792,-43.70223],[170.09794,-43.70212],[170.09801,-43.70195],[170.09806,-43.70182],[170.09808,-43.70166],[170.0982,-43.70146],[170.09828,-43.70134],[170.09834,-43.70121],[170.09844,-43.701],[170.0985,-43.70085],[170.09851,-43.70073],[170.09852,-43.7006],[170.09844,-43.7005],[170.09848,-43.70036],[170.09839,-43.70027],[170.09828,-43.70019],[170.09824,-43.70002],[170.09817,-43.69991],[170.09802,-43.69987],[170.09794,-43.69976],[170.09783,-43.69966],[170.09768,-43.69967],[170.09756,-43.6996],[170.09744,-43.69953],[170.0975,-43.69942],[170.09741,-43.69931],[170.09728,-43.6992],[170.09713,-43.69911],[170.097,-43.69904],[170.09683,-43.69896],[170.09672,-43.69881],[170.09668,-43.6987],[170.09662,-43.69858],[170.09651,-43.69841],[170.09649,-43.69829],[170.09667,-43.69819],[170.09671,-43.69803],[170.09668,-43.6979],[170.09661,-43.6978],[170.09656,-43.69769],[170.09654,-43.69757],[170.0965,-43.69745],[170.09652,-43.69728],[170.09654,-43.69717],[170.09654,-43.69705],[170.09654,-43.69694],[170.09651,-43.69682],[170.09655,-43.69665],[170.09659,-43.69654],[170.09662,-43.69638],[170.09666,-43.69619],[170.09664,-43.69602],[170.09658,-43.69589],[170.09651,-43.69569],[170.09649,-43.6955],[170.09654,-43.69537],[170.0968,-43.69494],[170.09691,-43.69481],[170.09704,-43.69464],[170.09716,-43.69457],[170.09725,-43.69449],[170.09726,-43.69437],[170.09734,-43.69425],[170.09752,-43.69416],[170.09766,-43.69411],[170.09783,-43.69403],[170.09789,-43.69393],[170.09797,-43.69377],[170.09811,-43.69369],[170.09819,-43.6936],[170.09826,-43.6935],[170.09822,-43.69338],[170.09818,-43.69327],[170.09811,-43.69316],[170.09811,-43.69304],[170.09804,-43.69293],[170.09803,-43.6928],[170.09906,-43.69266],[170.09921,-43.6927],[170.09931,-43.69279],[170.09942,-43.6927],[170.09959,-43.69272],[170.09978,-43.69272],[170.09994,-43.69264],[170.10009,-43.69258],[170.10023,-43.69256],[170.10043,-43.69257],[170.10059,-43.6926],[170.10072,-43.69266],[170.10089,-43.69271],[170.10106,-43.69263],[170.10127,-43.69257],[170.10146,-43.69257],[170.10162,-43.69257],[170.10168,-43.6927],[170.10186,-43.69277],[170.10202,-43.69274],[170.1022,-43.69277],[170.10235,-43.69274],[170.10248,-43.69268],[170.10263,-43.69256],[170.10273,-43.69246],[170.10284,-43.69238],[170.10304,-43.69226],[170.10326,-43.69212],[170.10337,-43.69201],[170.10337,-43.69187],[170.10333,-43.69175],[170.10319,-43.69169],[170.10324,-43.69157],[170.10319,-43.69143],[170.10309,-43.69133],[170.10297,-43.69125],[170.10299,-43.69105],[170.10298,-43.6909],[170.10302,-43.69077],[170.10313,-43.69067],[170.10317,-43.69056],[170.1031,-43.69041],[170.10302,-43.6903],[170.10295,-43.6902],[170.103,-43.69008],[170.10312,-43.68991],[170.10324,-43.68977],[170.10335,-43.68963],[170.10341,-43.6895],[170.10335,-43.68939],[170.10336,-43.68927],[170.10347,-43.68919],[170.10357,-43.68908],[170.10362,-43.68891]],[[170.09458,-43.7331],[170.09462,-43.73293],[170.09458,-43.73281],[170.09441,-43.73264],[170.09397,-43.73251],[170.09404,-43.73238],[170.09397,-43.73251],[170.09407,-43.73231],[170.09396,-43.73211],[170.09381,-43.73198],[170.09379,-43.73186],[170.0938,-43.73164],[170.09381,-43.73136],[170.09383,-43.7312],[170.0939,-43.73092],[170.09393,-43.73062],[170.09398,-43.73041],[170.09404,-43.73017],[170.09411,-43.73002],[170.09408,-43.72979],[170.09405,-43.72966],[170.09392,-43.72925],[170.09383,-43.72915],[170.09363,-43.729],[170.09323,-43.72883],[170.09304,-43.72873],[170.09285,-43.7286],[170.09266,-43.72821],[170.09256,-43.72797],[170.09226,-43.72746],[170.09214,-43.72735],[170.09192,-43.72719],[170.09189,-43.72697],[170.09167,-43.72679],[170.09145,-43.7263],[170.09143,-43.72594],[170.09138,-43.72576],[170.09128,-43.72534],[170.09123,-43.72504],[170.0912,-43.72477],[170.09109,-43.7244],[170.09102,-43.72402],[170.09095,-43.72374],[170.09086,-43.72337],[170.09085,-43.72325],[170.09082,-43.72313],[170.09052,-43.72259],[170.0904,-43.72225],[170.09029,-43.72215],[170.0902,-43.72196],[170.09016,-43.72183],[170.08996,-43.72169],[170.08984,-43.7216],[170.08959,-43.72136],[170.08945,-43.72124],[170.08922,-43.72113],[170.08898,-43.72088],[170.0885,-43.72055],[170.08846,-43.72038],[170.08822,-43.72021],[170.08788,-43.72006],[170.08776,-43.71994],[170.08755,-43.71974],[170.08749,-43.71958],[170.08733,-43.71936],[170.08728,-43.71916],[170.08717,-43.71888],[170.0871,-43.71874],[170.0871,-43.71861],[170.08693,-43.71839],[170.08691,-43.71826],[170.0868,-43.71809],[170.08685,-43.71791],[170.08682,-43.71772],[170.08686,-43.7174],[170.087,-43.7173],[170.08711,-43.71715],[170.08753,-43.71729],[170.08773,-43.71733],[170.08794,-43.71731],[170.08814,-43.7174],[170.08849,-43.7175],[170.0888,-43.71767],[170.08977,-43.71791],[170.08999,-43.71804],[170.09042,-43.7182],[170.09112,-43.71825],[170.09126,-43.71832],[170.09169,-43.71833],[170.09221,-43.71863],[170.09254,-43.71872],[170.09287,-43.71874],[170.09302,-43.71876],[170.09315,-43.71883],[170.09319,-43.71869],[170.09315,-43.71883],[170.09326,-43.71857],[170.09335,-43.71844],[170.0936,-43.71806],[170.09362,-43.71793],[170.09309,-43.71776],[170.09273,-43.71768],[170.09246,-43.7176],[170.09227,-43.71758],[170.09195,-43.71754],[170.09168,-43.71754]]]}}