{"type":"Feature","properties":{"slug":"jeju-olle-trail","osm_id":3793143,"name":"Jeju Olle trail 7","length_km":18.9,"closed":false,"endpoints":{"start":[33.23996,126.54289],"end":[33.24423,126.41625]},"source":"https://www.openstreetmap.org/relation/3793143"},"geometry":{"type":"MultiLineString","coordinates":[[[126.54289,33.23996],[126.54281,33.24023],[126.5423,33.24054],[126.54204,33.24046],[126.5419,33.24075],[126.54158,33.24119],[126.54142,33.24144],[126.54105,33.24157],[126.54075,33.24186],[126.54037,33.2419],[126.54001,33.24173],[126.5396,33.24185],[126.53961,33.24208],[126.53944,33.24216],[126.53916,33.24201],[126.53889,33.24181],[126.5385,33.24187],[126.53816,33.24179],[126.53793,33.2416],[126.53768,33.24155],[126.53754,33.24143],[126.53738,33.24149],[126.53731,33.24134],[126.53687,33.24123],[126.53667,33.24113],[126.53626,33.24092],[126.53588,33.24091],[126.53534,33.24052],[126.53516,33.24051],[126.53468,33.24002],[126.53365,33.23979],[126.53338,33.23957],[126.53242,33.23957],[126.53212,33.23977],[126.53179,33.23971],[126.52967,33.23966],[126.52924,33.23955],[126.52829,33.23971],[126.52784,33.24018],[126.52615,33.24061],[126.526,33.24066],[126.52561,33.24073],[126.52499,33.24079],[126.52378,33.24091],[126.52298,33.24109],[126.52289,33.24118],[126.52275,33.2412],[126.52248,33.24117],[126.52214,33.24112],[126.52179,33.24119],[126.52143,33.24138],[126.52104,33.24146],[126.52056,33.24146],[126.52031,33.24138],[126.52013,33.24117],[126.51972,33.24082],[126.51913,33.24001],[126.5193,33.23974],[126.51951,33.23942],[126.51954,33.23927],[126.51927,33.23899],[126.51889,33.23883],[126.51821,33.2384],[126.51814,33.23821],[126.51814,33.23776],[126.51803,33.23755],[126.51764,33.23733],[126.51731,33.23721],[126.51697,33.23715],[126.5168,33.23714],[126.51664,33.23729],[126.51656,33.23741],[126.51643,33.23759],[126.51625,33.2376],[126.51585,33.23749],[126.51556,33.23759],[126.51531,33.23738],[126.5153,33.23725],[126.51529,33.23709],[126.5151,33.23629],[126.5149,33.23567],[126.51441,33.23529],[126.51381,33.23483],[126.51374,33.23465],[126.51366,33.23447],[126.5137,33.23426],[126.51369,33.23415],[126.51362,33.23401],[126.5133,33.2339],[126.5132,33.23383],[126.51296,33.23354],[126.5132,33.23383],[126.51311,33.23372],[126.51296,33.23354],[126.51278,33.23332],[126.51266,33.23321],[126.51245,33.233],[126.51205,33.23294],[126.51176,33.23296],[126.51158,33.23297],[126.51149,33.23283],[126.51049,33.23229],[126.51031,33.23219],[126.50973,33.23183],[126.5089,33.23132],[126.50808,33.23079],[126.50781,33.2308],[126.50751,33.23082],[126.50669,33.23082],[126.50617,33.23093],[126.50569,33.2312],[126.50454,33.23124],[126.50415,33.23089],[126.50386,33.2311],[126.50339,33.23102],[126.50325,33.23104],[126.50315,33.23127],[126.50281,33.2314],[126.5025,33.2317],[126.50188,33.23176],[126.50139,33.23165],[126.50083,33.23141],[126.50067,33.23137],[126.50057,33.23147],[126.50025,33.23185],[126.50034,33.2321],[126.49973,33.23225],[126.49947,33.23237],[126.498,33.23317],[126.49722,33.23317],[126.49688,33.23314],[126.49636,33.23307],[126.49607,33.23293],[126.49572,33.23258],[126.4953,33.23215],[126.49503,33.23229],[126.49463,33.2323],[126.4946,33.23195],[126.49393,33.23195],[126.4937,33.23224],[126.49334,33.23248],[126.49292,33.23267],[126.49253,33.23277],[126.49225,33.2328],[126.49212,33.23286],[126.49207,33.23318],[126.49207,33.23335],[126.49222,33.23359],[126.4923,33.23372],[126.49201,33.23372],[126.49164,33.23402],[126.49153,33.23413],[126.49141,33.23419],[126.49105,33.23445],[126.49069,33.2344],[126.49043,33.23441],[126.49028,33.23443],[126.49011,33.23446],[126.48977,33.23451],[126.49021,33.23404],[126.49029,33.23339],[126.49053,33.23307],[126.49083,33.23302],[126.49125,33.23301],[126.49104,33.23274],[126.49087,33.23247],[126.49051,33.2325],[126.48914,33.23307],[126.48892,33.23311],[126.48873,33.23315],[126.48862,33.23321],[126.48838,33.23328],[126.48823,33.23333],[126.48773,33.23362],[126.48749,33.23392],[126.48736,33.23385],[126.48686,33.23349],[126.48674,33.23346],[126.48612,33.23356],[126.48561,33.23364],[126.48542,33.23369],[126.48518,33.23376],[126.48485,33.23377],[126.48336,33.23365],[126.48313,33.23353],[126.4828,33.23338],[126.48257,33.23315],[126.48251,33.23295],[126.48208,33.23279],[126.48136,33.23284],[126.48123,33.23246],[126.48102,33.23236],[126.47953,33.2327],[126.47953,33.233],[126.47953,33.23328],[126.47956,33.23355],[126.47906,33.2336],[126.47884,33.2334],[126.47848,33.23329],[126.47804,33.23312],[126.47786,33.23316],[126.47752,33.2334],[126.47703,33.23353],[126.47639,33.2337],[126.47627,33.2336],[126.47589,33.23344],[126.4757,33.23348],[126.47549,33.23341],[126.47529,33.23338],[126.47479,33.2332],[126.47437,33.23317],[126.4741,33.23306],[126.474,33.23292],[126.47367,33.23292],[126.47319,33.23303],[126.47247,33.23315],[126.47171,33.23325],[126.47128,33.23319],[126.47113,33.23312],[126.47097,33.23295],[126.47088,33.23283],[126.47063,33.23274],[126.47024,33.23246],[126.46984,33.23222],[126.46968,33.23215],[126.46959,33.23197],[126.46956,33.23172],[126.46927,33.23141],[126.46929,33.2308],[126.4692,33.23059],[126.46868,33.23015],[126.46811,33.23011],[126.46792,33.22992],[126.4678,33.22985],[126.46767,33.22996],[126.46757,33.23007],[126.46744,33.23015],[126.46726,33.23026],[126.46674,33.23057],[126.46612,33.23094],[126.46566,33.23122],[126.46547,33.23133],[126.46533,33.23138],[126.46511,33.23147],[126.46492,33.23148],[126.46443,33.23162],[126.46423,33.23163],[126.46405,33.23169],[126.46393,33.23173],[126.46368,33.23175],[126.4635,33.23179],[126.46326,33.23195],[126.46306,33.23202],[126.4629,33.23222],[126.46284,33.23234],[126.46288,33.23274],[126.46309,33.2331],[126.4633,33.23327],[126.46346,33.2333],[126.4636,33.23359],[126.46362,33.2338],[126.46363,33.23398],[126.46376,33.2341],[126.46373,33.23427],[126.46361,33.23437],[126.46346,33.23427],[126.46348,33.23456],[126.46331,33.23465],[126.46324,33.23486],[126.46319,33.23515],[126.46312,33.23538],[126.4632,33.23549],[126.46311,33.236],[126.46319,33.2361],[126.46331,33.23618],[126.46286,33.23622],[126.46273,33.23676],[126.46238,33.2375],[126.46206,33.23788],[126.46132,33.2382],[126.46108,33.23898],[126.46073,33.23932],[126.45937,33.2398],[126.4586,33.24001],[126.45843,33.24038],[126.45827,33.24068],[126.45804,33.24113],[126.45811,33.24142],[126.45894,33.24113],[126.45976,33.24111],[126.46043,33.2412],[126.4608,33.24141],[126.46053,33.24161],[126.46032,33.24185],[126.46014,33.24239],[126.46021,33.24257],[126.46029,33.24268],[126.46045,33.24319],[126.45979,33.24351],[126.45926,33.24357],[126.4587,33.24355],[126.45828,33.24364],[126.45807,33.2437],[126.45736,33.24389],[126.45714,33.24396],[126.45685,33.24384],[126.45596,33.24365],[126.4558,33.24367],[126.45534,33.24398],[126.45464,33.24415],[126.45402,33.24463],[126.45376,33.24488],[126.45361,33.24503],[126.45298,33.24532],[126.45278,33.24558],[126.45263,33.24583],[126.45265,33.24603],[126.45267,33.24623],[126.45226,33.24653],[126.45199,33.24667],[126.45169,33.24678],[126.45161,33.24657],[126.4514,33.24609],[126.45116,33.24607],[126.45098,33.24601],[126.45074,33.24546],[126.45087,33.24541],[126.45077,33.24521],[126.45064,33.24521],[126.45046,33.24521],[126.45017,33.24546],[126.45006,33.2456],[126.44993,33.24579],[126.44976,33.24594],[126.4495,33.24593],[126.44917,33.24591],[126.44916,33.24566],[126.44898,33.24557],[126.44867,33.24563],[126.44837,33.24568],[126.44822,33.24574],[126.44802,33.24573],[126.44751,33.24561],[126.44727,33.2455],[126.44714,33.24527],[126.44686,33.24532],[126.44673,33.24531],[126.44648,33.24531],[126.44628,33.24535],[126.44597,33.24544],[126.44566,33.24549],[126.44542,33.24553],[126.44515,33.24556],[126.44495,33.24554],[126.44474,33.24539],[126.44448,33.24532],[126.44436,33.24501],[126.44434,33.24488],[126.44412,33.24463],[126.44398,33.24447],[126.44386,33.24418],[126.44361,33.24381],[126.44341,33.24362],[126.44327,33.24333],[126.44326,33.24318],[126.44336,33.24277],[126.44335,33.24232],[126.44349,33.24211],[126.44354,33.24194],[126.44345,33.24173],[126.44328,33.24134],[126.44327,33.24105],[126.44316,33.24088],[126.44292,33.24033],[126.44274,33.23995],[126.44269,33.23983],[126.44274,33.23962],[126.44276,33.23938],[126.44296,33.23913],[126.44311,33.23895],[126.44324,33.23889],[126.44348,33.23885],[126.44352,33.23862],[126.44283,33.23786],[126.44285,33.23769],[126.44248,33.23736],[126.44232,33.23731],[126.44215,33.23729],[126.44192,33.23739],[126.44178,33.23747],[126.44151,33.23769],[126.4414,33.23801],[126.44135,33.23824],[126.44127,33.23833],[126.44115,33.23838],[126.44098,33.23845],[126.44082,33.23845],[126.44069,33.23841],[126.44057,33.23835],[126.44032,33.23816],[126.43989,33.23819],[126.43968,33.2383],[126.43958,33.23839],[126.43948,33.23847],[126.43927,33.23858],[126.43929,33.23886],[126.43917,33.23896],[126.43885,33.2391],[126.43857,33.23912],[126.43841,33.23911],[126.43769,33.2391],[126.4372,33.23897],[126.43689,33.23887],[126.43669,33.23889],[126.43669,33.23864],[126.43672,33.23831],[126.43676,33.23813],[126.4365,33.23769],[126.43616,33.23701],[126.43586,33.237],[126.43566,33.23691],[126.43554,33.23685],[126.43505,33.23677],[126.4345,33.23599],[126.43396,33.23546],[126.43217,33.23526],[126.43166,33.2356],[126.4312,33.23586],[126.43028,33.23633],[126.43006,33.2364],[126.42957,33.23641],[126.42935,33.23639],[126.42882,33.23622],[126.4286,33.23617],[126.42834,33.2362],[126.42789,33.2364],[126.42769,33.23662],[126.42748,33.23689],[126.42734,33.23716],[126.42668,33.23768],[126.42649,33.23775],[126.42634,33.23772],[126.42618,33.23772],[126.42602,33.23778],[126.42588,33.23782],[126.42564,33.2378],[126.42551,33.23781],[126.42483,33.23786],[126.42402,33.23857],[126.42386,33.23869],[126.42378,33.23879],[126.42375,33.23914],[126.42372,33.23927],[126.42362,33.2394],[126.4234,33.23963],[126.42282,33.23985],[126.42252,33.23995],[126.42232,33.24011],[126.42096,33.24149],[126.42083,33.24155],[126.42074,33.24164],[126.42074,33.24176],[126.42089,33.24191],[126.42104,33.24202],[126.42126,33.24219],[126.42138,33.24228],[126.42154,33.24238],[126.42174,33.24253],[126.42206,33.24274],[126.42223,33.24288],[126.42233,33.24296],[126.42241,33.24307],[126.42242,33.24331],[126.42222,33.24332],[126.42224,33.24345],[126.42178,33.24348],[126.42117,33.24353],[126.42087,33.24356],[126.42061,33.24365],[126.42046,33.24372],[126.42029,33.24384],[126.42018,33.24395],[126.41993,33.24421],[126.4194,33.24467],[126.41928,33.24476],[126.41869,33.24516],[126.41873,33.24537],[126.41885,33.24543],[126.41845,33.24592],[126.41834,33.24599],[126.41833,33.24629],[126.4181,33.2462],[126.41799,33.24607],[126.41789,33.24588],[126.41777,33.24555],[126.41773,33.24528],[126.41767,33.24507],[126.41757,33.24488],[126.41759,33.24473],[126.41743,33.24468],[126.41691,33.24441],[126.41668,33.2443],[126.41625,33.24423]],[[126.54765,33.24097],[126.54759,33.24108],[126.54773,33.24093],[126.54781,33.24077],[126.54783,33.2406],[126.548,33.2405],[126.54808,33.24036],[126.54832,33.24012],[126.54789,33.23976],[126.54739,33.23935],[126.54744,33.23853],[126.54696,33.23884],[126.54673,33.2391],[126.54674,33.23935],[126.54683,33.23954],[126.54712,33.23967],[126.54702,33.24],[126.54668,33.24019],[126.54618,33.24029],[126.54591,33.24006],[126.54577,33.23994],[126.54558,33.23995],[126.54527,33.24002],[126.54497,33.24034],[126.54483,33.24034],[126.54458,33.24027],[126.54433,33.24004],[126.54428,33.24001]],[[126.42009,33.24289],[126.41997,33.24268],[126.41982,33.24277],[126.41958,33.2429],[126.4194,33.24269],[126.41949,33.24253],[126.41976,33.24242],[126.41997,33.24229],[126.42017,33.24218],[126.42046,33.24195],[126.42055,33.24175],[126.42065,33.24168],[126.42073,33.24168]]]}}