{"type":"Feature","properties":{"slug":"kew-mae-pan","osm_id":14391235,"name":"เส้นทางศึกษาธรรมชาติ กิ่วแม่ปาน","length_km":3.2,"closed":true,"endpoints":{"start":[18.55596,98.48208],"end":[18.55596,98.48208]},"source":"https://www.openstreetmap.org/relation/14391235"},"geometry":{"type":"MultiLineString","coordinates":[[[98.48208,18.55596],[98.48221,18.55605],[98.48212,18.55634],[98.48196,18.55641],[98.48174,18.55668],[98.48171,18.55695],[98.48154,18.55698],[98.48141,18.55736],[98.48145,18.55756],[98.48135,18.55764],[98.48135,18.5578],[98.48127,18.55795],[98.48127,18.5578],[98.48105,18.55782],[98.48092,18.55774],[98.48052,18.5577],[98.48019,18.55775],[98.4799,18.55796],[98.47943,18.55852],[98.47933,18.55896],[98.47904,18.55914],[98.47852,18.55919],[98.47835,18.55913],[98.4783,18.55923],[98.47816,18.55927],[98.47804,18.5593],[98.47791,18.55941],[98.47777,18.55945],[98.47761,18.55961],[98.47757,18.56004],[98.47744,18.56046],[98.47728,18.5605],[98.47703,18.56104],[98.4765,18.5616],[98.47638,18.56162],[98.47627,18.56176],[98.47608,18.56178],[98.47623,18.56164],[98.47624,18.56137],[98.47599,18.56083],[98.47573,18.56052],[98.47561,18.55977],[98.47544,18.55931],[98.47548,18.55899],[98.47536,18.55857],[98.4754,18.55766],[98.47555,18.55745],[98.47549,18.5567],[98.47571,18.55535],[98.47599,18.55509],[98.4759,18.55497],[98.47593,18.55475],[98.47607,18.55513],[98.47611,18.55539],[98.47616,18.5555],[98.47627,18.55554],[98.47635,18.55565],[98.47625,18.55594],[98.47621,18.5563],[98.47613,18.55638],[98.47628,18.55643],[98.47618,18.5565],[98.47634,18.55687],[98.47631,18.55705],[98.4766,18.55723],[98.47697,18.55701],[98.47735,18.55665],[98.47751,18.55644],[98.47753,18.55626],[98.47777,18.55603],[98.47813,18.55589],[98.47811,18.55599],[98.47834,18.55603],[98.47847,18.55605],[98.47884,18.55573],[98.47903,18.55569],[98.4791,18.55581],[98.47926,18.55571],[98.47934,18.5558],[98.47949,18.55572],[98.47964,18.55576],[98.47978,18.55587],[98.47976,18.55599],[98.47987,18.55594],[98.47996,18.55608],[98.48014,18.55618],[98.48039,18.55598],[98.48062,18.55595],[98.48064,18.55611],[98.4809,18.55621],[98.48092,18.5561],[98.48101,18.55629],[98.48119,18.55638],[98.48133,18.55627],[98.4815,18.55607],[98.48163,18.55609],[98.48191,18.55595],[98.48208,18.55596]]]}}