{"type":"Feature","properties":{"slug":"kings-canyon-rim-walk","osm_id":13434586,"name":"Kings Canyon Rim Walk","length_km":4.8,"closed":true,"endpoints":{"start":[-24.2557,131.57032],"end":[-24.25558,131.57083]},"source":"https://www.openstreetmap.org/relation/13434586"},"geometry":{"type":"MultiLineString","coordinates":[[[131.57032,-24.2557],[131.57058,-24.25565],[131.57071,-24.25564],[131.57083,-24.25558],[131.57088,-24.25543],[131.57114,-24.25526],[131.57125,-24.25513],[131.57138,-24.25502],[131.57149,-24.25496],[131.57161,-24.2549],[131.57174,-24.25473],[131.5719,-24.25463],[131.57204,-24.25452],[131.57214,-24.25437],[131.57227,-24.25422],[131.57239,-24.25412],[131.5725,-24.25401],[131.57253,-24.25385],[131.57254,-24.25371],[131.57263,-24.25355],[131.57268,-24.25333],[131.57272,-24.2532],[131.57284,-24.25311],[131.57293,-24.25299],[131.57308,-24.25289],[131.57322,-24.25272],[131.57327,-24.25261],[131.5734,-24.25247],[131.57335,-24.25231],[131.57329,-24.25212],[131.57327,-24.25185],[131.57321,-24.25171],[131.57322,-24.25135],[131.57323,-24.25114],[131.5732,-24.25096],[131.57323,-24.25081],[131.57322,-24.25064],[131.57346,-24.25035],[131.57361,-24.25005],[131.57378,-24.2498],[131.57381,-24.24967],[131.57376,-24.24947],[131.57388,-24.24907],[131.57391,-24.24884],[131.57396,-24.24872],[131.57399,-24.2486],[131.57407,-24.24845],[131.57426,-24.24829],[131.57431,-24.24788],[131.57433,-24.24753],[131.57422,-24.24746],[131.57418,-24.24724],[131.57419,-24.247],[131.57433,-24.24683],[131.5746,-24.24679],[131.57474,-24.24683],[131.57519,-24.24677],[131.57544,-24.24682],[131.57589,-24.24685],[131.57613,-24.24704],[131.57629,-24.24716],[131.57649,-24.24723],[131.57669,-24.24744],[131.57672,-24.24789],[131.57665,-24.24808],[131.57679,-24.24824],[131.57686,-24.24837],[131.57736,-24.24854],[131.57753,-24.24864],[131.57775,-24.24857],[131.57794,-24.24854],[131.57822,-24.24855],[131.57924,-24.24878],[131.57935,-24.24906],[131.57946,-24.24909],[131.57975,-24.24893],[131.57992,-24.24893],[131.58029,-24.24913],[131.58067,-24.24906],[131.58081,-24.2491],[131.58094,-24.24908],[131.58118,-24.24892],[131.58145,-24.24883],[131.58165,-24.24892],[131.58188,-24.24893],[131.58201,-24.24882],[131.58218,-24.24889],[131.58234,-24.24887],[131.5826,-24.24914],[131.58269,-24.24922],[131.5828,-24.24908],[131.58287,-24.24896],[131.58289,-24.24883],[131.58311,-24.24872],[131.58313,-24.24861],[131.58324,-24.24874],[131.58325,-24.24887],[131.58339,-24.24901],[131.58343,-24.24913],[131.58343,-24.24929],[131.5834,-24.24949],[131.58346,-24.24965],[131.58364,-24.24991],[131.58401,-24.25003],[131.58414,-24.25012],[131.5841,-24.25028],[131.58412,-24.2504],[131.584,-24.25047],[131.58384,-24.25074],[131.58402,-24.25119],[131.58417,-24.25132],[131.5842,-24.25162],[131.58421,-24.25181],[131.58372,-24.25198],[131.58348,-24.25204],[131.58334,-24.25208],[131.58318,-24.25217],[131.58306,-24.2522],[131.58293,-24.25217],[131.5827,-24.2521],[131.58239,-24.25209],[131.58175,-24.25192],[131.58162,-24.25192],[131.58132,-24.25198],[131.58118,-24.25197],[131.58092,-24.25187],[131.58079,-24.25194],[131.58083,-24.25251],[131.58083,-24.25265],[131.58072,-24.25279],[131.58027,-24.25302],[131.57967,-24.25327],[131.57955,-24.25338],[131.57915,-24.25367],[131.57898,-24.25368],[131.57904,-24.25391],[131.57928,-24.25403],[131.57922,-24.25418],[131.57931,-24.25448],[131.57955,-24.25492],[131.57962,-24.2551],[131.57957,-24.25522],[131.57946,-24.25527],[131.57915,-24.25523],[131.57893,-24.25519],[131.57866,-24.25521],[131.57848,-24.25518],[131.57865,-24.2556],[131.5785,-24.25579],[131.57843,-24.25596],[131.57832,-24.25609],[131.57804,-24.25609],[131.57796,-24.25598],[131.57781,-24.25589],[131.57763,-24.25576],[131.5775,-24.2556],[131.57706,-24.2555],[131.57692,-24.25551],[131.57674,-24.25567],[131.57658,-24.25567],[131.57631,-24.25609],[131.57614,-24.25629],[131.57594,-24.25646],[131.57594,-24.25659],[131.57574,-24.25659],[131.57553,-24.25652],[131.57523,-24.25646],[131.57504,-24.25652],[131.57486,-24.25655],[131.57374,-24.25619],[131.57359,-24.25618],[131.57341,-24.25611],[131.57319,-24.25616],[131.573,-24.25618],[131.57282,-24.25616],[131.57263,-24.25608],[131.5724,-24.2561],[131.57208,-24.25609],[131.57193,-24.25604],[131.57181,-24.25604],[131.57159,-24.256],[131.57146,-24.25594],[131.57131,-24.25587],[131.57115,-24.2558],[131.57103,-24.25573],[131.57083,-24.25558]]]}}