{"type":"Feature","properties":{"slug":"kumano-kodo-yunomine-hongu-loop","osm_id":17097762,"name":"熊野古道 中辺路 湯峰温泉","length_km":5.2,"closed":false,"endpoints":{"start":[33.82127,135.79128],"end":[33.82937,135.75828]},"source":"https://www.openstreetmap.org/relation/17097762"},"geometry":{"type":"MultiLineString","coordinates":[[[135.79128,33.82127],[135.79119,33.82117],[135.79102,33.82124],[135.79054,33.82127],[135.78918,33.82144],[135.7888,33.82152],[135.78868,33.82157],[135.78852,33.82151],[135.78827,33.82154],[135.78805,33.82153],[135.78782,33.82145],[135.78766,33.82137],[135.78749,33.82126],[135.7874,33.82114],[135.7872,33.8212],[135.78612,33.82174],[135.78572,33.82199],[135.78532,33.82224],[135.7849,33.82255],[135.78438,33.82294],[135.78419,33.82317],[135.78404,33.82334],[135.78399,33.82347],[135.78346,33.82366],[135.7815,33.82412],[135.78114,33.82422],[135.78091,33.82431],[135.78078,33.82427],[135.7801,33.82461],[135.77893,33.82495],[135.77859,33.82509],[135.77835,33.82518],[135.77784,33.82537],[135.77746,33.82551],[135.77728,33.82554],[135.77699,33.82557],[135.77676,33.82559],[135.77658,33.82553],[135.77641,33.82543],[135.776,33.82524],[135.77585,33.82523],[135.77571,33.82506],[135.77559,33.82497],[135.77545,33.82484],[135.77524,33.8247],[135.77512,33.82459],[135.77497,33.82459],[135.77433,33.82435],[135.77419,33.82435],[135.77404,33.82441],[135.77384,33.82438],[135.77367,33.82421],[135.77346,33.82411],[135.77332,33.82399],[135.77316,33.82392],[135.7729,33.82389],[135.77275,33.82386],[135.77245,33.82374],[135.77235,33.82358],[135.77238,33.82341],[135.77231,33.82331],[135.77198,33.82322],[135.77183,33.8232],[135.77158,33.82338],[135.7714,33.8234],[135.77126,33.82349],[135.77111,33.82338],[135.77078,33.82341],[135.77041,33.82354],[135.77011,33.82344],[135.76997,33.82349],[135.76976,33.82355],[135.76946,33.82349],[135.76942,33.82309],[135.76931,33.823],[135.76914,33.82297],[135.76894,33.8228],[135.76868,33.8228],[135.76855,33.82279],[135.76847,33.82264],[135.7685,33.82243],[135.76832,33.82222],[135.76828,33.8224],[135.76824,33.82223],[135.76814,33.82213],[135.76801,33.82195],[135.76774,33.8218],[135.76762,33.82174],[135.76758,33.82158],[135.76753,33.82145],[135.76741,33.82134],[135.76719,33.82112],[135.76702,33.82105],[135.76678,33.82095],[135.76662,33.82067],[135.76652,33.82044],[135.76632,33.82042],[135.76607,33.8204],[135.76615,33.82025],[135.76637,33.82017],[135.76635,33.82005],[135.76604,33.82015],[135.76594,33.82003],[135.76631,33.81976],[135.76653,33.81975],[135.76649,33.81961],[135.76631,33.81941],[135.76611,33.81932],[135.76599,33.81927],[135.76587,33.81911],[135.766,33.81902],[135.76582,33.81906],[135.76581,33.81922],[135.7658,33.81939],[135.76566,33.81961],[135.76557,33.81973],[135.76546,33.8198],[135.7653,33.8199],[135.76516,33.81994],[135.76493,33.81999],[135.76454,33.82006],[135.76435,33.82019],[135.76419,33.82025],[135.76406,33.82025],[135.76368,33.8203],[135.76351,33.82059],[135.76335,33.82069],[135.76324,33.82086],[135.76336,33.82104],[135.76341,33.82116],[135.76337,33.82136],[135.76319,33.82156],[135.76291,33.82166],[135.76268,33.82196],[135.76249,33.82213],[135.76226,33.82227],[135.76212,33.82241],[135.76207,33.82256],[135.76209,33.82273],[135.762,33.82282],[135.76184,33.82285],[135.76165,33.82291],[135.76166,33.8231],[135.76165,33.82323],[135.76133,33.82321],[135.76106,33.82327],[135.76093,33.82331],[135.76073,33.82337],[135.76063,33.82363],[135.76042,33.82394],[135.76029,33.82406],[135.76004,33.82404],[135.75993,33.82399],[135.75968,33.82389],[135.75945,33.82387],[135.75914,33.82392],[135.75895,33.82397],[135.75876,33.82414],[135.75866,33.82424],[135.7592,33.82419],[135.75968,33.82427],[135.7598,33.82462],[135.7598,33.82494],[135.75983,33.82517],[135.75999,33.82528],[135.76025,33.82541],[135.76039,33.82556],[135.76032,33.82572],[135.76027,33.82587],[135.7604,33.82608],[135.76042,33.82621],[135.76035,33.82632],[135.76016,33.82638],[135.75979,33.82641],[135.75959,33.82647],[135.75946,33.82656],[135.7593,33.82683],[135.75916,33.82692],[135.75872,33.82703],[135.75858,33.82719],[135.75845,33.82729],[135.75817,33.82739],[135.75808,33.82784],[135.75808,33.82797],[135.75811,33.8282],[135.75832,33.82846],[135.75859,33.82857],[135.75863,33.82889],[135.75853,33.82896],[135.75828,33.82937]]]}}