{"type":"Feature","properties":{"slug":"lake-matheson-walk","osm_id":6050941,"name":"Lake Matheson Walk","length_km":4.2,"closed":true,"endpoints":{"start":[-43.44678,169.97007],"end":[-43.44678,169.97007]},"source":"https://www.openstreetmap.org/relation/6050941"},"geometry":{"type":"MultiLineString","coordinates":[[[169.97007,-43.44678],[169.97009,-43.44653],[169.96974,-43.44613],[169.96975,-43.44596],[169.96989,-43.44586],[169.96996,-43.44571],[169.96996,-43.44557],[169.96987,-43.44541],[169.96971,-43.44509],[169.96962,-43.44488],[169.96948,-43.44475],[169.96941,-43.44451],[169.96939,-43.44435],[169.96929,-43.44422],[169.96921,-43.44396],[169.96922,-43.44364],[169.96912,-43.44354],[169.96895,-43.44351],[169.96887,-43.44339],[169.96894,-43.44327],[169.96909,-43.44317],[169.96928,-43.44309],[169.96935,-43.44296],[169.96944,-43.44281],[169.96956,-43.44259],[169.96971,-43.44236],[169.96975,-43.44226],[169.96991,-43.442],[169.96992,-43.44186],[169.97011,-43.44163],[169.97016,-43.44145],[169.9701,-43.44128],[169.97003,-43.44113],[169.96997,-43.44103],[169.96978,-43.4409],[169.96965,-43.44079],[169.96939,-43.44053],[169.96909,-43.4404],[169.96876,-43.44028],[169.9689,-43.44011],[169.96902,-43.43992],[169.96911,-43.43975],[169.96912,-43.43956],[169.96902,-43.43944],[169.96877,-43.43924],[169.96874,-43.43913],[169.96876,-43.43888],[169.96887,-43.4387],[169.96876,-43.43854],[169.96864,-43.43839],[169.96843,-43.43817],[169.96827,-43.43808],[169.96819,-43.43798],[169.96802,-43.43779],[169.96782,-43.43772],[169.96735,-43.43772],[169.96712,-43.43771],[169.96687,-43.43773],[169.96662,-43.43778],[169.96642,-43.43777],[169.96626,-43.43761],[169.96627,-43.43749],[169.96637,-43.43733],[169.96641,-43.4372],[169.96623,-43.43707],[169.96608,-43.43705],[169.96588,-43.43718],[169.96565,-43.43731],[169.96523,-43.43747],[169.96513,-43.43755],[169.96497,-43.4376],[169.96485,-43.43768],[169.96481,-43.43785],[169.96448,-43.43794],[169.96414,-43.43801],[169.96403,-43.43812],[169.96384,-43.43804],[169.96368,-43.43786],[169.96368,-43.43772],[169.96361,-43.43757],[169.96342,-43.43743],[169.96314,-43.43742],[169.96306,-43.43731],[169.96289,-43.43701],[169.96269,-43.43696],[169.96234,-43.43686],[169.96224,-43.43673],[169.96207,-43.43669],[169.96199,-43.43659],[169.96187,-43.43665],[169.9616,-43.43661],[169.96141,-43.43669],[169.96117,-43.43658],[169.96096,-43.43657],[169.96061,-43.43667],[169.96046,-43.43673],[169.96014,-43.43692],[169.95999,-43.43698],[169.95995,-43.43715],[169.96018,-43.4372],[169.96037,-43.43732],[169.96053,-43.43743],[169.96072,-43.43748],[169.9609,-43.43747],[169.96103,-43.43753],[169.96118,-43.43769],[169.96134,-43.43798],[169.96166,-43.43825],[169.96176,-43.43838],[169.96179,-43.43851],[169.96199,-43.43878],[169.96193,-43.43893],[169.96208,-43.43904],[169.96226,-43.43918],[169.96241,-43.43915],[169.96264,-43.4391],[169.96277,-43.43944],[169.96273,-43.43962],[169.9629,-43.43978],[169.96296,-43.43991],[169.96318,-43.44014],[169.96329,-43.44035],[169.96361,-43.4406],[169.96379,-43.44053],[169.964,-43.44045],[169.96416,-43.44036],[169.9644,-43.44029],[169.96457,-43.44033],[169.96491,-43.44027],[169.96511,-43.44031],[169.96533,-43.4403],[169.96512,-43.44054],[169.96508,-43.44067],[169.96532,-43.44096],[169.96541,-43.44121],[169.96547,-43.44133],[169.96589,-43.44123],[169.96607,-43.44133],[169.96627,-43.44135],[169.96631,-43.44157],[169.96632,-43.44174],[169.96662,-43.44193],[169.96676,-43.44179],[169.96699,-43.44183],[169.96712,-43.44197],[169.96737,-43.44201],[169.96751,-43.44197],[169.96773,-43.44214],[169.96797,-43.44223],[169.96824,-43.44227],[169.96837,-43.44244],[169.96831,-43.44266],[169.96856,-43.44288],[169.96868,-43.44302],[169.96883,-43.44318],[169.96888,-43.4433],[169.96895,-43.44351],[169.96912,-43.44354],[169.96922,-43.44364],[169.96921,-43.44396],[169.96929,-43.44422],[169.96939,-43.44435],[169.96941,-43.44451],[169.96948,-43.44475],[169.96962,-43.44488],[169.96971,-43.44509],[169.96978,-43.44533],[169.96996,-43.44557],[169.96996,-43.44571],[169.96989,-43.44586],[169.96975,-43.44596],[169.96974,-43.44613],[169.96996,-43.44636],[169.97009,-43.44653],[169.97006,-43.44672],[169.97006,-43.44702],[169.97008,-43.44717],[169.97012,-43.44728],[169.9701,-43.44752],[169.97001,-43.44765],[169.96983,-43.44771],[169.96958,-43.44773],[169.96943,-43.44777],[169.96958,-43.44773],[169.96983,-43.44771],[169.97001,-43.44765],[169.9701,-43.44752],[169.97013,-43.44736],[169.97008,-43.44717],[169.97006,-43.44702],[169.97007,-43.44678]]]}}