{"type":"Feature","properties":{"slug":"laugavegur-trail","osm_id":1225037,"name":"Laugavegur","length_km":24,"closed":false,"endpoints":null,"source":"https://www.openstreetmap.org/relation/1225037"},"geometry":{"type":"MultiLineString","coordinates":[[[-19.51238,63.6843],[-19.5125,63.68449],[-19.51269,63.68484],[-19.5128,63.68501],[-19.5129,63.68518],[-19.51273,63.68537],[-19.51275,63.68554],[-19.5128,63.68568],[-19.51292,63.68589],[-19.5131,63.68601],[-19.51339,63.68619],[-19.51347,63.6864],[-19.51373,63.68663],[-19.51391,63.68684],[-19.51406,63.68703],[-19.51418,63.68713],[-19.5143,63.68724],[-19.5148,63.68755],[-19.51525,63.68784],[-19.51547,63.68802],[-19.51561,63.68822],[-19.51584,63.68837],[-19.51614,63.68846],[-19.51646,63.68858],[-19.51665,63.68878],[-19.51666,63.68893],[-19.51668,63.68912],[-19.51666,63.68932],[-19.51683,63.68949],[-19.51649,63.68957],[-19.51616,63.68972],[-19.51592,63.68979],[-19.51558,63.68984],[-19.51535,63.68998],[-19.51476,63.69006],[-19.51413,63.69036],[-19.51383,63.69043],[-19.51329,63.69049],[-19.51308,63.69069],[-19.51276,63.69089],[-19.51267,63.69105],[-19.51256,63.69118],[-19.51231,63.6914],[-19.51204,63.69156],[-19.51188,63.6917],[-19.5115,63.69189],[-19.51137,63.69199],[-19.51149,63.69216],[-19.51143,63.69234],[-19.51152,63.69245],[-19.51153,63.69258],[-19.51147,63.69281],[-19.51132,63.69305],[-19.51121,63.69323],[-19.51105,63.69348],[-19.51106,63.69361],[-19.51107,63.69379],[-19.5109,63.69393],[-19.51086,63.69405],[-19.5108,63.69448],[-19.51097,63.69456],[-19.51145,63.69444],[-19.5118,63.69445],[-19.5122,63.69449],[-19.5126,63.69445],[-19.51311,63.69449],[-19.51342,63.69456],[-19.51377,63.69465],[-19.51432,63.6947],[-19.51525,63.69526],[-19.51527,63.69549],[-19.51538,63.69585],[-19.51513,63.69599],[-19.51489,63.69602],[-19.51458,63.69608],[-19.51433,63.69611],[-19.51395,63.69611],[-19.51363,63.6962],[-19.51328,63.69634],[-19.51329,63.69652],[-19.51338,63.69682],[-19.51352,63.697],[-19.51339,63.69722],[-19.51313,63.69774],[-19.51301,63.69787],[-19.51287,63.69801],[-19.51263,63.69804],[-19.51247,63.69819],[-19.51222,63.69828],[-19.51192,63.69844],[-19.51174,63.69853],[-19.51162,63.69866],[-19.51129,63.69875],[-19.51098,63.69878],[-19.51067,63.6989],[-19.51032,63.699],[-19.50994,63.69916],[-19.50953,63.69923],[-19.50927,63.69932],[-19.50906,63.69939],[-19.50848,63.69952],[-19.5077,63.69968],[-19.50734,63.69974],[-19.5069,63.69983],[-19.50654,63.69984],[-19.50622,63.69989],[-19.506,63.69997],[-19.50583,63.70006],[-19.50562,63.70012],[-19.50526,63.70019],[-19.50484,63.70024],[-19.50459,63.70025],[-19.50403,63.70023],[-19.50359,63.70025],[-19.50334,63.70025],[-19.50293,63.7004],[-19.50259,63.70038],[-19.50209,63.70041],[-19.50178,63.70052],[-19.50142,63.70053],[-19.5011,63.70049],[-19.5008,63.70049],[-19.5005,63.70057],[-19.50029,63.70065],[-19.50038,63.70088],[-19.50065,63.70098],[-19.50083,63.70121],[-19.50053,63.70146],[-19.50013,63.70159],[-19.49977,63.70165],[-19.49933,63.70175],[-19.4992,63.70188],[-19.49896,63.70184],[-19.49876,63.70194],[-19.49905,63.70202],[-19.49884,63.70208],[-19.49802,63.70248],[-19.4976,63.70259],[-19.49685,63.70289],[-19.49665,63.70299],[-19.49643,63.7031],[-19.49604,63.70317],[-19.49551,63.70328],[-19.49515,63.7033],[-19.49462,63.7033],[-19.4943,63.70334],[-19.49405,63.70343],[-19.49303,63.70366],[-19.49252,63.70395],[-19.49202,63.70407],[-19.49129,63.70426],[-19.49064,63.70439],[-19.49014,63.70449],[-19.48963,63.70466],[-19.48886,63.70477],[-19.48874,63.70486],[-19.48883,63.70501],[-19.48908,63.70513],[-19.48917,63.70524],[-19.48922,63.7055],[-19.48929,63.70561],[-19.48951,63.70577],[-19.48965,63.70588],[-19.48968,63.70604],[-19.48966,63.7062],[-19.48948,63.70634],[-19.48929,63.70643],[-19.48884,63.70661],[-19.48821,63.7068],[-19.48746,63.70697],[-19.48665,63.70722],[-19.48622,63.7073],[-19.48548,63.70744],[-19.48483,63.70753],[-19.48391,63.70774],[-19.48317,63.70777],[-19.48174,63.70811],[-19.48143,63.70823],[-19.48137,63.70841],[-19.48153,63.70858],[-19.48206,63.70887],[-19.48282,63.70923],[-19.48318,63.70941],[-19.48344,63.70984],[-19.48351,63.71003],[-19.48388,63.71032],[-19.48402,63.71055],[-19.48388,63.71064],[-19.48389,63.71079],[-19.48362,63.7109],[-19.48349,63.71103],[-19.48366,63.7112],[-19.48391,63.71121],[-19.48412,63.71126],[-19.48448,63.71143],[-19.48469,63.7116],[-19.48488,63.71169],[-19.48558,63.71191],[-19.48606,63.71206],[-19.4865,63.71219],[-19.48697,63.71233],[-19.48713,63.71244],[-19.48713,63.71261],[-19.48688,63.7129],[-19.48652,63.71313],[-19.48619,63.71355],[-19.48574,63.71383],[-19.48509,63.71432],[-19.48373,63.71495],[-19.48315,63.71532],[-19.48264,63.71572],[-19.48154,63.71617],[-19.48096,63.71661],[-19.48026,63.71689],[-19.47894,63.71736],[-19.47772,63.71765],[-19.47671,63.71806],[-19.47512,63.71857],[-19.47353,63.71899],[-19.47007,63.71971],[-19.4678,63.72001],[-19.46658,63.72024],[-19.46466,63.72044],[-19.46325,63.7206],[-19.46266,63.72077],[-19.46152,63.72091],[-19.46022,63.72102],[-19.45992,63.72117],[-19.45823,63.72139],[-19.45721,63.72165],[-19.45586,63.72193],[-19.45427,63.72217],[-19.45383,63.72234],[-19.45327,63.72237],[-19.45295,63.7224],[-19.45182,63.72272],[-19.45109,63.72287],[-19.45054,63.72294],[-19.45018,63.72308],[-19.44982,63.72313],[-19.44926,63.72331],[-19.44772,63.72367],[-19.44666,63.72392],[-19.44595,63.72417],[-19.44465,63.72445],[-19.44196,63.72505],[-19.44115,63.72526],[-19.44066,63.72534],[-19.44002,63.7254],[-19.43937,63.72558],[-19.4389,63.72567],[-19.43848,63.7258],[-19.43756,63.72596],[-19.43684,63.72622],[-19.43611,63.72637],[-19.43571,63.72648],[-19.43531,63.72661],[-19.43498,63.72682],[-19.43473,63.72703],[-19.43409,63.72735],[-19.43401,63.72755],[-19.43334,63.72813],[-19.43294,63.72841],[-19.43284,63.72865],[-19.43277,63.72889],[-19.433,63.72954],[-19.4325,63.72999],[-19.43194,63.73009],[-19.43133,63.73037],[-19.43108,63.73044],[-19.43057,63.73054],[-19.42999,63.73067],[-19.42942,63.73085],[-19.42887,63.73109],[-19.42751,63.7314],[-19.42666,63.7315],[-19.42624,63.7316],[-19.42591,63.73165],[-19.42583,63.73186],[-19.42586,63.73211],[-19.42564,63.73223],[-19.42519,63.73226],[-19.42447,63.73252],[-19.4236,63.73266],[-19.42333,63.73295],[-19.42329,63.73317],[-19.42317,63.73329],[-19.423,63.73353],[-19.42259,63.73365],[-19.42219,63.73371],[-19.42121,63.73394],[-19.42079,63.73396],[-19.42034,63.73404],[-19.42011,63.73421],[-19.41992,63.7344],[-19.42003,63.73459],[-19.41986,63.73469],[-19.41896,63.73475],[-19.41847,63.7348],[-19.418,63.73477],[-19.41774,63.73483],[-19.41774,63.735],[-19.41756,63.73508],[-19.41727,63.73518],[-19.41748,63.73533],[-19.41755,63.7356],[-19.41772,63.73583],[-19.41755,63.73616],[-19.41752,63.7363],[-19.41768,63.73654],[-19.41785,63.73666],[-19.41777,63.73693],[-19.41755,63.7372],[-19.41736,63.73731],[-19.41714,63.73755],[-19.417,63.73793],[-19.41674,63.73806],[-19.41673,63.73825],[-19.41658,63.73844],[-19.4164,63.73869],[-19.41587,63.73899],[-19.41559,63.73918],[-19.41524,63.7394],[-19.41494,63.73967],[-19.41466,63.73966],[-19.41475,63.73996],[-19.41473,63.74071],[-19.41473,63.7414],[-19.41454,63.74163],[-19.41442,63.74212],[-19.41443,63.74259],[-19.41431,63.74276],[-19.41423,63.74298],[-19.41406,63.74314],[-19.41398,63.74331],[-19.41388,63.74364],[-19.41385,63.74382],[-19.4138,63.74397],[-19.41394,63.74409],[-19.41387,63.74423],[-19.41338,63.74454],[-19.4131,63.74468],[-19.413,63.74486],[-19.41218,63.74518],[-19.4119,63.74541],[-19.41103,63.74568],[-19.41055,63.74584],[-19.41015,63.74605],[-19.40943,63.74625],[-19.40895,63.74668],[-19.40775,63.74702],[-19.40654,63.74731],[-19.40627,63.7474],[-19.40542,63.74761],[-19.40497,63.74773],[-19.40445,63.74779],[-19.40337,63.74797],[-19.40241,63.74821],[-19.40213,63.74831],[-19.40153,63.74852],[-19.40132,63.74876],[-19.40129,63.74898],[-19.40112,63.74927],[-19.40112,63.74961],[-19.40098,63.74999],[-19.40007,63.75062],[-19.3998,63.7509],[-19.39929,63.75126],[-19.39851,63.75174],[-19.39831,63.75183],[-19.39812,63.75206],[-19.39685,63.75302],[-19.39573,63.75359],[-19.39479,63.75405],[-19.39359,63.75482],[-19.39243,63.75541],[-19.39133,63.75588],[-19.39103,63.75597],[-19.39067,63.75608],[-19.39061,63.75593],[-19.39034,63.75568],[-19.39022,63.75543],[-19.39007,63.75534],[-19.38942,63.75517],[-19.38887,63.75512],[-19.38848,63.75504],[-19.3881,63.75491],[-19.38777,63.75482],[-19.38751,63.7548],[-19.38722,63.75475],[-19.38687,63.75469],[-19.38658,63.7547],[-19.38636,63.75464],[-19.38617,63.75453],[-19.38598,63.75438],[-19.38586,63.75428],[-19.38432,63.75389],[-19.38329,63.75366],[-19.38227,63.75334],[-19.38192,63.75324],[-19.38135,63.75318],[-19.38108,63.75311],[-19.38049,63.75296],[-19.38011,63.75282],[-19.37985,63.75287],[-19.37956,63.7528],[-19.3793,63.7529],[-19.37905,63.75289],[-19.37833,63.75285],[-19.37651,63.75278],[-19.37626,63.75272],[-19.37586,63.75277],[-19.37547,63.75273],[-19.37497,63.75272],[-19.37459,63.75282],[-19.3742,63.75269],[-19.37395,63.75277],[-19.37302,63.75288],[-19.37231,63.75286],[-19.3716,63.75287],[-19.37126,63.75297],[-19.3707,63.75306],[-19.37042,63.75307],[-19.37012,63.75314],[-19.36973,63.75322],[-19.36921,63.75326],[-19.36857,63.75328],[-19.36807,63.75329],[-19.36708,63.75337],[-19.36644,63.75338],[-19.36543,63.75342],[-19.3641,63.75338],[-19.36349,63.75337],[-19.36289,63.75339],[-19.36235,63.75344],[-19.36146,63.75358],[-19.36103,63.75376],[-19.36075,63.75386],[-19.36051,63.75394],[-19.36061,63.75406],[-19.36083,63.75414],[-19.36144,63.75431],[-19.36148,63.75444],[-19.36127,63.75449],[-19.36143,63.75464],[-19.36162,63.75485],[-19.36183,63.75496],[-19.36214,63.75531],[-19.36251,63.75567],[-19.36275,63.75584],[-19.36284,63.75611],[-19.36272,63.75642],[-19.36266,63.75657],[-19.36244,63.75689],[-19.36236,63.75702],[-19.36239,63.75713],[-19.36228,63.75723],[-19.36227,63.75737],[-19.36227,63.75749],[-19.36213,63.75761],[-19.36157,63.75777],[-19.36125,63.75786],[-19.36034,63.75833],[-19.35977,63.75868],[-19.35915,63.759],[-19.35891,63.75914],[-19.35889,63.75928],[-19.3588,63.75944],[-19.35885,63.75959],[-19.35867,63.7599],[-19.35874,63.76],[-19.35864,63.76024],[-19.35863,63.76035],[-19.35873,63.76054],[-19.35892,63.76077],[-19.35909,63.7609],[-19.35907,63.76125],[-19.35915,63.76139],[-19.35973,63.7618],[-19.36029,63.76223],[-19.36138,63.76308],[-19.36187,63.76339],[-19.36222,63.76367],[-19.36252,63.76383],[-19.36287,63.76403],[-19.36288,63.76418],[-19.3632,63.76425],[-19.3635,63.76436],[-19.36412,63.76447],[-19.36466,63.76455],[-19.36532,63.76468],[-19.36576,63.76477],[-19.36606,63.76483],[-19.36662,63.76493],[-19.36708,63.76499],[-19.36741,63.76503],[-19.36767,63.76508],[-19.36798,63.76515],[-19.36833,63.76522],[-19.36856,63.76529],[-19.36884,63.76537],[-19.36923,63.76544],[-19.36985,63.76559],[-19.37039,63.76568],[-19.37077,63.76573],[-19.37111,63.76577],[-19.37142,63.76584],[-19.37178,63.76594],[-19.3719,63.76609],[-19.37214,63.76612],[-19.37247,63.76611],[-19.37282,63.76607],[-19.37334,63.76604],[-19.37384,63.76607],[-19.37389,63.76621],[-19.37384,63.76608],[-19.37389,63.76621],[-19.37409,63.76631],[-19.3744,63.76639],[-19.37498,63.76656],[-19.37549,63.76673],[-19.37642,63.76704],[-19.37666,63.76711],[-19.3773,63.76731],[-19.37749,63.76745],[-19.37762,63.76763],[-19.37769,63.76801],[-19.37771,63.76827],[-19.37763,63.76858],[-19.37783,63.76906],[-19.37804,63.76949],[-19.37806,63.76965],[-19.37805,63.76981],[-19.37814,63.77003],[-19.37805,63.77019],[-19.37668,63.77083],[-19.37572,63.77131],[-19.37524,63.77155],[-19.37425,63.77194],[-19.37258,63.77259],[-19.37214,63.77277],[-19.37191,63.77291],[-19.37174,63.773],[-19.37135,63.77321],[-19.37111,63.77329],[-19.36954,63.77398],[-19.36829,63.77468],[-19.36712,63.77546],[-19.36656,63.77595],[-19.36594,63.7763],[-19.36562,63.7764],[-19.36467,63.77672],[-19.36446,63.77684],[-19.36367,63.77728],[-19.36329,63.77754],[-19.36269,63.77786],[-19.36174,63.77829],[-19.36099,63.77856],[-19.35943,63.7793],[-19.3591,63.77943],[-19.35857,63.77953],[-19.35808,63.77967],[-19.35707,63.78002],[-19.35459,63.78086],[-19.35408,63.78102],[-19.35353,63.78126],[-19.35262,63.78155],[-19.35188,63.78177],[-19.35126,63.78195],[-19.35086,63.78212],[-19.35046,63.7823],[-19.34824,63.78301],[-19.347,63.78332],[-19.3465,63.78345],[-19.34537,63.78385],[-19.34302,63.78463],[-19.3417,63.78502],[-19.34117,63.78526],[-19.34072,63.78532],[-19.34053,63.78542],[-19.33631,63.78659],[-19.33547,63.78679],[-19.33465,63.78708],[-19.33361,63.78738],[-19.33254,63.78773],[-19.33204,63.78788],[-19.33162,63.78797],[-19.33122,63.78803],[-19.33014,63.78808],[-19.3297,63.78807],[-19.32902,63.78805],[-19.32858,63.78808],[-19.32812,63.78814],[-19.32763,63.78826],[-19.32721,63.78834],[-19.32694,63.78837],[-19.32658,63.78837],[-19.32584,63.78838],[-19.32509,63.78846],[-19.32444,63.78855],[-19.32367,63.78872],[-19.32337,63.78879],[-19.32295,63.78896],[-19.32226,63.78928],[-19.32135,63.78961],[-19.32072,63.78983],[-19.32061,63.78996],[-19.32053,63.79022],[-19.32026,63.79035],[-19.31962,63.79043],[-19.31938,63.79048],[-19.31845,63.79085],[-19.31746,63.79121],[-19.31691,63.79149],[-19.31671,63.79158],[-19.31645,63.79168],[-19.31594,63.79182],[-19.3155,63.79188],[-19.31477,63.7919],[-19.31403,63.79197],[-19.31333,63.79212],[-19.31237,63.79244],[-19.31165,63.79272],[-19.31048,63.79324],[-19.30962,63.79365],[-19.30873,63.7942],[-19.30772,63.79496],[-19.30681,63.79551],[-19.30538,63.79623],[-19.30361,63.79705],[-19.30143,63.79795],[-19.29954,63.79876],[-19.29845,63.79926],[-19.2981,63.79941],[-19.29616,63.80013],[-19.29533,63.80049],[-19.29469,63.80082],[-19.29181,63.80231],[-19.29107,63.80272],[-19.29084,63.80278],[-19.29063,63.80285],[-19.29031,63.80305],[-19.29007,63.80315],[-19.28974,63.8032],[-19.28945,63.80322],[-19.28915,63.80323],[-19.28887,63.80322],[-19.28851,63.8032],[-19.28814,63.8032],[-19.28783,63.80322],[-19.28706,63.80327],[-19.28665,63.8033],[-19.28615,63.80331],[-19.28503,63.80331],[-19.28476,63.80332],[-19.2839,63.80337],[-19.28335,63.80339],[-19.28214,63.8034],[-19.28181,63.80345],[-19.2814,63.80363],[-19.28108,63.80379],[-19.28092,63.80388],[-19.28068,63.80409],[-19.28029,63.80422],[-19.28009,63.8043],[-19.27983,63.80446],[-19.27953,63.80463],[-19.27911,63.80495],[-19.27871,63.80527],[-19.27822,63.80566],[-19.27806,63.80578],[-19.2779,63.80586],[-19.2777,63.80593],[-19.27726,63.806],[-19.27605,63.8062],[-19.27544,63.8063],[-19.2751,63.80643],[-19.27308,63.80694],[-19.27159,63.80732],[-19.27081,63.80753],[-19.26999,63.80782],[-19.26911,63.80806],[-19.26835,63.80822],[-19.26782,63.80855],[-19.26705,63.80915],[-19.26678,63.80927],[-19.26656,63.80938],[-19.26628,63.80967],[-19.26554,63.81016],[-19.26521,63.81039],[-19.26509,63.81052]],[[-19.16251,63.92965],[-19.16249,63.92949],[-19.1622,63.92897],[-19.16206,63.92876],[-19.16157,63.92773],[-19.16121,63.9273],[-19.16048,63.9262],[-19.16005,63.92572],[-19.15958,63.92534],[-19.15953,63.92517],[-19.15965,63.92505],[-19.15953,63.92494],[-19.15901,63.92503],[-19.1587,63.92491],[-19.15856,63.92478],[-19.15875,63.92451],[-19.15859,63.92434],[-19.15848,63.92409],[-19.15817,63.92361],[-19.15788,63.92326],[-19.15788,63.9231],[-19.15798,63.92271],[-19.15773,63.92238],[-19.15773,63.92199],[-19.15741,63.92179],[-19.15752,63.92166],[-19.15705,63.9216],[-19.15676,63.92161],[-19.15665,63.92148],[-19.15674,63.92137],[-19.15699,63.92132],[-19.15688,63.92113],[-19.1566,63.92107],[-19.15651,63.92096],[-19.15661,63.92085],[-19.15719,63.92067],[-19.15779,63.92045],[-19.15822,63.92029],[-19.15849,63.92012],[-19.15896,63.91965],[-19.15913,63.91948],[-19.1597,63.91889],[-19.16005,63.91833],[-19.16022,63.91802],[-19.16022,63.91778],[-19.16006,63.91732],[-19.15985,63.91661],[-19.15977,63.91642],[-19.15964,63.91624],[-19.15962,63.91613],[-19.1596,63.91598],[-19.15923,63.91537],[-19.15916,63.91519],[-19.15941,63.91515],[-19.15918,63.91506],[-19.15892,63.91499],[-19.15878,63.91473],[-19.15875,63.9144],[-19.15783,63.91339],[-19.15764,63.91321],[-19.15737,63.91302],[-19.15639,63.91255],[-19.15475,63.91188],[-19.1541,63.91166],[-19.15358,63.91145],[-19.15334,63.91127],[-19.15305,63.91084],[-19.15277,63.91012],[-19.15247,63.90912],[-19.15248,63.90884],[-19.15246,63.9085],[-19.15268,63.9083],[-19.15269,63.90819],[-19.1529,63.90809],[-19.15274,63.908],[-19.1524,63.90772],[-19.15198,63.9073],[-19.15172,63.90704],[-19.15166,63.90688],[-19.15179,63.90665],[-19.15189,63.90653],[-19.1521,63.90629],[-19.15228,63.9062],[-19.15229,63.90596],[-19.15208,63.9056],[-19.15224,63.90547],[-19.15257,63.90539],[-19.15348,63.90515],[-19.15537,63.90447],[-19.15592,63.90422],[-19.15768,63.90372],[-19.15854,63.90332],[-19.15907,63.90303],[-19.15951,63.90287],[-19.16002,63.90259],[-19.16074,63.90204],[-19.16123,63.90159],[-19.16135,63.90143],[-19.16135,63.90128],[-19.16145,63.90113],[-19.16192,63.90081],[-19.16236,63.9006],[-19.16269,63.90055],[-19.16289,63.90041],[-19.16296,63.90028],[-19.16351,63.90001],[-19.1638,63.89997],[-19.16412,63.89984],[-19.16434,63.89979],[-19.16458,63.89977],[-19.16489,63.89969],[-19.16491,63.89955],[-19.16518,63.89937],[-19.16526,63.89926],[-19.16559,63.89895],[-19.16571,63.89886],[-19.16561,63.89873],[-19.16548,63.8986],[-19.16552,63.89846],[-19.16568,63.89836],[-19.16598,63.89838],[-19.16624,63.89834],[-19.16638,63.89811],[-19.16605,63.89788],[-19.16665,63.89791],[-19.16727,63.89777],[-19.16741,63.89767],[-19.16766,63.8976],[-19.16768,63.89744],[-19.16794,63.89728],[-19.16804,63.89714],[-19.16842,63.89696],[-19.16836,63.89671],[-19.16791,63.89595],[-19.16786,63.89583],[-19.16764,63.89564],[-19.16754,63.89548],[-19.16748,63.89529],[-19.16748,63.89513],[-19.16763,63.89494],[-19.16774,63.89484],[-19.16782,63.89468],[-19.16768,63.89459],[-19.16736,63.89442],[-19.16734,63.89424],[-19.1673,63.89409],[-19.16718,63.89398],[-19.16688,63.89397],[-19.16679,63.89386],[-19.16669,63.89376],[-19.16595,63.89385],[-19.16562,63.89386],[-19.16536,63.89382],[-19.16509,63.89368],[-19.16505,63.89346],[-19.16503,63.89334],[-19.16517,63.89317],[-19.16511,63.89296],[-19.16549,63.89274],[-19.16617,63.89246],[-19.16647,63.89227],[-19.16682,63.8921],[-19.16718,63.89195],[-19.168,63.89166],[-19.16837,63.89156],[-19.16874,63.89146],[-19.16968,63.89123],[-19.17079,63.89087],[-19.17077,63.89073],[-19.17104,63.89061],[-19.17138,63.89049],[-19.17128,63.89037],[-19.17139,63.89025],[-19.17168,63.89018],[-19.17196,63.89014],[-19.17225,63.89012],[-19.17259,63.89018],[-19.17289,63.89014],[-19.17311,63.89006],[-19.17343,63.88994],[-19.1739,63.88985],[-19.17437,63.88982],[-19.17482,63.88973],[-19.17611,63.88958],[-19.17684,63.88954],[-19.17759,63.88948],[-19.17836,63.88934],[-19.17922,63.88924],[-19.17962,63.88921],[-19.18022,63.88917],[-19.1808,63.88912],[-19.1814,63.88903],[-19.18226,63.88884],[-19.1827,63.88872],[-19.18294,63.88861],[-19.18318,63.88853],[-19.18348,63.88849],[-19.18374,63.88843],[-19.18398,63.88827],[-19.18414,63.88817],[-19.18431,63.88807],[-19.18438,63.88789],[-19.18419,63.88768],[-19.18438,63.88748],[-19.18478,63.88728],[-19.18497,63.88716],[-19.18493,63.88696],[-19.18501,63.88683],[-19.18496,63.88673],[-19.18478,63.88662],[-19.18465,63.88649],[-19.1844,63.88641],[-19.1842,63.88628],[-19.1841,63.88614],[-19.18456,63.8861],[-19.18512,63.88602],[-19.18537,63.88582],[-19.18554,63.88565],[-19.18578,63.88541],[-19.18619,63.88516],[-19.18631,63.88503],[-19.1867,63.88487],[-19.18701,63.88464],[-19.18714,63.88454],[-19.18738,63.88443],[-19.18763,63.88423],[-19.18788,63.88412],[-19.18815,63.88403],[-19.18854,63.88399],[-19.18892,63.88385],[-19.18922,63.88369],[-19.18973,63.8836],[-19.19003,63.88355],[-19.19031,63.8835],[-19.19058,63.88348],[-19.19097,63.88337],[-19.19131,63.88323],[-19.19176,63.8831],[-19.19202,63.88297],[-19.19263,63.8828],[-19.19329,63.88253],[-19.19447,63.88216],[-19.19496,63.88201],[-19.1962,63.8817],[-19.19679,63.88166],[-19.19742,63.88158],[-19.19761,63.8815],[-19.19849,63.88128],[-19.19823,63.88092],[-19.19797,63.88069],[-19.19786,63.88057],[-19.1977,63.8804],[-19.19762,63.8803],[-19.19765,63.88018],[-19.19773,63.88004],[-19.19784,63.87988],[-19.19785,63.87973],[-19.19776,63.87957],[-19.19761,63.87932],[-19.19765,63.87914],[-19.19763,63.87895],[-19.19767,63.87882],[-19.19783,63.87868],[-19.19781,63.87852],[-19.19794,63.87836],[-19.1981,63.87811],[-19.19826,63.87787],[-19.19925,63.87657],[-19.19967,63.87616],[-19.19989,63.87596],[-19.20016,63.87583],[-19.20049,63.87573],[-19.20064,63.8756],[-19.20123,63.87526],[-19.20151,63.87505],[-19.20167,63.87485],[-19.20169,63.87459],[-19.2016,63.87436],[-19.20157,63.87418],[-19.20157,63.87403],[-19.20182,63.87383],[-19.20213,63.87372],[-19.20231,63.87363],[-19.20254,63.87356],[-19.20283,63.8735],[-19.20304,63.87339],[-19.20319,63.87327],[-19.2035,63.87318],[-19.20378,63.87305],[-19.20391,63.87295],[-19.20416,63.87285],[-19.2044,63.87272],[-19.20484,63.87241],[-19.20541,63.872],[-19.20635,63.87187],[-19.20705,63.87179],[-19.20793,63.87159],[-19.20855,63.87147],[-19.20897,63.87133],[-19.2094,63.87117],[-19.20996,63.87099],[-19.2103,63.87099],[-19.21059,63.87087],[-19.21127,63.87071],[-19.21198,63.8705],[-19.21246,63.87031],[-19.21279,63.87014],[-19.21305,63.86996],[-19.21334,63.86979],[-19.21366,63.86966],[-19.21432,63.8694],[-19.21502,63.86907],[-19.21649,63.86836],[-19.21728,63.86799],[-19.21766,63.86788],[-19.21782,63.86776],[-19.218,63.86762],[-19.21839,63.86744],[-19.21869,63.86724],[-19.21892,63.86703],[-19.21909,63.86672],[-19.21934,63.86619],[-19.21961,63.86527],[-19.21964,63.86454],[-19.21969,63.86473],[-19.21964,63.86454],[-19.21946,63.86445],[-19.2194,63.86434],[-19.21944,63.8642],[-19.21998,63.8637],[-19.22156,63.86232],[-19.22207,63.86193],[-19.22287,63.86144],[-19.22369,63.86095],[-19.22445,63.86056],[-19.22487,63.8603],[-19.2251,63.8601],[-19.22519,63.85983],[-19.22526,63.85963],[-19.22542,63.85944],[-19.22581,63.85909],[-19.2262,63.85885],[-19.22662,63.85861],[-19.22685,63.85841],[-19.22697,63.85823],[-19.22707,63.85781],[-19.22691,63.85754],[-19.22596,63.85743],[-19.22515,63.85732],[-19.22467,63.85725],[-19.22388,63.85709],[-19.22325,63.85698],[-19.22202,63.85692],[-19.22181,63.8571],[-19.22137,63.85708],[-19.22021,63.85726],[-19.21986,63.85725],[-19.21957,63.85716],[-19.2194,63.85701],[-19.21925,63.85678],[-19.21906,63.85647],[-19.21878,63.85596],[-19.2185,63.8557],[-19.21801,63.8554],[-19.21757,63.85522],[-19.21727,63.85509],[-19.21713,63.85499],[-19.21716,63.85481],[-19.21723,63.8544],[-19.21735,63.85419],[-19.21742,63.85386],[-19.21756,63.85368],[-19.21772,63.85345],[-19.21792,63.85311],[-19.21789,63.85292],[-19.21828,63.8525],[-19.21861,63.85218],[-19.2189,63.85201],[-19.21928,63.85173],[-19.21952,63.85148],[-19.21967,63.85133],[-19.2197,63.85108],[-19.21971,63.85096],[-19.21942,63.85079],[-19.21904,63.85051],[-19.2187,63.85038],[-19.21745,63.84996],[-19.21666,63.84969],[-19.21628,63.8495],[-19.21587,63.84928],[-19.21576,63.84907],[-19.21561,63.84898],[-19.21556,63.84878],[-19.21528,63.8486],[-19.21494,63.84822],[-19.2149,63.84806],[-19.2151,63.84778],[-19.21503,63.84759],[-19.2152,63.84738],[-19.21535,63.84712],[-19.21534,63.84697],[-19.21544,63.84676],[-19.21589,63.84665],[-19.2162,63.84652],[-19.21636,63.84639],[-19.21686,63.84617],[-19.2177,63.84574],[-19.21808,63.84557],[-19.21823,63.84545],[-19.21834,63.84534],[-19.21835,63.84517],[-19.21848,63.84497],[-19.21862,63.84474]],[[-19.16476,63.9315],[-19.16504,63.93169],[-19.16514,63.93187],[-19.16537,63.93191],[-19.16551,63.93202],[-19.1656,63.93215],[-19.1659,63.93242],[-19.16616,63.93251],[-19.16723,63.93311],[-19.16774,63.93334],[-19.1675,63.93349],[-19.16758,63.93369],[-19.16734,63.93403],[-19.1669,63.93437],[-19.16683,63.9345],[-19.16665,63.93474],[-19.16656,63.93495],[-19.16656,63.9351],[-19.16662,63.93521],[-19.1666,63.93533],[-19.16639,63.93547],[-19.16653,63.93592],[-19.16656,63.93619],[-19.16665,63.93638],[-19.16696,63.93672],[-19.16716,63.93685],[-19.16738,63.93692],[-19.16754,63.93708],[-19.1676,63.93721],[-19.16792,63.93779],[-19.16727,63.93827],[-19.16655,63.93873],[-19.16612,63.93919],[-19.16529,63.93976],[-19.16486,63.94],[-19.16454,63.94029],[-19.16435,63.94077],[-19.16406,63.94122],[-19.16394,63.94146],[-19.16361,63.94195],[-19.16348,63.9421],[-19.16334,63.94219],[-19.16304,63.94237],[-19.16133,63.94362],[-19.16016,63.94456],[-19.15989,63.94483],[-19.15935,63.94532],[-19.15861,63.94579],[-19.15814,63.94624],[-19.15745,63.94686],[-19.157,63.9473],[-19.15602,63.94801],[-19.1555,63.94829],[-19.15487,63.94884],[-19.15431,63.94934],[-19.15388,63.94948],[-19.15361,63.94964],[-19.15322,63.94983],[-19.15249,63.95008],[-19.15055,63.95064],[-19.14939,63.95096],[-19.14891,63.95114],[-19.14841,63.95128],[-19.14809,63.95128],[-19.14769,63.95139],[-19.14752,63.95151],[-19.14601,63.9524],[-19.14537,63.95276],[-19.14504,63.95289],[-19.14461,63.95304],[-19.14438,63.95319],[-19.14421,63.9534],[-19.14428,63.95351],[-19.14416,63.95363],[-19.14392,63.95369],[-19.14363,63.95372],[-19.14382,63.95382],[-19.14373,63.95399],[-19.14359,63.95411],[-19.14336,63.95433],[-19.14329,63.95448],[-19.14329,63.9548],[-19.14225,63.95562],[-19.14211,63.95585],[-19.14203,63.95622],[-19.14177,63.95651],[-19.14154,63.95722],[-19.14164,63.95738],[-19.14121,63.95764],[-19.14092,63.95782],[-19.14054,63.95817],[-19.14006,63.95852],[-19.13974,63.95883],[-19.13933,63.95947],[-19.13901,63.95982],[-19.1386,63.96019],[-19.13749,63.96088],[-19.13695,63.9612],[-19.13548,63.9619],[-19.13513,63.96213],[-19.13432,63.96267],[-19.1338,63.96281],[-19.1334,63.96283],[-19.13232,63.96287],[-19.13193,63.96291],[-19.13137,63.96314],[-19.13096,63.96319],[-19.1306,63.96335],[-19.13028,63.96365],[-19.13003,63.96393],[-19.12982,63.96411],[-19.12947,63.96428],[-19.12875,63.96449],[-19.12783,63.9647],[-19.12736,63.96477],[-19.12673,63.96476],[-19.12616,63.96472],[-19.12568,63.96465],[-19.12522,63.9645],[-19.1245,63.96427],[-19.12379,63.96407],[-19.12344,63.96403],[-19.12279,63.964],[-19.12156,63.9639],[-19.12064,63.96381],[-19.12031,63.96377],[-19.11917,63.96387],[-19.11852,63.96392],[-19.11695,63.96414],[-19.11664,63.96428],[-19.11633,63.96452],[-19.116,63.96493],[-19.11591,63.96511],[-19.11521,63.96553],[-19.11464,63.966],[-19.11404,63.96671],[-19.11355,63.9674],[-19.11329,63.96801],[-19.11304,63.96868],[-19.11304,63.9689],[-19.11288,63.96907],[-19.11252,63.96945],[-19.11215,63.97007],[-19.11184,63.97059],[-19.1118,63.97079],[-19.11175,63.97107],[-19.11145,63.97109],[-19.1112,63.97129],[-19.11104,63.97155],[-19.11089,63.9718],[-19.1108,63.97204],[-19.1103,63.97264],[-19.10993,63.97294],[-19.10967,63.97311],[-19.10923,63.97331],[-19.10908,63.97353],[-19.10901,63.97379],[-19.10882,63.97397],[-19.10783,63.97449],[-19.10755,63.97474],[-19.10732,63.97499],[-19.10729,63.97514],[-19.10741,63.97543],[-19.10743,63.97559],[-19.10731,63.97576],[-19.10711,63.97592],[-19.10662,63.97629],[-19.10615,63.97652],[-19.10539,63.97678],[-19.10481,63.97697],[-19.10347,63.97728],[-19.10131,63.97786],[-19.10074,63.97802],[-19.10009,63.97815],[-19.0995,63.9783],[-19.09887,63.97837],[-19.09794,63.97847],[-19.09767,63.97859],[-19.09747,63.97871],[-19.09726,63.97891],[-19.09703,63.97899],[-19.09667,63.97906],[-19.09643,63.97903],[-19.09619,63.97906],[-19.09574,63.97912],[-19.09543,63.97917],[-19.09458,63.97937],[-19.09408,63.97955],[-19.09374,63.97963],[-19.09344,63.97971],[-19.09323,63.9798],[-19.09297,63.97994],[-19.09267,63.98006],[-19.09223,63.98019],[-19.09194,63.98026],[-19.09161,63.9803],[-19.0913,63.98025],[-19.09089,63.98005],[-19.09061,63.97992],[-19.09027,63.97978],[-19.08994,63.97965],[-19.08968,63.97955],[-19.08911,63.97949],[-19.08879,63.97956],[-19.08837,63.97971],[-19.08812,63.97982],[-19.08799,63.97998],[-19.088,63.98014],[-19.08776,63.9804],[-19.08784,63.98054],[-19.08784,63.98068],[-19.08773,63.98081],[-19.0875,63.98094],[-19.08742,63.98107],[-19.08731,63.98119],[-19.0873,63.98137],[-19.08757,63.98147],[-19.08789,63.9815],[-19.08819,63.98155],[-19.08862,63.98158],[-19.08887,63.98167],[-19.08862,63.98158],[-19.08894,63.98187],[-19.08896,63.98199],[-19.08903,63.98227],[-19.08917,63.98239],[-19.08891,63.98243],[-19.0892,63.98255],[-19.08916,63.98277],[-19.0891,63.98293],[-19.08906,63.98304],[-19.08907,63.98328],[-19.08907,63.9835],[-19.0891,63.98362],[-19.08907,63.98375],[-19.08897,63.98387],[-19.0889,63.98409],[-19.08894,63.9842],[-19.08878,63.98433],[-19.08895,63.98445],[-19.08925,63.98447],[-19.08906,63.98454],[-19.08884,63.98465],[-19.08875,63.98483],[-19.08871,63.985],[-19.08865,63.98521],[-19.08839,63.98548],[-19.08822,63.98564],[-19.088,63.98578],[-19.08777,63.9859],[-19.08738,63.98603],[-19.08701,63.98616],[-19.08672,63.98632],[-19.08652,63.98649],[-19.08646,63.98664],[-19.08638,63.98689],[-19.0859,63.98695],[-19.08612,63.98731],[-19.08586,63.98735],[-19.08566,63.98747],[-19.0856,63.98772],[-19.08581,63.98784],[-19.08577,63.98801],[-19.08564,63.9882],[-19.08538,63.98834],[-19.08535,63.98848],[-19.08578,63.98864],[-19.08573,63.98879],[-19.08574,63.98891],[-19.08578,63.98912],[-19.08585,63.98939],[-19.08581,63.98972],[-19.08578,63.98985],[-19.08565,63.98996],[-19.0853,63.9901],[-19.08463,63.9904],[-19.08444,63.99052],[-19.08421,63.99061],[-19.08389,63.99056],[-19.08351,63.99054],[-19.08324,63.99058],[-19.08289,63.99058],[-19.08247,63.99058],[-19.08202,63.99058],[-19.08168,63.99061],[-19.08143,63.99063],[-19.08097,63.9906],[-19.08064,63.99054],[-19.08012,63.99046],[-19.07982,63.99047],[-19.07959,63.99055],[-19.07933,63.99062],[-19.07906,63.99059],[-19.07872,63.9906],[-19.07847,63.99062],[-19.07821,63.99062],[-19.07738,63.9907],[-19.07705,63.99071],[-19.0768,63.99063],[-19.07627,63.99057],[-19.07595,63.99057],[-19.07551,63.99061],[-19.07524,63.99061],[-19.07495,63.99066],[-19.07471,63.99077],[-19.07444,63.99091],[-19.07413,63.99094],[-19.07384,63.99089],[-19.07368,63.99075],[-19.07345,63.99068],[-19.0731,63.99054],[-19.07267,63.99042],[-19.07226,63.99042],[-19.07186,63.99043],[-19.07155,63.99039],[-19.07126,63.99038],[-19.07096,63.99041],[-19.07055,63.99047],[-19.07025,63.99058],[-19.07003,63.99064],[-19.06978,63.99066],[-19.06926,63.99072],[-19.0686,63.99082],[-19.06828,63.99083],[-19.06772,63.99076],[-19.06749,63.99072],[-19.06712,63.99062],[-19.06685,63.99061],[-19.06623,63.99064],[-19.06571,63.99061],[-19.06539,63.99061],[-19.06518,63.99071],[-19.06523,63.99086],[-19.06518,63.99097],[-19.06499,63.99105],[-19.06477,63.99093],[-19.06487,63.99081],[-19.0646,63.99061],[-19.06429,63.99063],[-19.06414,63.99072],[-19.0639,63.99082],[-19.06361,63.99085],[-19.0633,63.99085],[-19.06311,63.99075],[-19.06286,63.99075],[-19.06175,63.99061],[-19.06158,63.9906]],[[-19.21931,63.82235],[-19.21911,63.82289],[-19.21916,63.8231],[-19.21915,63.82322],[-19.2189,63.82345],[-19.21861,63.82372],[-19.21832,63.82398],[-19.21795,63.82427],[-19.21766,63.82441],[-19.21743,63.82448],[-19.21668,63.82466],[-19.21639,63.8247],[-19.21581,63.82479],[-19.21541,63.82486],[-19.21508,63.82493],[-19.21492,63.82502],[-19.21439,63.82517],[-19.21391,63.82536],[-19.21373,63.82548],[-19.21322,63.82582],[-19.21295,63.82604],[-19.21258,63.82638],[-19.21203,63.82679],[-19.21181,63.82689],[-19.2115,63.82702],[-19.21115,63.82713],[-19.21096,63.82721],[-19.21072,63.82734],[-19.21039,63.82753],[-19.21012,63.82765],[-19.2099,63.82771],[-19.2096,63.82776],[-19.20939,63.82783],[-19.20922,63.82801],[-19.20908,63.82813],[-19.2089,63.82822],[-19.20866,63.82829],[-19.2081,63.82838],[-19.20783,63.82845],[-19.20741,63.82863],[-19.20734,63.8288],[-19.20728,63.82893],[-19.2071,63.82909],[-19.20701,63.82927],[-19.20698,63.8294],[-19.20681,63.82961],[-19.20674,63.82985],[-19.20674,63.83015],[-19.20665,63.83043],[-19.20639,63.83063],[-19.20623,63.83086],[-19.20611,63.83108],[-19.20613,63.8312],[-19.20582,63.83134],[-19.20562,63.83155],[-19.20561,63.83167],[-19.20574,63.83183],[-19.20606,63.83193],[-19.20638,63.83208],[-19.20652,63.83225],[-19.20661,63.83237],[-19.20685,63.8325],[-19.20699,63.83276],[-19.20704,63.83289],[-19.20723,63.83301],[-19.20742,63.83308],[-19.20796,63.83313],[-19.20798,63.83327],[-19.20799,63.83348],[-19.20788,63.83374],[-19.2079,63.83386],[-19.20808,63.83395],[-19.20827,63.83406],[-19.20852,63.83412],[-19.20929,63.83414],[-19.20964,63.83424],[-19.20992,63.8344],[-19.21044,63.83474],[-19.21119,63.83512],[-19.21212,63.83532],[-19.21242,63.83541],[-19.21252,63.83555],[-19.21254,63.83573],[-19.21239,63.8359],[-19.21237,63.83603],[-19.21244,63.83631],[-19.21249,63.83648],[-19.21259,63.83658],[-19.21275,63.83676],[-19.21276,63.8369],[-19.21288,63.83707],[-19.21304,63.83721],[-19.21329,63.83742],[-19.21354,63.8376],[-19.21367,63.83782],[-19.21371,63.83804],[-19.21392,63.83815],[-19.21421,63.83827],[-19.21445,63.83839],[-19.21484,63.83862],[-19.21537,63.83893],[-19.21563,63.83914],[-19.21572,63.83927],[-19.21583,63.83947],[-19.21601,63.83967],[-19.21618,63.8399],[-19.21633,63.84036],[-19.21641,63.84069],[-19.2165,63.84079],[-19.21647,63.84092],[-19.21639,63.84104],[-19.2164,63.8412],[-19.21651,63.84133],[-19.21667,63.84149],[-19.21701,63.84182],[-19.21723,63.84208],[-19.21727,63.84223],[-19.2173,63.84241],[-19.21729,63.84252],[-19.21717,63.84265],[-19.21726,63.8428],[-19.21734,63.84295],[-19.21733,63.84307],[-19.21711,63.84314],[-19.21689,63.8432],[-19.21676,63.8433],[-19.217,63.8434],[-19.21726,63.84339],[-19.2175,63.8434],[-19.21774,63.84345],[-19.21816,63.84357],[-19.21839,63.84377],[-19.21864,63.84411]]]}}