{"type":"Feature","properties":{"slug":"milford-track","osm_id":1385121,"name":"GW - 07 Milford Track","length_km":53.6,"closed":false,"endpoints":{"start":[-44.93206,167.9302],"end":[-44.68358,167.90251]},"source":"https://www.openstreetmap.org/relation/1385121"},"geometry":{"type":"MultiLineString","coordinates":[[[167.9302,-44.93206],[167.93036,-44.93198],[167.92985,-44.93149],[167.92964,-44.93116],[167.92879,-44.93049],[167.92839,-44.93008],[167.92802,-44.92945],[167.928,-44.92922],[167.92766,-44.92831],[167.92773,-44.92779],[167.92774,-44.92675],[167.92773,-44.92596],[167.92776,-44.92497],[167.92784,-44.92476],[167.9277,-44.92446],[167.92733,-44.92404],[167.92735,-44.92279],[167.92731,-44.92255],[167.92796,-44.92208],[167.92817,-44.92175],[167.92886,-44.92126],[167.92941,-44.92084],[167.92991,-44.92034],[167.93017,-44.92018],[167.9303,-44.92005],[167.93066,-44.91977],[167.93089,-44.91955],[167.93071,-44.9193],[167.93039,-44.91936],[167.92965,-44.91936],[167.9296,-44.91918],[167.92916,-44.91884],[167.92867,-44.91857],[167.92723,-44.91799],[167.92602,-44.91743],[167.92466,-44.91664],[167.92415,-44.91622],[167.92372,-44.9157],[167.92296,-44.91551],[167.92245,-44.91547],[167.92218,-44.91538],[167.92171,-44.91524],[167.92132,-44.91496],[167.9205,-44.91476],[167.91987,-44.91446],[167.91956,-44.91438],[167.91931,-44.9142],[167.91903,-44.91401],[167.91874,-44.91372],[167.9184,-44.91363],[167.91799,-44.91334],[167.91774,-44.91301],[167.91675,-44.91246],[167.91643,-44.91231],[167.9161,-44.91223],[167.91546,-44.91215],[167.9145,-44.91221],[167.91387,-44.91225],[167.91353,-44.91237],[167.91321,-44.91266],[167.91311,-44.91291],[167.91271,-44.91307],[167.91213,-44.9131],[167.91181,-44.91302],[167.91127,-44.91314],[167.91064,-44.913],[167.90992,-44.91273],[167.90983,-44.91248],[167.90964,-44.91223],[167.90971,-44.91197],[167.90987,-44.91176],[167.90995,-44.91126],[167.9105,-44.91069],[167.91064,-44.91053],[167.91083,-44.91023],[167.9112,-44.91002],[167.91154,-44.90991],[167.91184,-44.90973],[167.91205,-44.90965],[167.91247,-44.90908],[167.91256,-44.90792],[167.91262,-44.90719],[167.91252,-44.90686],[167.91257,-44.90631],[167.91246,-44.90562],[167.91231,-44.90547],[167.91206,-44.90538],[167.91189,-44.90541],[167.91168,-44.90537],[167.91154,-44.90529],[167.91094,-44.90527],[167.9108,-44.90512],[167.91024,-44.90492],[167.90977,-44.90469],[167.9095,-44.90459],[167.90911,-44.90432],[167.90872,-44.90408],[167.90827,-44.90396],[167.90735,-44.90374],[167.90696,-44.90364],[167.9067,-44.90366],[167.90648,-44.90353],[167.90573,-44.90329],[167.90504,-44.90311],[167.90458,-44.90301],[167.90426,-44.90287],[167.90403,-44.90272],[167.90387,-44.90254],[167.90351,-44.90239],[167.90306,-44.90224],[167.90257,-44.90214],[167.90224,-44.90194],[167.90196,-44.90168],[167.90179,-44.90148],[167.9018,-44.90122],[167.90172,-44.90102],[167.90175,-44.90075],[167.90183,-44.90056],[167.90193,-44.90034],[167.90215,-44.90012],[167.90226,-44.89986],[167.90265,-44.89942],[167.9027,-44.89905],[167.90261,-44.89867],[167.90245,-44.8984],[167.90231,-44.89821],[167.9021,-44.89811],[167.90184,-44.89808],[167.9015,-44.89804],[167.90126,-44.89799],[167.90089,-44.89763],[167.90077,-44.8974],[167.90038,-44.89692],[167.90009,-44.89662],[167.89969,-44.89616],[167.89941,-44.89584],[167.89904,-44.8954],[167.89873,-44.89521],[167.89861,-44.89505],[167.89805,-44.89456],[167.89764,-44.89418],[167.89743,-44.89396],[167.89706,-44.89372],[167.8969,-44.89358],[167.89659,-44.8934],[167.89632,-44.89315],[167.89607,-44.8929],[167.89588,-44.8927],[167.89561,-44.89226],[167.89556,-44.89203],[167.89552,-44.89182],[167.89521,-44.89126],[167.89494,-44.89111],[167.89475,-44.89089],[167.89455,-44.89068],[167.89451,-44.89041],[167.89466,-44.89017],[167.89465,-44.88988],[167.89443,-44.88961],[167.89385,-44.88913],[167.89355,-44.88889],[167.89317,-44.88875],[167.89296,-44.88863],[167.89278,-44.8885],[167.89254,-44.88831],[167.8921,-44.88822],[167.89151,-44.88801],[167.89119,-44.88793],[167.89086,-44.88793],[167.89052,-44.88797],[167.89004,-44.88786],[167.88945,-44.88749],[167.88904,-44.88736],[167.88869,-44.88734],[167.88842,-44.88724],[167.88804,-44.88719],[167.88757,-44.887],[167.88731,-44.88697],[167.88694,-44.88676],[167.88664,-44.88673],[167.88636,-44.8868],[167.88602,-44.88678],[167.88567,-44.88671],[167.88533,-44.88657],[167.88515,-44.88646],[167.88496,-44.88641],[167.88452,-44.88638],[167.88392,-44.88617],[167.88363,-44.88611],[167.88326,-44.88605],[167.88307,-44.88593],[167.88292,-44.88571],[167.88285,-44.88549],[167.8827,-44.88537],[167.88258,-44.8853],[167.88249,-44.88511],[167.88219,-44.88499],[167.88195,-44.88485],[167.88143,-44.88473],[167.88105,-44.88469],[167.88084,-44.88473],[167.88065,-44.88489],[167.88042,-44.88495],[167.88019,-44.88489],[167.87999,-44.88478],[167.87993,-44.88461],[167.87967,-44.88457],[167.87932,-44.88461],[167.879,-44.88458],[167.87869,-44.88446],[167.87826,-44.88428],[167.87811,-44.88424],[167.87771,-44.88412],[167.87724,-44.88403],[167.87707,-44.884],[167.87657,-44.88398],[167.87624,-44.88399],[167.87583,-44.88395],[167.87551,-44.88399],[167.87522,-44.88403],[167.87503,-44.88415],[167.87504,-44.8843],[167.87453,-44.88428],[167.87428,-44.88435],[167.87392,-44.88428],[167.87375,-44.88424],[167.87351,-44.884],[167.87342,-44.88386],[167.87319,-44.8837],[167.87284,-44.8835],[167.87271,-44.88328],[167.8725,-44.88322],[167.87215,-44.8832],[167.87157,-44.88312],[167.87128,-44.88304],[167.87111,-44.883],[167.87088,-44.88297],[167.87025,-44.88287],[167.86997,-44.88284],[167.86983,-44.88291],[167.86951,-44.88295],[167.86938,-44.88303],[167.86895,-44.88301],[167.86871,-44.88305],[167.86854,-44.88311],[167.86831,-44.88301],[167.86787,-44.88273],[167.86761,-44.88257],[167.86741,-44.88246],[167.86721,-44.88233],[167.86703,-44.88221],[167.86683,-44.88211],[167.86663,-44.88202],[167.86632,-44.88188],[167.86605,-44.88173],[167.8659,-44.88161],[167.86556,-44.88145],[167.86537,-44.88137],[167.86513,-44.88125],[167.86492,-44.88106],[167.86483,-44.88097],[167.86462,-44.88077],[167.86437,-44.88062],[167.86411,-44.88035],[167.86395,-44.8802],[167.86376,-44.87999],[167.8636,-44.8799],[167.86313,-44.87982],[167.8627,-44.87981],[167.86246,-44.87983],[167.86217,-44.87986],[167.8617,-44.87991],[167.86137,-44.87992],[167.8607,-44.87969],[167.86054,-44.87966],[167.86036,-44.87968],[167.85983,-44.8796],[167.85965,-44.87958],[167.85941,-44.87948],[167.8592,-44.87925],[167.85869,-44.87893],[167.85838,-44.87882],[167.85797,-44.87877],[167.85776,-44.87873],[167.85761,-44.87865],[167.85726,-44.8786],[167.85693,-44.87844],[167.85675,-44.87827],[167.8565,-44.87813],[167.85624,-44.87804],[167.85603,-44.87792],[167.8558,-44.87745],[167.85545,-44.8772],[167.85516,-44.87709],[167.85505,-44.87696],[167.85457,-44.8768],[167.85426,-44.87669],[167.85397,-44.87639],[167.85399,-44.87606],[167.85385,-44.87592],[167.8532,-44.87555],[167.85305,-44.87547],[167.85285,-44.87539],[167.85254,-44.87526],[167.85223,-44.8752],[167.85193,-44.87502],[167.85167,-44.8749],[167.85136,-44.87469],[167.85118,-44.87462],[167.851,-44.87463],[167.85075,-44.87446],[167.85068,-44.87428],[167.85042,-44.87418],[167.85019,-44.874],[167.84968,-44.87375],[167.84914,-44.87353],[167.84891,-44.87344],[167.84868,-44.87339],[167.8484,-44.87332],[167.84801,-44.8733],[167.84763,-44.87333],[167.84721,-44.87341],[167.84687,-44.87344],[167.8467,-44.87338],[167.84638,-44.87337],[167.84609,-44.8733],[167.8458,-44.8733],[167.84529,-44.87311],[167.84509,-44.87308],[167.84482,-44.87299],[167.84448,-44.87274],[167.84424,-44.87266],[167.84385,-44.87251],[167.84365,-44.87239],[167.84341,-44.8723],[167.84328,-44.87221],[167.84277,-44.87174],[167.84264,-44.87164],[167.84249,-44.87154],[167.84223,-44.87146],[167.84195,-44.87143],[167.84169,-44.87138],[167.84153,-44.87128],[167.84125,-44.87077],[167.84114,-44.87052],[167.84106,-44.87032],[167.84098,-44.87022],[167.84078,-44.8701],[167.84066,-44.86995],[167.84047,-44.86986],[167.84021,-44.8697],[167.83965,-44.86917],[167.83959,-44.86901],[167.83958,-44.86887],[167.83936,-44.86867],[167.83899,-44.86857],[167.83869,-44.86832],[167.83844,-44.86822],[167.83803,-44.86814],[167.83762,-44.86804],[167.83731,-44.86792],[167.8371,-44.86782],[167.83688,-44.86773],[167.83675,-44.8676],[167.83675,-44.86744],[167.83672,-44.86732],[167.83667,-44.86721],[167.83644,-44.86709],[167.83636,-44.86696],[167.83618,-44.86665],[167.83608,-44.86643],[167.83598,-44.86634],[167.83563,-44.86598],[167.83536,-44.86581],[167.83506,-44.86561],[167.83473,-44.86541],[167.83447,-44.86535],[167.83412,-44.86518],[167.83388,-44.86505],[167.83361,-44.86496],[167.83345,-44.86489],[167.83318,-44.86472],[167.83301,-44.86465],[167.83287,-44.86457],[167.83265,-44.86445],[167.83244,-44.86431],[167.83217,-44.8642],[167.83169,-44.86405],[167.83114,-44.86389],[167.83078,-44.86378],[167.83044,-44.86367],[167.82999,-44.8635],[167.82977,-44.8634],[167.82949,-44.8632],[167.82925,-44.86303],[167.82901,-44.8629],[167.82887,-44.86281],[167.82865,-44.86272],[167.82843,-44.86257],[167.82806,-44.86238],[167.82788,-44.86234],[167.82758,-44.86211],[167.82735,-44.86195],[167.82708,-44.8618],[167.82608,-44.86122],[167.82588,-44.86111],[167.82557,-44.86096],[167.82508,-44.86076],[167.82493,-44.8607],[167.82464,-44.86062],[167.82434,-44.86049],[167.82404,-44.86037],[167.82289,-44.85996],[167.82239,-44.85978],[167.82198,-44.8596],[167.82176,-44.85945],[167.82154,-44.85935],[167.8213,-44.85922],[167.82109,-44.85913],[167.82078,-44.85902],[167.82074,-44.85887],[167.82081,-44.85871],[167.82059,-44.85849],[167.82028,-44.85836],[167.82013,-44.85825],[167.81991,-44.85794],[167.81985,-44.85773],[167.81976,-44.85763],[167.81975,-44.8575],[167.81979,-44.85736],[167.81973,-44.85717],[167.81957,-44.85677],[167.81958,-44.85661],[167.81967,-44.8565],[167.8197,-44.85597],[167.81978,-44.85554],[167.81973,-44.85508],[167.81967,-44.85458],[167.81947,-44.85416],[167.81934,-44.85392],[167.81926,-44.85377],[167.81923,-44.85347],[167.81901,-44.8534],[167.81892,-44.85318],[167.81882,-44.85307],[167.81858,-44.85303],[167.8184,-44.85294],[167.81822,-44.8528],[167.81804,-44.85275],[167.81761,-44.85271],[167.81734,-44.85264],[167.81706,-44.8525],[167.81685,-44.85249],[167.81667,-44.8524],[167.81635,-44.8523],[167.81611,-44.85225],[167.81595,-44.85219],[167.81597,-44.85207],[167.816,-44.85192],[167.81607,-44.85171],[167.81613,-44.85158],[167.8163,-44.85147],[167.81623,-44.85134],[167.81602,-44.85123],[167.81589,-44.85115],[167.81589,-44.85102],[167.81594,-44.85088],[167.81604,-44.85073],[167.81624,-44.85062],[167.81632,-44.85033],[167.81632,-44.85013],[167.8163,-44.85002],[167.816,-44.84979],[167.81555,-44.84956],[167.81545,-44.84946],[167.8152,-44.84929],[167.81502,-44.84918],[167.81495,-44.84902],[167.81482,-44.84887],[167.81462,-44.84858],[167.81439,-44.84839],[167.81422,-44.84823],[167.81404,-44.84805],[167.81382,-44.84803],[167.81372,-44.8479],[167.81363,-44.8477],[167.81361,-44.84755],[167.81356,-44.84727],[167.81347,-44.84698],[167.81348,-44.84662],[167.81344,-44.84651],[167.81317,-44.84627],[167.81285,-44.84602],[167.8126,-44.84585],[167.8125,-44.84573],[167.81243,-44.84557],[167.81192,-44.84565],[167.81173,-44.84565],[167.81159,-44.84558],[167.81157,-44.84539],[167.81147,-44.84524],[167.81136,-44.84517],[167.81134,-44.84503],[167.81138,-44.84492],[167.81127,-44.84471],[167.81124,-44.84443],[167.8112,-44.84432],[167.81108,-44.84424],[167.81077,-44.84425],[167.81049,-44.84424],[167.81017,-44.84409],[167.80996,-44.84403],[167.80977,-44.84404],[167.8096,-44.84401],[167.80939,-44.84396],[167.80923,-44.84389],[167.80898,-44.84387],[167.80872,-44.84386],[167.80848,-44.84378],[167.80811,-44.84376],[167.80788,-44.84377],[167.80744,-44.84382],[167.80708,-44.84389],[167.80678,-44.84383],[167.80652,-44.84354],[167.8063,-44.84325],[167.80611,-44.84299],[167.80598,-44.84282],[167.8058,-44.84251],[167.80561,-44.84219],[167.8054,-44.84191],[167.80525,-44.84165],[167.80509,-44.84141],[167.80485,-44.84119],[167.80445,-44.84067],[167.80427,-44.84049],[167.80415,-44.8403],[167.80391,-44.84018],[167.80373,-44.84011],[167.80354,-44.84008],[167.80338,-44.83998],[167.80307,-44.83997],[167.80292,-44.83993],[167.80269,-44.83968],[167.80246,-44.83959],[167.80229,-44.8395],[167.80223,-44.83939],[167.80229,-44.83928],[167.8024,-44.83908],[167.80266,-44.83885],[167.80283,-44.83879],[167.80287,-44.83868],[167.80275,-44.83851],[167.80259,-44.83836],[167.80231,-44.83813],[167.80211,-44.83805],[167.80193,-44.83794],[167.8017,-44.83788],[167.80121,-44.83804],[167.80106,-44.83813],[167.80074,-44.83812],[167.80051,-44.83804],[167.80026,-44.83788],[167.80002,-44.8378],[167.79961,-44.8375],[167.7994,-44.8374],[167.79923,-44.83733],[167.79906,-44.83717],[167.79884,-44.8371],[167.79847,-44.83683],[167.79829,-44.83682],[167.79813,-44.83684],[167.79805,-44.83669],[167.79788,-44.83682],[167.79774,-44.83686],[167.7977,-44.83697],[167.79739,-44.83697],[167.79747,-44.83673],[167.79762,-44.83648],[167.79789,-44.83617],[167.79772,-44.83601],[167.79758,-44.83593],[167.79757,-44.8358],[167.79763,-44.83569],[167.79735,-44.83542],[167.7972,-44.83526],[167.79685,-44.83491],[167.79665,-44.83471],[167.79653,-44.83455],[167.79628,-44.83429],[167.79605,-44.83404],[167.79585,-44.83382],[167.79571,-44.83368],[167.79554,-44.83354],[167.79531,-44.83338],[167.79515,-44.83327],[167.79502,-44.83314],[167.79502,-44.83291],[167.79489,-44.83277],[167.7949,-44.83258],[167.79509,-44.83248],[167.79509,-44.83237],[167.79495,-44.83226],[167.79475,-44.83227],[167.79448,-44.8322],[167.79429,-44.83207],[167.79419,-44.83197],[167.79398,-44.83173],[167.79382,-44.83156],[167.7936,-44.83129],[167.79336,-44.83089],[167.79329,-44.83064],[167.79315,-44.83018],[167.79307,-44.82992],[167.79288,-44.82979],[167.79287,-44.8295],[167.79293,-44.82927],[167.79316,-44.82906],[167.79326,-44.82887],[167.79311,-44.82873],[167.79291,-44.82863],[167.79282,-44.82851],[167.7926,-44.82841],[167.79247,-44.82808],[167.79233,-44.8278],[167.79216,-44.82763],[167.79187,-44.82748],[167.79162,-44.82739],[167.7914,-44.82726],[167.79111,-44.82715],[167.79089,-44.82699],[167.79076,-44.8268],[167.79042,-44.82636],[167.79035,-44.82621],[167.79019,-44.82617],[167.79002,-44.82601],[167.7898,-44.82574],[167.7895,-44.82542],[167.78925,-44.82522],[167.78895,-44.82494],[167.78867,-44.82491],[167.78808,-44.82463],[167.78799,-44.82447],[167.78771,-44.82445],[167.78761,-44.82432],[167.78755,-44.82417],[167.78741,-44.82401],[167.7873,-44.82356],[167.78718,-44.82348],[167.78707,-44.82331],[167.78665,-44.82307],[167.78652,-44.82301],[167.78633,-44.82293],[167.78602,-44.82277],[167.78569,-44.82268],[167.78554,-44.8226],[167.78538,-44.82243],[167.7851,-44.82228],[167.78493,-44.82216],[167.78491,-44.82198],[167.78508,-44.8218],[167.78512,-44.82156],[167.78503,-44.82136],[167.78504,-44.82123],[167.78517,-44.82111],[167.78525,-44.82101],[167.78516,-44.82075],[167.78514,-44.8206],[167.78512,-44.82049],[167.78507,-44.82027],[167.78508,-44.82011],[167.78508,-44.81988],[167.78524,-44.81947],[167.78507,-44.8193],[167.78514,-44.81914],[167.78502,-44.81901],[167.78504,-44.81881],[167.78507,-44.8186],[167.78517,-44.81847],[167.78503,-44.81831],[167.78495,-44.81821],[167.78487,-44.81809],[167.78505,-44.81795],[167.78509,-44.81784],[167.7853,-44.81765],[167.7853,-44.81742],[167.78524,-44.8173],[167.78527,-44.81715],[167.78536,-44.81706],[167.78518,-44.81692],[167.7851,-44.81655],[167.78514,-44.81615],[167.78538,-44.81592],[167.78553,-44.81562],[167.78551,-44.81511],[167.7853,-44.81501],[167.78527,-44.8148],[167.78556,-44.8146],[167.78567,-44.81444],[167.78559,-44.81415],[167.78561,-44.81399],[167.78583,-44.81392],[167.78594,-44.81384],[167.78591,-44.81367],[167.78562,-44.81336],[167.78522,-44.81296],[167.78482,-44.81263],[167.78429,-44.81221],[167.78402,-44.812],[167.78381,-44.81186],[167.78354,-44.81179],[167.78328,-44.81161],[167.78315,-44.81133],[167.78287,-44.81096],[167.78266,-44.81051],[167.78262,-44.81033],[167.78268,-44.81007],[167.78275,-44.80987],[167.78274,-44.80965],[167.78254,-44.8095],[167.78218,-44.80945],[167.78187,-44.80933],[167.78155,-44.80927],[167.7811,-44.80921],[167.78091,-44.80924],[167.78063,-44.80921],[167.78041,-44.80922],[167.78012,-44.80931],[167.77992,-44.80946],[167.77958,-44.80949],[167.77927,-44.80945],[167.77902,-44.80939],[167.77879,-44.80931],[167.77847,-44.80929],[167.77792,-44.80907],[167.77754,-44.80901],[167.77724,-44.80907],[167.77672,-44.80904],[167.7765,-44.80903],[167.77615,-44.80913],[167.77584,-44.80914],[167.77533,-44.80912],[167.77506,-44.80916],[167.77487,-44.80923],[167.77461,-44.80928],[167.77429,-44.80935],[167.77398,-44.80911],[167.77371,-44.8089],[167.77414,-44.80851],[167.77457,-44.80807],[167.77457,-44.80793],[167.77439,-44.8077],[167.77416,-44.80757],[167.77392,-44.80756],[167.77367,-44.80765],[167.77357,-44.80782],[167.77342,-44.80785],[167.77317,-44.80768],[167.77313,-44.8075],[167.77324,-44.80729],[167.77355,-44.80712],[167.7738,-44.80685],[167.77397,-44.8066],[167.77424,-44.80645],[167.77397,-44.80643],[167.77377,-44.80651],[167.77353,-44.80661],[167.77312,-44.80663],[167.7728,-44.80667],[167.77228,-44.80667],[167.77172,-44.80681],[167.77132,-44.80681],[167.77111,-44.80679],[167.77087,-44.80685],[167.77063,-44.80687],[167.77023,-44.80695],[167.76962,-44.80706],[167.76902,-44.80712],[167.76833,-44.80708],[167.76802,-44.80708],[167.76779,-44.80707],[167.76761,-44.80704],[167.7677,-44.80694],[167.76785,-44.80683],[167.76785,-44.80671],[167.7679,-44.80658],[167.76771,-44.80655],[167.76782,-44.80646],[167.76808,-44.80643],[167.76827,-44.80638],[167.76859,-44.80623],[167.7688,-44.80615],[167.76904,-44.80603],[167.76926,-44.80595],[167.76957,-44.80582],[167.76979,-44.80569],[167.76993,-44.80547],[167.77001,-44.80534],[167.77032,-44.80515],[167.77048,-44.80506],[167.7707,-44.80497],[167.77048,-44.80495],[167.77016,-44.80496],[167.76981,-44.805],[167.7696,-44.80506],[167.7695,-44.80516],[167.76929,-44.80524],[167.76894,-44.80529],[167.76877,-44.8053],[167.76859,-44.80535],[167.76833,-44.8054],[167.76817,-44.80536],[167.76842,-44.80524],[167.76867,-44.80508],[167.76887,-44.80497],[167.76858,-44.80493],[167.76825,-44.80502],[167.76792,-44.80503],[167.76759,-44.80509],[167.76734,-44.8051],[167.76697,-44.80506],[167.76669,-44.80512],[167.76644,-44.8052],[167.76623,-44.80524],[167.76603,-44.80519],[167.76579,-44.80507],[167.76552,-44.80507],[167.76526,-44.80513],[167.76493,-44.80526],[167.76469,-44.80534],[167.76406,-44.80524],[167.76387,-44.80518],[167.76415,-44.80511],[167.76437,-44.80512],[167.76457,-44.80509],[167.76432,-44.80496],[167.76405,-44.80487],[167.76385,-44.80487],[167.76401,-44.80479],[167.76428,-44.80473],[167.76449,-44.80474],[167.76433,-44.80464],[167.76417,-44.8046],[167.76397,-44.80457],[167.76364,-44.8045],[167.76344,-44.80447],[167.76321,-44.80444],[167.76306,-44.80448],[167.76325,-44.80433],[167.76347,-44.80429],[167.76373,-44.80423],[167.76391,-44.80426],[167.76413,-44.80429],[167.76434,-44.80418],[167.7646,-44.80412],[167.76496,-44.80404],[167.76521,-44.80393],[167.76534,-44.80383],[167.76554,-44.80379],[167.76576,-44.80375],[167.76593,-44.80369],[167.76604,-44.80354],[167.76611,-44.80344],[167.766,-44.80323],[167.76604,-44.80302],[167.76595,-44.80287],[167.76589,-44.80273],[167.76583,-44.80254],[167.76602,-44.80254],[167.76639,-44.80271],[167.76655,-44.80277],[167.76687,-44.80279],[167.76717,-44.80277],[167.76737,-44.80271],[167.76762,-44.80262],[167.76795,-44.80254],[167.76787,-44.80277],[167.76795,-44.80294],[167.76817,-44.80286],[167.7682,-44.80271],[167.76838,-44.80261],[167.76855,-44.8027],[167.76878,-44.80272],[167.76893,-44.80259],[167.76917,-44.80247],[167.76942,-44.80244],[167.76968,-44.80244],[167.76985,-44.80244],[167.77001,-44.80238],[167.77036,-44.80243],[167.77059,-44.80237],[167.77077,-44.80248],[167.7712,-44.80237],[167.77178,-44.80247],[167.77194,-44.80257],[167.77208,-44.80269],[167.77216,-44.8028],[167.77214,-44.80304],[167.77229,-44.80317],[167.77251,-44.80317],[167.77273,-44.80306],[167.77292,-44.80288],[167.77315,-44.80287],[167.77334,-44.80281],[167.77365,-44.80268],[167.77394,-44.80274],[167.77413,-44.80279],[167.77445,-44.80273],[167.77466,-44.80269],[167.77479,-44.80247],[167.77521,-44.80233],[167.77547,-44.80233],[167.7757,-44.80215],[167.77608,-44.80196],[167.77636,-44.80182],[167.77658,-44.80163],[167.77675,-44.80135],[167.77672,-44.80112],[167.77648,-44.80099],[167.77661,-44.80067],[167.7766,-44.80054],[167.77668,-44.80038],[167.77679,-44.80024],[167.77704,-44.79998],[167.77732,-44.79986],[167.7775,-44.79985],[167.77794,-44.79973],[167.77817,-44.79931],[167.77833,-44.79917],[167.77845,-44.79907],[167.7784,-44.79875],[167.7782,-44.79861],[167.77864,-44.79849],[167.77881,-44.7984],[167.77897,-44.79825],[167.77963,-44.79794],[167.77861,-44.79798],[167.77843,-44.798],[167.77856,-44.79792],[167.77869,-44.79783],[167.77854,-44.7978],[167.7787,-44.7977],[167.77853,-44.79766],[167.77833,-44.7976],[167.77816,-44.79762],[167.77798,-44.79756],[167.77784,-44.79747],[167.77803,-44.79745],[167.77814,-44.79737],[167.77838,-44.79735],[167.77852,-44.7973],[167.7787,-44.79726],[167.77892,-44.79728],[167.77899,-44.79715],[167.77913,-44.79707],[167.77885,-44.79714],[167.77853,-44.79706],[167.77881,-44.79701],[167.77892,-44.7969],[167.77917,-44.79691],[167.77917,-44.79673],[167.77921,-44.79662],[167.77954,-44.79646],[167.77965,-44.79632],[167.77976,-44.79622],[167.7797,-44.79607],[167.77983,-44.79599],[167.78005,-44.79581],[167.78016,-44.79572],[167.78031,-44.79566],[167.78043,-44.7955],[167.78043,-44.79534],[167.7807,-44.7951],[167.78082,-44.79495],[167.7811,-44.79476],[167.78148,-44.79466],[167.78173,-44.79454],[167.78192,-44.79428],[167.78218,-44.79425],[167.78256,-44.79433],[167.78253,-44.79415],[167.78271,-44.79411],[167.78287,-44.79404],[167.78293,-44.79383],[167.78296,-44.79367],[167.7833,-44.79321],[167.78356,-44.79287],[167.78372,-44.79273],[167.78407,-44.79262],[167.78422,-44.79264],[167.78444,-44.79256],[167.78436,-44.79245],[167.78427,-44.79226],[167.78407,-44.79217],[167.78402,-44.79204],[167.78413,-44.79194],[167.78436,-44.79182],[167.78435,-44.79162],[167.78424,-44.79155],[167.78397,-44.79149],[167.78402,-44.79139],[167.78411,-44.79123],[167.7843,-44.79125],[167.78435,-44.79098],[167.78456,-44.79091],[167.78464,-44.79073],[167.78459,-44.7906],[167.78456,-44.79046],[167.78443,-44.79039],[167.78424,-44.79034],[167.78397,-44.79034],[167.78372,-44.79031],[167.78347,-44.79028],[167.78322,-44.79035],[167.78284,-44.79043],[167.78261,-44.79039],[167.78231,-44.79039],[167.78201,-44.79027],[167.78168,-44.7902],[167.78133,-44.79019],[167.78114,-44.79026],[167.78082,-44.79035],[167.78062,-44.79045],[167.78013,-44.79049],[167.77988,-44.79053],[167.77969,-44.79037],[167.77933,-44.79038],[167.77921,-44.79048],[167.77911,-44.79071],[167.77885,-44.79083],[167.77865,-44.79082],[167.77821,-44.79113],[167.77769,-44.79123],[167.77736,-44.79136],[167.77708,-44.79156],[167.77697,-44.79181],[167.77681,-44.79196],[167.77671,-44.79218],[167.77693,-44.79224],[167.77672,-44.7923],[167.77659,-44.7924],[167.77652,-44.79253],[167.77643,-44.79262],[167.77628,-44.7927],[167.77601,-44.79274],[167.77572,-44.79283],[167.77552,-44.79291],[167.77541,-44.79303],[167.77521,-44.79317],[167.77502,-44.7934],[167.77472,-44.79356],[167.77459,-44.79366],[167.7746,-44.79378],[167.77449,-44.79388],[167.77434,-44.79392],[167.7744,-44.79411],[167.77425,-44.79423],[167.774,-44.7943],[167.77379,-44.79436],[167.77343,-44.7945],[167.77315,-44.79452],[167.77295,-44.7945],[167.77259,-44.79445],[167.77213,-44.79451],[167.77196,-44.79448],[167.77153,-44.79434],[167.77123,-44.79428],[167.77099,-44.79435],[167.77088,-44.79444],[167.77086,-44.79466],[167.7707,-44.79487],[167.77045,-44.79532],[167.77013,-44.7955],[167.76991,-44.79553],[167.7697,-44.79551],[167.76946,-44.79544],[167.7691,-44.79542],[167.76877,-44.79536],[167.76849,-44.79539],[167.76806,-44.79552],[167.76784,-44.79562],[167.76748,-44.79568],[167.76688,-44.79566],[167.76656,-44.79571],[167.76621,-44.7959],[167.76618,-44.79606],[167.76572,-44.79616],[167.76558,-44.79608],[167.76534,-44.7961],[167.76513,-44.79589],[167.76496,-44.79586],[167.76469,-44.79571],[167.76454,-44.7958],[167.76426,-44.79579],[167.76399,-44.79592],[167.76336,-44.79593],[167.76317,-44.79588],[167.7628,-44.79578],[167.76237,-44.79575],[167.76182,-44.79562],[167.76145,-44.79558],[167.76125,-44.79549],[167.76101,-44.79553],[167.76075,-44.79556],[167.75993,-44.79549],[167.75961,-44.79554],[167.75919,-44.79538],[167.75905,-44.79508],[167.75888,-44.79493],[167.75887,-44.79478],[167.75877,-44.79465],[167.75849,-44.79458],[167.7584,-44.79442],[167.75824,-44.79436],[167.75806,-44.79411],[167.75799,-44.79422],[167.75808,-44.79434],[167.75792,-44.79439],[167.75768,-44.79436],[167.7575,-44.79414],[167.75737,-44.79403],[167.75724,-44.79385],[167.75687,-44.79397],[167.75681,-44.79386],[167.75677,-44.79375],[167.75659,-44.79378],[167.75633,-44.79381],[167.7563,-44.79369],[167.75635,-44.79353],[167.75633,-44.79333],[167.75614,-44.79339],[167.75598,-44.79333],[167.75582,-44.79334],[167.75582,-44.79345],[167.75554,-44.79344],[167.75541,-44.79336],[167.75548,-44.79309],[167.75557,-44.79298],[167.75538,-44.793],[167.75517,-44.79308],[167.75504,-44.79314],[167.75514,-44.79293],[167.75515,-44.79277],[167.7554,-44.79257],[167.75518,-44.79256],[167.75491,-44.79266],[167.75481,-44.79251],[167.7549,-44.79236],[167.75499,-44.79215],[167.75503,-44.79197],[167.75504,-44.79175],[167.75495,-44.79156],[167.75479,-44.79151],[167.75462,-44.79143],[167.75448,-44.79139],[167.75428,-44.79128],[167.75431,-44.79116],[167.75446,-44.79106],[167.75471,-44.791],[167.75485,-44.79085],[167.75497,-44.79059],[167.7552,-44.79035],[167.7552,-44.79024],[167.75526,-44.79003],[167.75521,-44.78984],[167.75509,-44.78964],[167.75503,-44.78948],[167.75509,-44.78935],[167.75507,-44.78923],[167.7551,-44.78891],[167.75505,-44.78878],[167.75475,-44.78797],[167.75475,-44.78772],[167.75465,-44.7876],[167.75466,-44.78748],[167.75475,-44.78718],[167.75461,-44.78689],[167.75449,-44.78666],[167.75439,-44.78639],[167.75429,-44.78629],[167.75398,-44.78613],[167.75373,-44.78601],[167.75349,-44.7859],[167.75328,-44.78583],[167.75308,-44.78573],[167.75292,-44.78558],[167.7529,-44.78545],[167.75291,-44.78529],[167.75286,-44.78507],[167.75283,-44.78482],[167.75275,-44.78459],[167.75267,-44.78444],[167.75261,-44.78421],[167.75271,-44.78405],[167.75291,-44.78392],[167.75304,-44.78368],[167.75293,-44.78341],[167.75291,-44.78327],[167.75302,-44.78313],[167.75318,-44.78298],[167.75336,-44.78272],[167.75328,-44.7826],[167.75314,-44.78249],[167.753,-44.78229],[167.75271,-44.78207],[167.75264,-44.78191],[167.7526,-44.78169],[167.75259,-44.78143],[167.75276,-44.78125],[167.75305,-44.78104],[167.7534,-44.78091],[167.75387,-44.7808],[167.75424,-44.78066],[167.75454,-44.78045],[167.75469,-44.7804],[167.75484,-44.78018],[167.75498,-44.78002],[167.75496,-44.77985],[167.75504,-44.77952],[167.75506,-44.77929],[167.75515,-44.77906],[167.75517,-44.77889],[167.75521,-44.77876],[167.75532,-44.77845],[167.75537,-44.77828],[167.75559,-44.7781],[167.75575,-44.77792],[167.75581,-44.77777],[167.75603,-44.77761],[167.75603,-44.77741],[167.7561,-44.77727],[167.7563,-44.77712],[167.75653,-44.77702],[167.75657,-44.77686],[167.75664,-44.77665],[167.7568,-44.77634],[167.75673,-44.77612],[167.75673,-44.77593],[167.75686,-44.77569],[167.75707,-44.77541],[167.75713,-44.77517],[167.75727,-44.77492],[167.75751,-44.77475],[167.75778,-44.77459],[167.7581,-44.77448],[167.75848,-44.77437],[167.7587,-44.77428],[167.75882,-44.77417],[167.75891,-44.77401],[167.75914,-44.77375],[167.75926,-44.77364],[167.75951,-44.77358],[167.75964,-44.77342],[167.7598,-44.77336],[167.75985,-44.77313],[167.76016,-44.77299],[167.76034,-44.77291],[167.76057,-44.77269],[167.76065,-44.77245],[167.76078,-44.77222],[167.761,-44.77206],[167.76121,-44.77194],[167.76129,-44.77174],[167.76145,-44.77159],[167.76165,-44.77135],[167.76166,-44.77121],[167.76164,-44.77103],[167.7619,-44.77087],[167.76215,-44.77072],[167.76236,-44.77048],[167.76258,-44.77034],[167.76291,-44.77021],[167.76307,-44.77002],[167.76324,-44.76985],[167.76359,-44.76965],[167.76377,-44.76954],[167.76414,-44.76943],[167.7643,-44.76932],[167.76443,-44.76908],[167.76448,-44.76879],[167.76443,-44.76862],[167.76448,-44.76844],[167.76459,-44.76834],[167.76479,-44.7681],[167.76524,-44.76798],[167.76537,-44.76775],[167.76558,-44.76763],[167.76579,-44.76757],[167.76601,-44.76738],[167.76617,-44.76735],[167.76683,-44.76735],[167.76722,-44.76743],[167.7675,-44.76742],[167.76774,-44.76756],[167.7681,-44.76756],[167.76834,-44.76739],[167.76878,-44.76725],[167.76963,-44.76721],[167.76988,-44.76712],[167.77024,-44.7671],[167.77041,-44.76697],[167.77062,-44.76692],[167.7711,-44.76694],[167.7714,-44.76689],[167.77193,-44.76694],[167.77225,-44.76694],[167.7732,-44.767],[167.7737,-44.76688],[167.77414,-44.76668],[167.77441,-44.76636],[167.77466,-44.76611],[167.77498,-44.76608],[167.77534,-44.76597],[167.77555,-44.76591],[167.77623,-44.76601],[167.77667,-44.76598],[167.77723,-44.76592],[167.77783,-44.76597],[167.77811,-44.76584],[167.77832,-44.76573],[167.77869,-44.7655],[167.77912,-44.76538],[167.77947,-44.76541],[167.7802,-44.76522],[167.78053,-44.765],[167.78095,-44.76484],[167.78129,-44.76463],[167.78156,-44.7644],[167.78159,-44.7641],[167.78167,-44.76392],[167.78207,-44.76363],[167.78241,-44.7634],[167.78273,-44.76319],[167.78315,-44.76295],[167.78344,-44.76276],[167.78378,-44.76254],[167.7839,-44.76234],[167.78432,-44.76209],[167.78442,-44.76189],[167.78479,-44.7615],[167.78511,-44.76122],[167.78531,-44.76087],[167.78544,-44.76055],[167.78562,-44.76038],[167.78571,-44.76022],[167.78598,-44.75984],[167.78614,-44.75958],[167.78632,-44.75923],[167.78647,-44.75888],[167.78668,-44.75847],[167.7867,-44.75815],[167.78678,-44.75789],[167.78689,-44.7577],[167.78678,-44.7572],[167.78681,-44.75677],[167.78688,-44.7565],[167.78702,-44.75625],[167.78697,-44.75597],[167.78705,-44.75549],[167.78718,-44.75525],[167.78721,-44.75474],[167.78734,-44.75456],[167.78724,-44.75424],[167.78682,-44.75388],[167.78661,-44.75348],[167.78679,-44.75319],[167.78693,-44.75272],[167.78688,-44.75257],[167.78689,-44.75215],[167.7869,-44.75175],[167.78688,-44.7515],[167.78689,-44.75125],[167.78674,-44.75087],[167.78688,-44.75078],[167.78695,-44.75066],[167.78674,-44.75032],[167.7868,-44.7501],[167.7867,-44.7497],[167.78678,-44.7494],[167.78683,-44.74898],[167.78685,-44.74846],[167.78692,-44.74803],[167.78693,-44.7476],[167.78688,-44.7474],[167.78717,-44.74691],[167.78734,-44.74649],[167.78735,-44.74619],[167.78759,-44.7459],[167.78777,-44.74574],[167.78788,-44.74548],[167.78791,-44.74502],[167.78815,-44.74459],[167.78843,-44.7445],[167.78864,-44.74435],[167.78894,-44.74403],[167.78933,-44.74382],[167.78957,-44.74371],[167.78988,-44.74348],[167.79007,-44.74332],[167.79075,-44.74294],[167.79101,-44.74275],[167.79148,-44.74258],[167.79173,-44.74254],[167.79195,-44.74226],[167.79194,-44.74194],[167.79227,-44.7415],[167.79287,-44.74103],[167.79314,-44.74096],[167.79364,-44.74069],[167.79412,-44.74028],[167.79454,-44.74021],[167.79481,-44.74025],[167.79488,-44.74014],[167.79504,-44.74015],[167.79545,-44.74],[167.79568,-44.73992],[167.79593,-44.73989],[167.79619,-44.73986],[167.79631,-44.73959],[167.79636,-44.7392],[167.79642,-44.73908],[167.7965,-44.73889],[167.79682,-44.73865],[167.79704,-44.73847],[167.79714,-44.73826],[167.79733,-44.73809],[167.79799,-44.73815],[167.79852,-44.73813],[167.79898,-44.73834],[167.79953,-44.73842],[167.80011,-44.73834],[167.80041,-44.73813],[167.80057,-44.7381],[167.80091,-44.73786],[167.80118,-44.73785],[167.80142,-44.73775],[167.80167,-44.73774],[167.80182,-44.73779],[167.80197,-44.73785],[167.80211,-44.73779],[167.80227,-44.7378],[167.80299,-44.73786],[167.80339,-44.73784],[167.80358,-44.73784],[167.80364,-44.73767],[167.80382,-44.73748],[167.80427,-44.73744],[167.80434,-44.73721],[167.80449,-44.73707],[167.80422,-44.73687],[167.80419,-44.7367],[167.80379,-44.73668],[167.80326,-44.73663],[167.80277,-44.73652],[167.80257,-44.73657],[167.80206,-44.73645],[167.80159,-44.73628],[167.80142,-44.73604],[167.8014,-44.73588],[167.80147,-44.73557],[167.80117,-44.73538],[167.80114,-44.73517],[167.8012,-44.7349],[167.80112,-44.73468],[167.80073,-44.73447],[167.80068,-44.73423],[167.80029,-44.73376],[167.79994,-44.73359],[167.79964,-44.73329],[167.79974,-44.73294],[167.79955,-44.73278],[167.7994,-44.73274],[167.79914,-44.73266],[167.79907,-44.73254],[167.7992,-44.73248],[167.79921,-44.73232],[167.79903,-44.73213],[167.79936,-44.73209],[167.79962,-44.73218],[167.7998,-44.73218],[167.80006,-44.73215],[167.80051,-44.73201],[167.80095,-44.73203],[167.80144,-44.73213],[167.80188,-44.73212],[167.80235,-44.73212],[167.80277,-44.73199],[167.80352,-44.73179],[167.80422,-44.73183],[167.80458,-44.73197],[167.80525,-44.73207],[167.80538,-44.73194],[167.80583,-44.73184],[167.80652,-44.73195],[167.80673,-44.7319],[167.80744,-44.73174],[167.80779,-44.73175],[167.80811,-44.73163],[167.80849,-44.73166],[167.80939,-44.73167],[167.80979,-44.73172],[167.81021,-44.73175],[167.81074,-44.73172],[167.81115,-44.73181],[167.81129,-44.73169],[167.81171,-44.73168],[167.81197,-44.73174],[167.81217,-44.73164],[167.81242,-44.7316],[167.81258,-44.73168],[167.81283,-44.73168],[167.81332,-44.73182],[167.81394,-44.73187],[167.81418,-44.7318],[167.81469,-44.73171],[167.81504,-44.73148],[167.81521,-44.73145],[167.81544,-44.73125],[167.81567,-44.7312],[167.81575,-44.73132],[167.81607,-44.73143],[167.81681,-44.73132],[167.81808,-44.73109],[167.81851,-44.73097],[167.81914,-44.73082],[167.81997,-44.73048],[167.81989,-44.73009],[167.82021,-44.7297],[167.82057,-44.72961],[167.82077,-44.72947],[167.82101,-44.72942],[167.821,-44.72922],[167.82133,-44.72914],[167.82148,-44.72916],[167.82172,-44.72914],[167.82218,-44.729],[167.82266,-44.72885],[167.82285,-44.72851],[167.82332,-44.72836],[167.82362,-44.72798],[167.82399,-44.72776],[167.82432,-44.72707],[167.82471,-44.72681],[167.82504,-44.72661],[167.82559,-44.72653],[167.82644,-44.72645],[167.82732,-44.72615],[167.82755,-44.72611],[167.82793,-44.72613],[167.82816,-44.72629],[167.82846,-44.72628],[167.82904,-44.72683],[167.82948,-44.72674],[167.83016,-44.72677],[167.83033,-44.72694],[167.83077,-44.72702],[167.83124,-44.72691],[167.83146,-44.72674],[167.8318,-44.72669],[167.83217,-44.72655],[167.83264,-44.72668],[167.83298,-44.72642],[167.8333,-44.72638],[167.83374,-44.72629],[167.83415,-44.72624],[167.83431,-44.72606],[167.83464,-44.7259],[167.83537,-44.72588],[167.83589,-44.72583],[167.83642,-44.72601],[167.83668,-44.72596],[167.83705,-44.72569],[167.83738,-44.7255],[167.83751,-44.72538],[167.83841,-44.72513],[167.83853,-44.72489],[167.83874,-44.7247],[167.83899,-44.72455],[167.83909,-44.72433],[167.83934,-44.72423],[167.83968,-44.724],[167.8401,-44.72377],[167.84042,-44.72354],[167.84066,-44.72351],[167.84123,-44.72329],[167.84145,-44.72324],[167.84198,-44.72316],[167.84223,-44.72298],[167.8424,-44.72284],[167.84249,-44.72258],[167.84261,-44.72235],[167.8429,-44.72214],[167.84292,-44.72182],[167.84278,-44.7216],[167.84265,-44.72125],[167.84245,-44.72103],[167.8424,-44.72065],[167.84283,-44.72048],[167.84334,-44.72011],[167.84342,-44.71996],[167.8434,-44.71965],[167.8436,-44.71935],[167.84346,-44.71916],[167.8434,-44.71898],[167.84352,-44.71883],[167.84355,-44.71859],[167.84364,-44.71847],[167.84411,-44.71836],[167.84423,-44.71818],[167.84454,-44.71779],[167.84491,-44.71776],[167.84503,-44.71757],[167.84504,-44.71738],[167.8455,-44.71728],[167.84593,-44.71709],[167.84621,-44.71692],[167.84636,-44.71654],[167.84637,-44.71623],[167.84648,-44.71587],[167.84668,-44.7157],[167.84693,-44.71557],[167.84722,-44.71546],[167.84744,-44.71536],[167.84742,-44.71512],[167.84735,-44.71488],[167.84726,-44.71462],[167.84734,-44.71438],[167.84738,-44.71426],[167.84739,-44.71409],[167.84739,-44.71391],[167.84733,-44.71358],[167.84733,-44.71341],[167.84726,-44.71324],[167.84705,-44.71317],[167.84688,-44.71295],[167.8471,-44.71272],[167.84711,-44.71253],[167.84705,-44.71237],[167.84693,-44.71222],[167.84685,-44.7119],[167.84667,-44.71182],[167.84658,-44.71149],[167.84631,-44.71127],[167.84641,-44.7111],[167.84644,-44.71064],[167.84622,-44.71042],[167.84637,-44.71018],[167.84675,-44.71003],[167.8471,-44.70966],[167.84728,-44.70941],[167.84789,-44.7088],[167.84766,-44.70855],[167.84776,-44.70812],[167.84797,-44.70794],[167.8484,-44.70792],[167.84897,-44.70769],[167.84943,-44.70747],[167.84956,-44.70713],[167.84977,-44.70688],[167.85016,-44.70672],[167.85075,-44.70658],[167.85143,-44.7063],[167.85198,-44.70595],[167.85222,-44.70599],[167.85261,-44.70602],[167.85291,-44.70601],[167.85326,-44.70612],[167.85353,-44.70626],[167.854,-44.70624],[167.85416,-44.70609],[167.85431,-44.70603],[167.85487,-44.70606],[167.85523,-44.70593],[167.85559,-44.70592],[167.8558,-44.70601],[167.85621,-44.70569],[167.85645,-44.70576],[167.85651,-44.70562],[167.85667,-44.70567],[167.85704,-44.70584],[167.85737,-44.7059],[167.85757,-44.70583],[167.85786,-44.70584],[167.85811,-44.70574],[167.85831,-44.70566],[167.85846,-44.70576],[167.85873,-44.70587],[167.85881,-44.70569],[167.85896,-44.70562],[167.85924,-44.70563],[167.85959,-44.70576],[167.85994,-44.70567],[167.8602,-44.70578],[167.86053,-44.70565],[167.86076,-44.70549],[167.86115,-44.70567],[167.86145,-44.70567],[167.8618,-44.70561],[167.86229,-44.70539],[167.86361,-44.70451],[167.86649,-44.70266],[167.8664,-44.7023],[167.8664,-44.70214],[167.86675,-44.70186],[167.86708,-44.70165],[167.86755,-44.70154],[167.86784,-44.70132],[167.8682,-44.70096],[167.86841,-44.70067],[167.86889,-44.70058],[167.86914,-44.70033],[167.86929,-44.70023],[167.86966,-44.69986],[167.86984,-44.6996],[167.8705,-44.69915],[167.87088,-44.69889],[167.87135,-44.69866],[167.87163,-44.69861],[167.872,-44.69846],[167.87252,-44.69803],[167.87253,-44.69788],[167.87274,-44.69757],[167.8729,-44.69743],[167.87302,-44.69734],[167.8733,-44.69725],[167.87351,-44.69709],[167.8739,-44.69692],[167.87396,-44.69679],[167.8742,-44.69675],[167.87443,-44.69659],[167.87476,-44.69642],[167.87563,-44.69598],[167.87608,-44.69561],[167.87634,-44.69562],[167.87685,-44.69535],[167.87735,-44.6949],[167.87806,-44.69441],[167.87908,-44.69379],[167.87952,-44.69367],[167.87979,-44.6934],[167.88038,-44.69314],[167.88058,-44.69292],[167.88094,-44.69264],[167.88132,-44.69239],[167.88235,-44.69221],[167.88272,-44.69195],[167.88293,-44.69169],[167.88341,-44.69151],[167.88369,-44.69155],[167.88439,-44.69174],[167.88484,-44.69169],[167.88555,-44.69151],[167.88609,-44.69119],[167.88656,-44.69099],[167.88683,-44.69095],[167.88791,-44.69106],[167.88814,-44.69083],[167.88881,-44.69023],[167.8895,-44.68981],[167.89015,-44.68933],[167.89025,-44.68898],[167.89042,-44.68862],[167.89065,-44.68847],[167.8908,-44.68828],[167.89158,-44.6883],[167.89177,-44.68821],[167.89205,-44.6882],[167.89267,-44.68792],[167.89382,-44.68767],[167.89395,-44.6873],[167.89394,-44.68669],[167.89413,-44.68634],[167.89449,-44.6861],[167.89494,-44.68593],[167.89531,-44.68598],[167.89554,-44.68591],[167.89665,-44.68563],[167.89742,-44.68543],[167.89815,-44.68532],[167.89904,-44.68507],[167.89984,-44.68479],[167.90031,-44.68473],[167.90075,-44.68457],[167.90128,-44.68429],[167.90155,-44.68415],[167.90174,-44.68407],[167.90204,-44.68386],[167.90234,-44.68365],[167.90251,-44.68358]]]}}