{"type":"Feature","properties":{"slug":"mount-fuji-yoshida-trail","osm_id":10123477,"name":"吉田口登山道","length_km":16.8,"closed":false,"endpoints":{"start":[35.47245,138.79611],"end":[35.36928,138.73911]},"source":"https://www.openstreetmap.org/relation/10123477"},"geometry":{"type":"MultiLineString","coordinates":[[[138.79611,35.47245],[138.79592,35.47224],[138.7958,35.4721],[138.79438,35.47038],[138.79399,35.46992],[138.79385,35.46976],[138.79325,35.46908],[138.79246,35.46872],[138.79207,35.46864],[138.79185,35.46861],[138.79143,35.46862],[138.79081,35.46871],[138.79032,35.46875],[138.78985,35.46867],[138.78872,35.46835],[138.78835,35.46808],[138.78548,35.46488],[138.78299,35.46211],[138.78259,35.46145],[138.78138,35.45871],[138.78106,35.45807],[138.78031,35.45691],[138.77948,35.45548],[138.77869,35.45406],[138.77829,35.45341],[138.77789,35.45271],[138.77617,35.44966],[138.77401,35.44602],[138.7734,35.44504],[138.77251,35.44403],[138.77135,35.44269],[138.77062,35.44186],[138.77049,35.44173],[138.77034,35.44164],[138.77017,35.44157],[138.76999,35.44152],[138.77015,35.44166],[138.76969,35.44151],[138.76937,35.44137],[138.76907,35.4412],[138.76854,35.44089],[138.7683,35.44077],[138.76792,35.44055],[138.7678,35.4405],[138.7676,35.44031],[138.76742,35.44014],[138.7672,35.43988],[138.76701,35.43963],[138.76686,35.4394],[138.76678,35.43925],[138.76664,35.43906],[138.76639,35.4387],[138.76615,35.4383],[138.76605,35.43809],[138.76592,35.43774],[138.76584,35.43721],[138.76578,35.43676],[138.76566,35.43595],[138.76559,35.43577],[138.76524,35.4351],[138.76506,35.43481],[138.76488,35.43446],[138.76472,35.43415],[138.76443,35.4337],[138.76419,35.43326],[138.76396,35.43287],[138.76378,35.43252],[138.76359,35.43219],[138.76339,35.43184],[138.76313,35.43145],[138.76278,35.43093],[138.76265,35.43075],[138.76232,35.43021],[138.76213,35.42994],[138.76198,35.42972],[138.76163,35.42919],[138.76107,35.4283],[138.76103,35.42807],[138.76099,35.42777],[138.76104,35.42735],[138.76112,35.42669],[138.76109,35.42641],[138.76088,35.42601],[138.76063,35.42556],[138.7606,35.42526],[138.76058,35.4248],[138.76059,35.42424],[138.76065,35.42341],[138.76066,35.42313],[138.76068,35.42259],[138.76069,35.42194],[138.76067,35.42172],[138.76056,35.4215],[138.76036,35.42123],[138.76018,35.42099],[138.75994,35.42071],[138.75964,35.4205],[138.75946,35.42036],[138.75934,35.42003],[138.75923,35.41976],[138.7589,35.41929],[138.7587,35.41896],[138.75867,35.41874],[138.75871,35.4185],[138.75883,35.41834],[138.75905,35.41806],[138.75912,35.41789],[138.75907,35.41769],[138.75899,35.41757],[138.75883,35.41746],[138.75844,35.41728],[138.7581,35.41716],[138.75802,35.41706],[138.75804,35.41688],[138.75829,35.4167],[138.75876,35.41651],[138.75884,35.4164],[138.75869,35.41622],[138.75845,35.41624],[138.7582,35.41622],[138.75807,35.41612],[138.75796,35.41598],[138.75793,35.41585],[138.75798,35.41572],[138.75818,35.41541],[138.75843,35.41509],[138.75846,35.41497],[138.75838,35.41483],[138.75827,35.41473],[138.758,35.41454],[138.75772,35.41436],[138.75767,35.41417],[138.75789,35.41398],[138.75854,35.41362],[138.75847,35.4135],[138.7584,35.41337],[138.75835,35.4132],[138.75835,35.41296],[138.7584,35.41279],[138.75848,35.41268],[138.75875,35.41242],[138.75886,35.41227],[138.75887,35.41209],[138.75882,35.41184],[138.75873,35.41116],[138.75868,35.411],[138.75865,35.4108],[138.75863,35.41053],[138.7585,35.40955],[138.75854,35.4094],[138.75855,35.40917],[138.75833,35.40909],[138.75819,35.409],[138.75812,35.4089],[138.75802,35.40857],[138.75791,35.40815],[138.75786,35.40805],[138.75773,35.40773],[138.75755,35.40734],[138.75755,35.40722],[138.75754,35.40705],[138.75746,35.40695],[138.75744,35.40681],[138.75742,35.40647],[138.7574,35.40601],[138.75734,35.40583],[138.75727,35.40569],[138.7572,35.40549],[138.75719,35.40514],[138.75724,35.40482],[138.75712,35.4044],[138.75708,35.40417],[138.75702,35.40397],[138.75699,35.40363],[138.75702,35.40344],[138.75693,35.40329],[138.75684,35.40314],[138.75672,35.40271],[138.75665,35.40237],[138.75665,35.40218],[138.75666,35.40185],[138.75662,35.40169],[138.75653,35.40161],[138.75644,35.40153],[138.75629,35.40143],[138.75622,35.40133],[138.75607,35.40113],[138.75596,35.40092],[138.75584,35.40055],[138.75575,35.40047],[138.75557,35.40049],[138.75543,35.40045],[138.75538,35.40031],[138.75524,35.40012],[138.75506,35.4],[138.75457,35.40019],[138.75444,35.40024],[138.75433,35.40015],[138.75432,35.39999],[138.7543,35.39981],[138.75429,35.39963],[138.75423,35.39952],[138.75408,35.39941],[138.75394,35.3993],[138.75395,35.39906],[138.75395,35.39895],[138.7537,35.39884],[138.75366,35.39866],[138.75338,35.39839],[138.75345,35.39824],[138.75368,35.39819],[138.7537,35.39804],[138.75345,35.3979],[138.7535,35.39777],[138.75364,35.39756],[138.75365,35.39736],[138.75344,35.39733],[138.7532,35.39738],[138.75299,35.39741],[138.75261,35.39726],[138.75233,35.39721],[138.75233,35.3971],[138.75224,35.39695],[138.75173,35.39684],[138.75158,35.39674],[138.75148,35.39661],[138.7514,35.39652],[138.75135,35.39636],[138.75158,35.39636],[138.75178,35.39637],[138.75192,35.39625],[138.75218,35.39599],[138.75239,35.39559],[138.75244,35.39547],[138.75231,35.3954],[138.75213,35.39535],[138.75221,35.39516],[138.7519,35.39514],[138.75169,35.39507],[138.75168,35.39492],[138.75174,35.39478],[138.75179,35.39454],[138.75183,35.39438],[138.75174,35.39429],[138.75145,35.39431],[138.75117,35.39432],[138.751,35.39428],[138.75082,35.39415],[138.75097,35.39402],[138.75112,35.39393],[138.75101,35.39382],[138.75065,35.39366],[138.75055,35.39359],[138.75063,35.3935],[138.75058,35.39329],[138.75056,35.39318],[138.75048,35.39298],[138.75054,35.39284],[138.75044,35.39271],[138.75023,35.39271],[138.75019,35.3926],[138.75002,35.39258],[138.75006,35.39245],[138.75023,35.3923],[138.75013,35.39219],[138.75025,35.39203],[138.75028,35.3918],[138.75028,35.39161],[138.75048,35.39161],[138.7506,35.39153],[138.75049,35.39147],[138.75043,35.39128],[138.75024,35.39129],[138.75014,35.3912],[138.74999,35.39117],[138.74982,35.39126],[138.74968,35.39137],[138.7496,35.3912],[138.74964,35.39103],[138.74973,35.39087],[138.74947,35.39086],[138.74959,35.3907],[138.74987,35.39058],[138.74995,35.39047],[138.7498,35.3904],[138.74965,35.39041],[138.74942,35.39047],[138.74929,35.39045],[138.74951,35.39032],[138.74965,35.39023],[138.74956,35.39012],[138.74923,35.39017],[138.74898,35.39017],[138.74866,35.3903],[138.74861,35.3901],[138.74868,35.38971],[138.74847,35.38977],[138.74833,35.3899],[138.74831,35.39003],[138.74844,35.39011],[138.74861,35.3901],[138.74899,35.38954],[138.74902,35.38943],[138.7488,35.38934],[138.74857,35.38943],[138.74834,35.38953],[138.74817,35.38958],[138.74811,35.38942],[138.74827,35.3893],[138.74828,35.38917],[138.74805,35.38912],[138.7479,35.38909],[138.74805,35.38897],[138.74774,35.38893],[138.7476,35.38893],[138.74748,35.38885],[138.74769,35.3888],[138.74793,35.38869],[138.7478,35.38865],[138.74761,35.38864],[138.74763,35.38853],[138.74738,35.38836],[138.74757,35.38834],[138.74754,35.3882],[138.7478,35.38821],[138.74777,35.38805],[138.74764,35.38793],[138.74788,35.38796],[138.74764,35.38756],[138.74787,35.38771],[138.748,35.38785],[138.74815,35.38784],[138.74823,35.38773],[138.74814,35.38748],[138.74829,35.38736],[138.74823,35.38725],[138.74802,35.38725],[138.74774,35.38705],[138.74757,35.38693],[138.74774,35.3868],[138.74804,35.38673],[138.74818,35.38672],[138.74806,35.38659],[138.74792,35.38648],[138.74807,35.38631],[138.74808,35.38614],[138.74826,35.38608],[138.74816,35.38598],[138.74792,35.38587],[138.74764,35.38558],[138.74769,35.38541],[138.74753,35.38506],[138.74735,35.38499],[138.74705,35.38488],[138.74705,35.38471],[138.74714,35.38459],[138.74691,35.38461],[138.74699,35.38452],[138.74728,35.38443],[138.74738,35.38433],[138.74732,35.38418],[138.74748,35.38394],[138.74766,35.38362],[138.74762,35.38333],[138.74766,35.3831],[138.74775,35.38289],[138.74782,35.38269],[138.74787,35.38245],[138.7478,35.38224],[138.74797,35.38202],[138.74787,35.38149],[138.74763,35.38162],[138.74749,35.38165],[138.74715,35.38173],[138.74719,35.38145],[138.74712,35.3812],[138.74695,35.38118],[138.74679,35.38132],[138.74668,35.38138],[138.74658,35.38102],[138.7464,35.38102],[138.74627,35.38077],[138.746,35.38082],[138.74587,35.38069],[138.74579,35.38058],[138.74558,35.38042],[138.74547,35.38012],[138.74549,35.37998],[138.74565,35.37989],[138.74573,35.37978],[138.74589,35.37959],[138.74603,35.3794],[138.74573,35.3795],[138.74585,35.37921],[138.74546,35.3792],[138.74549,35.3789],[138.74534,35.37879],[138.7449,35.3787],[138.74471,35.37828],[138.74503,35.37829],[138.74516,35.37825],[138.74499,35.37853],[138.7449,35.37866],[138.74493,35.37801],[138.74504,35.37773],[138.74513,35.37742],[138.74473,35.37757],[138.74491,35.37727],[138.74455,35.37747],[138.74462,35.37721],[138.74472,35.37709],[138.74457,35.37713],[138.74443,35.3772],[138.74422,35.37738],[138.74403,35.37752],[138.74377,35.37748],[138.74373,35.37761],[138.74352,35.37775],[138.74341,35.37765],[138.74344,35.37751],[138.74349,35.37738],[138.7433,35.37738],[138.7432,35.37745],[138.74296,35.37738],[138.74297,35.37715],[138.74305,35.37707],[138.743,35.37694],[138.74284,35.37697],[138.74289,35.37679],[138.743,35.3766],[138.74282,35.37644],[138.74278,35.37631],[138.74281,35.37615],[138.74313,35.37582],[138.74295,35.37562],[138.74289,35.37546],[138.74295,35.37531],[138.74297,35.37516],[138.74284,35.37511],[138.7427,35.37511],[138.74241,35.37493],[138.74251,35.37476],[138.74239,35.37459],[138.74231,35.3745],[138.74212,35.37448],[138.74188,35.3743],[138.74167,35.37424],[138.74151,35.37425],[138.74142,35.37416],[138.74159,35.37398],[138.74162,35.37387],[138.74138,35.3738],[138.74125,35.37381],[138.74108,35.37365],[138.74103,35.37345],[138.74114,35.37323],[138.74119,35.37308],[138.74101,35.37311],[138.7411,35.37299],[138.74096,35.37303],[138.741,35.37288],[138.7405,35.37293],[138.74016,35.37286],[138.74026,35.37269],[138.74041,35.37252],[138.74,35.37247],[138.74008,35.3723],[138.73993,35.37231],[138.74001,35.37214],[138.73978,35.37216],[138.73993,35.37199],[138.73974,35.37199],[138.74002,35.37157],[138.73965,35.37168],[138.73949,35.3717],[138.73936,35.37166],[138.73916,35.37162],[138.73896,35.37152],[138.73909,35.37136],[138.73888,35.37132],[138.73866,35.37128],[138.73878,35.37116],[138.73909,35.3711],[138.73927,35.37103],[138.73927,35.37088],[138.73936,35.3707],[138.73905,35.37061],[138.73915,35.37045],[138.73901,35.37035],[138.73915,35.37019],[138.73925,35.37003],[138.73906,35.37003],[138.7388,35.37003],[138.73867,35.37],[138.7388,35.36979],[138.73869,35.3697],[138.73855,35.36968],[138.73861,35.36952],[138.73875,35.36941],[138.73892,35.36937],[138.73908,35.36933],[138.73911,35.36928]]]}}