{"type":"Feature","properties":{"slug":"mount-oyama-tateyama-murodo","osm_id":3013201,"name":"Tateyama, Murodo","length_km":4,"closed":true,"endpoints":{"start":[36.57754,137.59651],"end":[36.57754,137.59651]},"source":"https://www.openstreetmap.org/relation/3013201"},"geometry":{"type":"MultiLineString","coordinates":[[[137.59651,36.57754],[137.59691,36.57775],[137.59712,36.57786],[137.59761,36.57806],[137.59783,36.57813],[137.59817,36.578],[137.59836,36.57789],[137.59849,36.57781],[137.59912,36.57744],[137.59952,36.57719],[137.59972,36.5771],[137.6003,36.57738],[137.60071,36.57788],[137.60078,36.57802],[137.60088,36.57815],[137.60092,36.57827],[137.60094,36.57838],[137.60101,36.5785],[137.60106,36.57863],[137.60103,36.57877],[137.60086,36.57895],[137.60071,36.57898],[137.60053,36.5791],[137.60036,36.57919],[137.6,36.57925],[137.5998,36.5793],[137.5996,36.57938],[137.59948,36.57946],[137.59938,36.57953],[137.59931,36.57964],[137.59926,36.57975],[137.59921,36.5799],[137.59909,36.58009],[137.59898,36.58018],[137.59894,36.58031],[137.59892,36.58044],[137.59896,36.58057],[137.59883,36.58075],[137.59871,36.58092],[137.59855,36.58106],[137.59834,36.58114],[137.59816,36.58121],[137.59807,36.58129],[137.59783,36.5814],[137.59766,36.58146],[137.59755,36.58153],[137.59742,36.58157],[137.59724,36.58171],[137.59712,36.58176],[137.59693,36.58191],[137.59676,36.58201],[137.59671,36.58215],[137.59667,36.58231],[137.59661,36.58242],[137.59659,36.5826],[137.59666,36.58276],[137.59678,36.5829],[137.597,36.58288],[137.59716,36.58282],[137.59743,36.58272],[137.59772,36.58259],[137.59793,36.58259],[137.59804,36.58252],[137.59824,36.5825],[137.59862,36.58258],[137.59877,36.58249],[137.59902,36.58239],[137.59918,36.58236],[137.59937,36.58236],[137.59943,36.58225],[137.59965,36.58221],[137.59981,36.5823],[137.59995,36.58233],[137.60009,36.58241],[137.60018,36.58249],[137.60014,36.58269],[137.60004,36.58285],[137.59992,36.58303],[137.59969,36.58336],[137.5995,36.58351],[137.59942,36.58369],[137.59931,36.58388],[137.59916,36.58401],[137.599,36.58413],[137.5989,36.58422],[137.59878,36.58438],[137.59864,36.58452],[137.59853,36.58464],[137.59843,36.58476],[137.59856,36.58515],[137.59859,36.58528],[137.59851,36.58548],[137.59848,36.58563],[137.59835,36.5859],[137.59825,36.58607],[137.59819,36.5862],[137.59828,36.58629],[137.59827,36.5864],[137.59841,36.58644],[137.59855,36.58639],[137.59855,36.58652],[137.59873,36.58649],[137.59921,36.58685],[137.59933,36.58701],[137.59949,36.58723],[137.59937,36.58728],[137.59912,36.58733],[137.59886,36.58736],[137.59857,36.58738],[137.59841,36.58722],[137.59813,36.58735],[137.59779,36.58755],[137.59767,36.58731],[137.59757,36.58721],[137.5975,36.587],[137.59724,36.58692],[137.59733,36.58651],[137.59738,36.58634],[137.59733,36.58619],[137.59724,36.58606],[137.59709,36.58594],[137.59693,36.58581],[137.5968,36.58561],[137.59668,36.58546],[137.59663,36.58535],[137.5966,36.58521],[137.59651,36.58507],[137.59632,36.58482],[137.59622,36.58465],[137.59581,36.58457],[137.59548,36.5844],[137.59538,36.58428],[137.59526,36.58421],[137.59473,36.58383],[137.59457,36.58381],[137.59441,36.58377],[137.5942,36.58376],[137.59426,36.58365],[137.59424,36.58351],[137.59403,36.58323],[137.59407,36.58311],[137.59423,36.58298],[137.59431,36.58283],[137.59438,36.5827],[137.59449,36.58255],[137.59467,36.58244],[137.59482,36.58234],[137.59499,36.58222],[137.5951,36.58214],[137.59523,36.58205],[137.59533,36.58182],[137.59547,36.58168],[137.5958,36.58143],[137.59595,36.5814],[137.59602,36.58128],[137.5958,36.58123],[137.59581,36.58092],[137.59581,36.58074],[137.59579,36.58063],[137.59583,36.58037],[137.59589,36.58026],[137.59594,36.5801],[137.59608,36.57995],[137.59615,36.5798],[137.59618,36.57969],[137.59628,36.5795],[137.59636,36.57939],[137.59649,36.57931],[137.59645,36.57902],[137.59632,36.57888],[137.59605,36.57871],[137.59593,36.5786],[137.59582,36.57853],[137.59571,36.57846],[137.59556,36.57831],[137.5955,36.57822],[137.59551,36.57805],[137.59563,36.57788],[137.59577,36.5778],[137.59593,36.57779],[137.59627,36.57773],[137.59643,36.57767],[137.59651,36.57754]]]}}