{"type":"Feature","properties":{"slug":"mount-brinchang-mossy-forest","osm_id":19008365,"name":"Mossy Forest (Brinchang - Gunung Irau)","length_km":5.6,"closed":false,"endpoints":{"start":[4.5035,101.38887],"end":[4.52898,101.36517]},"source":"https://www.openstreetmap.org/relation/19008365"},"geometry":{"type":"MultiLineString","coordinates":[[[101.38887,4.5035],[101.38906,4.50349],[101.38931,4.50353],[101.38949,4.50372],[101.38959,4.50382],[101.38964,4.50394],[101.38967,4.50417],[101.38969,4.50432],[101.38966,4.5046],[101.38964,4.50482],[101.3896,4.50499],[101.38958,4.50513],[101.38957,4.50526],[101.38952,4.50548],[101.38946,4.50558],[101.38943,4.50577],[101.38946,4.50599],[101.3895,4.50614],[101.3895,4.50651],[101.38953,4.50668],[101.38951,4.50687],[101.38954,4.50705],[101.38969,4.50719],[101.38983,4.50735],[101.38985,4.50747],[101.39007,4.50768],[101.39024,4.5078],[101.39028,4.50796],[101.39043,4.50818],[101.3907,4.50845],[101.39076,4.50866],[101.39082,4.5089],[101.39081,4.50913],[101.39092,4.50936],[101.391,4.50966],[101.39104,4.50987],[101.39106,4.51007],[101.3911,4.51031],[101.39106,4.51053],[101.39111,4.51074],[101.3911,4.51086],[101.39104,4.51104],[101.39102,4.51125],[101.39107,4.51145],[101.39102,4.5116],[101.39097,4.51173],[101.39099,4.51196],[101.39094,4.51209],[101.39086,4.51216],[101.39083,4.51227],[101.39085,4.5125],[101.39089,4.51268],[101.39089,4.51289],[101.39086,4.51307],[101.39089,4.51319],[101.3909,4.51339],[101.3909,4.51351],[101.39096,4.51374],[101.3911,4.5139],[101.39118,4.51403],[101.3912,4.5142],[101.39123,4.51448],[101.39128,4.51463],[101.39131,4.51479],[101.39129,4.51499],[101.39123,4.5151],[101.39122,4.51525],[101.39107,4.51534],[101.39093,4.51555],[101.39091,4.51577],[101.39087,4.51605],[101.39076,4.51625],[101.39072,4.51648],[101.39069,4.51673],[101.39068,4.51694],[101.39044,4.5172],[101.39009,4.51744],[101.38988,4.5175],[101.38975,4.51749],[101.38965,4.51753],[101.38947,4.51752],[101.38933,4.51748],[101.38933,4.51761],[101.38928,4.51771],[101.38925,4.51783],[101.38929,4.518],[101.38919,4.5182],[101.38911,4.51839],[101.389,4.51857],[101.38898,4.51875],[101.38901,4.51903],[101.38896,4.51925],[101.38887,4.51939],[101.38861,4.51955],[101.38843,4.51962],[101.38828,4.51972],[101.38819,4.5198],[101.38804,4.51994],[101.388,4.52004],[101.38783,4.52012],[101.38768,4.52014],[101.38757,4.5202],[101.38749,4.52029],[101.3873,4.52029],[101.38715,4.52034],[101.38693,4.52037],[101.38682,4.52038],[101.38666,4.52041],[101.38653,4.52041],[101.38642,4.52039],[101.3863,4.52041],[101.38612,4.52048],[101.38601,4.52052],[101.38589,4.52057],[101.38569,4.52044],[101.38557,4.52031],[101.38544,4.52028],[101.38533,4.52029],[101.38523,4.52024],[101.38496,4.5202],[101.38472,4.52019],[101.38461,4.52021],[101.38444,4.52023],[101.38431,4.5203],[101.38425,4.52042],[101.38426,4.5206],[101.38433,4.52076],[101.38432,4.52092],[101.38425,4.5211],[101.38404,4.52115],[101.38396,4.52122],[101.38391,4.52133],[101.38385,4.52153],[101.38375,4.52166],[101.38384,4.52177],[101.38378,4.52188],[101.38347,4.52186],[101.38333,4.52181],[101.38304,4.52165],[101.38289,4.5217],[101.38294,4.52181],[101.38288,4.52199],[101.38312,4.52233],[101.38315,4.52244],[101.38321,4.52257],[101.38335,4.52263],[101.38326,4.52279],[101.38303,4.52291],[101.3829,4.52292],[101.38277,4.52303],[101.38258,4.52307],[101.38249,4.52323],[101.38246,4.52337],[101.3824,4.52353],[101.3823,4.52362],[101.38213,4.52371],[101.38195,4.52372],[101.38192,4.52387],[101.38193,4.524],[101.38195,4.52419],[101.38184,4.52431],[101.38176,4.5244],[101.3817,4.52453],[101.38156,4.52457],[101.38141,4.52465],[101.38132,4.52471],[101.38122,4.52476],[101.38111,4.52487],[101.38096,4.52494],[101.38085,4.525],[101.38072,4.52514],[101.38061,4.52527],[101.38038,4.52531],[101.3803,4.5254],[101.38017,4.52546],[101.38008,4.52559],[101.37999,4.52571],[101.37981,4.52578],[101.37967,4.5259],[101.37931,4.5259],[101.37898,4.52594],[101.37861,4.52609],[101.37843,4.52619],[101.37824,4.52628],[101.37788,4.52616],[101.37766,4.52613],[101.37717,4.52621],[101.37694,4.52633],[101.37667,4.5265],[101.3766,4.52661],[101.3765,4.52673],[101.37643,4.52681],[101.3763,4.52683],[101.37617,4.52699],[101.37616,4.52718],[101.37607,4.52729],[101.37602,4.52741],[101.37589,4.52749],[101.37576,4.5276],[101.37561,4.52759],[101.37522,4.52778],[101.37505,4.52782],[101.3749,4.52801],[101.37481,4.52809],[101.37458,4.52806],[101.37443,4.52819],[101.37426,4.52848],[101.37421,4.52864],[101.37406,4.52877],[101.37383,4.52904],[101.37379,4.52919],[101.37365,4.52919],[101.37343,4.52908],[101.37305,4.52898],[101.37275,4.52915],[101.37246,4.52919],[101.37225,4.52932],[101.37209,4.52935],[101.37193,4.52942],[101.37182,4.52948],[101.37166,4.52953],[101.37155,4.52957],[101.37131,4.52952],[101.37106,4.52947],[101.37094,4.5294],[101.37083,4.52924],[101.37071,4.52917],[101.37047,4.52894],[101.37022,4.5289],[101.36995,4.5288],[101.36974,4.52877],[101.36955,4.52867],[101.36939,4.52863],[101.36922,4.52862],[101.36906,4.52856],[101.36873,4.5286],[101.36833,4.52856],[101.36811,4.52843],[101.36795,4.52837],[101.36769,4.52842],[101.36754,4.52851],[101.36743,4.52863],[101.3673,4.52872],[101.36716,4.52872],[101.36697,4.52865],[101.36676,4.52861],[101.36663,4.52865],[101.36625,4.52862],[101.36613,4.52856],[101.36598,4.52856],[101.36586,4.52856],[101.3657,4.52861],[101.36562,4.52869],[101.36551,4.52874],[101.36535,4.52876],[101.36527,4.52886],[101.36517,4.52898]]]}}