{"type":"Feature","properties":{"slug":"mount-esja-thverfellshorn","osm_id":12497164,"name":"Þverfellshorn","length_km":4.5,"closed":false,"endpoints":{"start":[64.2137,-21.71819],"end":[64.21835,-21.71668]},"source":"https://www.openstreetmap.org/relation/12497164"},"geometry":{"type":"MultiLineString","coordinates":[[[-21.71819,64.2137],[-21.7181,64.2138],[-21.71823,64.21389],[-21.71858,64.21393],[-21.71901,64.21402],[-21.71922,64.21412],[-21.71942,64.21422],[-21.71973,64.21432],[-21.72013,64.21448],[-21.72061,64.21453],[-21.72099,64.21456],[-21.72141,64.21465],[-21.72158,64.21473],[-21.72123,64.21478],[-21.72087,64.21486],[-21.72059,64.2149],[-21.72026,64.21497],[-21.72005,64.21506],[-21.71987,64.21516],[-21.71965,64.2153],[-21.71946,64.21547],[-21.71934,64.21558],[-21.71921,64.21575],[-21.7191,64.21587],[-21.71886,64.21605],[-21.7185,64.21628],[-21.71833,64.21637],[-21.71807,64.21658],[-21.71793,64.21675],[-21.71791,64.2169],[-21.7178,64.21704],[-21.71753,64.21714],[-21.71729,64.21724],[-21.71712,64.21736],[-21.71705,64.21746],[-21.71714,64.21764],[-21.71725,64.21776],[-21.71734,64.21793],[-21.7174,64.21807],[-21.71748,64.21824],[-21.71743,64.2184],[-21.71748,64.21853],[-21.7174,64.21873],[-21.71737,64.21886],[-21.7172,64.21907],[-21.71714,64.21926],[-21.71716,64.21937],[-21.71703,64.21947],[-21.71696,64.21959],[-21.71694,64.21971],[-21.71725,64.21969],[-21.7171,64.22007],[-21.71693,64.22026],[-21.71679,64.22044],[-21.71668,64.22066],[-21.71671,64.22086],[-21.71663,64.22112],[-21.71665,64.22133],[-21.71665,64.22154],[-21.71666,64.22175],[-21.71676,64.22188],[-21.71683,64.222],[-21.71657,64.22215],[-21.7162,64.22229],[-21.71607,64.2224],[-21.71574,64.22266],[-21.71548,64.22294],[-21.71585,64.22298],[-21.71636,64.2231],[-21.71669,64.22322],[-21.71643,64.22344],[-21.71629,64.22367],[-21.71603,64.2238],[-21.71592,64.22391],[-21.71596,64.22406],[-21.71565,64.22429],[-21.71576,64.22456],[-21.71597,64.22473],[-21.7163,64.22485],[-21.71633,64.22507],[-21.71625,64.22547],[-21.7163,64.22564],[-21.71626,64.22577],[-21.71632,64.22593],[-21.71606,64.22606],[-21.71615,64.22619],[-21.71625,64.22631],[-21.71634,64.22643],[-21.71647,64.22667],[-21.71638,64.22688],[-21.7164,64.22704],[-21.71654,64.22719],[-21.71669,64.22731],[-21.71682,64.22742],[-21.71676,64.22754],[-21.71673,64.22768],[-21.7171,64.22794],[-21.7174,64.22803],[-21.71788,64.22809],[-21.71872,64.22814],[-21.71913,64.22817],[-21.71968,64.22814],[-21.72011,64.22819],[-21.72037,64.22841],[-21.7202,64.22861],[-21.71973,64.22879],[-21.71928,64.22899],[-21.71857,64.22921],[-21.71817,64.22932],[-21.71794,64.22944],[-21.71814,64.22955],[-21.71804,64.2297],[-21.71813,64.22982],[-21.71823,64.22994],[-21.71836,64.23008],[-21.71832,64.23019],[-21.71826,64.23034],[-21.71795,64.23023],[-21.71776,64.2301],[-21.71754,64.23002],[-21.71735,64.22993],[-21.7169,64.22979],[-21.71658,64.22971],[-21.71625,64.22962],[-21.71587,64.22947],[-21.71518,64.2292],[-21.71491,64.22914],[-21.71427,64.22894],[-21.71369,64.22889],[-21.71326,64.22888],[-21.71286,64.22892],[-21.71237,64.22894],[-21.71188,64.22897],[-21.71125,64.22904],[-21.71082,64.22903],[-21.71039,64.22902],[-21.70985,64.22895],[-21.70937,64.22889],[-21.70912,64.22879],[-21.7088,64.22854],[-21.70846,64.22825],[-21.7083,64.22815],[-21.70814,64.22802],[-21.70797,64.22791],[-21.70765,64.22776],[-21.70729,64.22768],[-21.70733,64.22727],[-21.70729,64.22687],[-21.70653,64.227],[-21.70655,64.2265],[-21.70605,64.22658],[-21.70581,64.22644],[-21.70579,64.22631],[-21.70585,64.2261],[-21.7056,64.22574],[-21.70559,64.22562],[-21.70541,64.22554],[-21.70535,64.22539],[-21.70551,64.22529],[-21.70561,64.22517],[-21.70566,64.22504],[-21.70585,64.22487],[-21.70613,64.2247],[-21.70678,64.22446],[-21.70734,64.22431],[-21.70762,64.22419],[-21.70819,64.22392],[-21.7083,64.22379],[-21.70873,64.2237],[-21.70931,64.22352],[-21.70979,64.2234],[-21.71008,64.22333],[-21.71046,64.22314],[-21.71064,64.22304],[-21.71087,64.22294],[-21.71103,64.22284],[-21.71121,64.22261],[-21.71144,64.22238],[-21.7117,64.22204],[-21.71192,64.22181],[-21.71231,64.22155],[-21.71248,64.22143],[-21.71269,64.22132],[-21.71307,64.22114],[-21.71334,64.22093],[-21.71352,64.22078],[-21.71358,64.22066],[-21.7139,64.22049],[-21.71406,64.22039],[-21.71428,64.22023],[-21.71418,64.22004],[-21.71421,64.2199],[-21.71446,64.21974],[-21.71463,64.21966],[-21.71476,64.21956],[-21.71488,64.21941],[-21.71509,64.21922],[-21.71521,64.21909],[-21.71538,64.21894],[-21.71558,64.21877],[-21.71581,64.21857],[-21.71619,64.2186],[-21.71637,64.21851],[-21.71735,64.21811],[-21.71705,64.21819],[-21.71685,64.21829],[-21.71668,64.21835]],[[-21.71965,64.2153],[-21.71953,64.21501],[-21.71946,64.21491],[-21.71918,64.21477],[-21.71899,64.21461],[-21.719,64.21443],[-21.71889,64.21414],[-21.71876,64.21404],[-21.71817,64.21368],[-21.71801,64.21359],[-21.71769,64.21352],[-21.71742,64.21344],[-21.7171,64.21331],[-21.7169,64.21323],[-21.71672,64.21315],[-21.71651,64.21299],[-21.71626,64.21275],[-21.7161,64.21258],[-21.71616,64.21239],[-21.71618,64.21226],[-21.71627,64.21205],[-21.71644,64.21183],[-21.71643,64.21171],[-21.71639,64.21155],[-21.71632,64.21135],[-21.71622,64.21112],[-21.71607,64.21096],[-21.71577,64.21068],[-21.71554,64.21057],[-21.7151,64.21037],[-21.71472,64.2102],[-21.71425,64.2101],[-21.71394,64.21004],[-21.71372,64.20995],[-21.71385,64.20985],[-21.71394,64.20971],[-21.71374,64.2096],[-21.71378,64.20949],[-21.71394,64.2094],[-21.71412,64.2093],[-21.71444,64.20924],[-21.71487,64.20916],[-21.71514,64.20907],[-21.71526,64.20894],[-21.71477,64.20942],[-21.71487,64.20978],[-21.71472,64.21001],[-21.71472,64.2102]]]}}