{"type":"Feature","properties":{"slug":"pha-kluai-mai-haew-suwat","osm_id":18960455,"name":"น้ำตกผากล้วยไม้ - น้ำตกเหวสุวัต","length_km":3.1,"closed":false,"endpoints":{"start":[14.43103,101.40068],"end":[14.4346,101.41478]},"source":"https://www.openstreetmap.org/relation/18960455"},"geometry":{"type":"MultiLineString","coordinates":[[[101.40068,14.43103],[101.40088,14.43082],[101.401,14.43069],[101.40112,14.43062],[101.4013,14.43043],[101.4013,14.43027],[101.40144,14.43002],[101.40157,14.42983],[101.40166,14.42967],[101.40196,14.42937],[101.40217,14.42922],[101.40256,14.42925],[101.40277,14.42946],[101.40338,14.42957],[101.40375,14.42975],[101.40414,14.42981],[101.40431,14.42975],[101.40446,14.42913],[101.40456,14.42891],[101.40499,14.42854],[101.40516,14.42847],[101.40521,14.42818],[101.40564,14.4281],[101.40592,14.428],[101.40668,14.42806],[101.40714,14.42776],[101.40745,14.42773],[101.40781,14.42798],[101.40802,14.42801],[101.40823,14.42782],[101.40837,14.42778],[101.40872,14.42778],[101.40894,14.4277],[101.40915,14.42749],[101.40921,14.42733],[101.40935,14.42729],[101.40953,14.42733],[101.40965,14.42758],[101.40964,14.42778],[101.40955,14.42791],[101.40959,14.42869],[101.40993,14.42911],[101.40974,14.42955],[101.40982,14.42994],[101.40979,14.43016],[101.40969,14.43046],[101.40971,14.43066],[101.40958,14.4308],[101.40961,14.4314],[101.40973,14.43177],[101.40982,14.43187],[101.41007,14.43238],[101.41014,14.43265],[101.41005,14.43332],[101.40985,14.43349],[101.40989,14.43362],[101.41027,14.43375],[101.41037,14.43384],[101.41053,14.43387],[101.41081,14.43385],[101.41141,14.43361],[101.41161,14.43345],[101.41209,14.43299],[101.41249,14.4324],[101.41255,14.43218],[101.41258,14.43191],[101.41257,14.4317],[101.41252,14.43158],[101.41256,14.43138],[101.41274,14.43114],[101.41287,14.4311],[101.41301,14.43112],[101.41326,14.43129],[101.41336,14.43143],[101.41364,14.43153],[101.41377,14.4317],[101.41402,14.43194],[101.41438,14.43237],[101.41477,14.43271],[101.41503,14.433],[101.41518,14.43321],[101.41519,14.43337],[101.41539,14.43356],[101.41547,14.43389],[101.41544,14.43405],[101.41515,14.43424],[101.41511,14.43439],[101.41499,14.43453],[101.41478,14.4346]]]}}