{"type":"Feature","properties":{"slug":"prince-henry-cliff-walk","osm_id":6174955,"name":"Prince Henry Cliff Walk","length_km":5.5,"closed":false,"endpoints":{"start":[-33.72839,150.30139],"end":[-33.72209,150.32004]},"source":"https://www.openstreetmap.org/relation/6174955"},"geometry":{"type":"MultiLineString","coordinates":[[[150.30139,-33.72839],[150.30126,-33.72842],[150.30108,-33.72842],[150.30093,-33.72854],[150.30079,-33.7285],[150.3014,-33.72838],[150.30147,-33.72829],[150.30152,-33.72813],[150.30153,-33.7279],[150.30169,-33.72771],[150.30177,-33.72759],[150.30197,-33.72753],[150.30211,-33.72736],[150.30217,-33.72715],[150.30229,-33.72694],[150.30234,-33.72672],[150.30244,-33.72653],[150.30312,-33.7262],[150.30339,-33.72631],[150.30347,-33.7265],[150.30332,-33.72666],[150.30332,-33.72688],[150.30348,-33.72701],[150.30361,-33.72706],[150.3038,-33.72708],[150.30402,-33.72708],[150.30422,-33.72713],[150.30431,-33.72721],[150.30437,-33.7273],[150.30445,-33.7274],[150.30449,-33.7275],[150.30454,-33.72739],[150.30459,-33.72728],[150.30457,-33.72714],[150.30468,-33.72702],[150.30468,-33.72686],[150.30479,-33.72667],[150.3049,-33.72658],[150.30515,-33.72644],[150.30526,-33.72634],[150.30536,-33.72618],[150.30545,-33.72608],[150.30587,-33.72602],[150.30579,-33.72613],[150.30562,-33.72616],[150.30594,-33.72599],[150.30616,-33.7263],[150.30616,-33.72616],[150.30603,-33.72604],[150.30611,-33.72639],[150.30594,-33.72646],[150.30581,-33.7265],[150.3056,-33.72674],[150.3055,-33.72687],[150.30542,-33.727],[150.30538,-33.72713],[150.30537,-33.72729],[150.30543,-33.72743],[150.3055,-33.72755],[150.30543,-33.72769],[150.30535,-33.72784],[150.30526,-33.72801],[150.30521,-33.72813],[150.30526,-33.7283],[150.3053,-33.72847],[150.30532,-33.72859],[150.30559,-33.72853],[150.30593,-33.72851],[150.30614,-33.72857],[150.30626,-33.7287],[150.30632,-33.7288],[150.30639,-33.72889],[150.30658,-33.72892],[150.30673,-33.72911],[150.30678,-33.72923],[150.3067,-33.72933],[150.30654,-33.72944],[150.30652,-33.72964],[150.3067,-33.72978],[150.3068,-33.72986],[150.30695,-33.72988],[150.30698,-33.72975],[150.30709,-33.72962],[150.30731,-33.72962],[150.30745,-33.72964],[150.3075,-33.72978],[150.30752,-33.72989],[150.30764,-33.72996],[150.30768,-33.72978],[150.30786,-33.72966],[150.30804,-33.7297],[150.30805,-33.72981],[150.30806,-33.72994],[150.30806,-33.73007],[150.3083,-33.7301],[150.30843,-33.73014],[150.30862,-33.73016],[150.30875,-33.73026],[150.30885,-33.73038],[150.30906,-33.73019],[150.30921,-33.73023],[150.30941,-33.73027],[150.30955,-33.73044],[150.30966,-33.73053],[150.30979,-33.73057],[150.30995,-33.73054],[150.31013,-33.73059],[150.31034,-33.73068],[150.31042,-33.73085],[150.31077,-33.73097],[150.31061,-33.73104],[150.31046,-33.73094],[150.31087,-33.73092],[150.31101,-33.73098],[150.31105,-33.7311],[150.31114,-33.73117],[150.31126,-33.73126],[150.31142,-33.7314],[150.31155,-33.7315],[150.31161,-33.7316],[150.31169,-33.73178],[150.31175,-33.73193],[150.31178,-33.73208],[150.31207,-33.73258],[150.31202,-33.73272],[150.31198,-33.7326],[150.31198,-33.73247],[150.3119,-33.73237],[150.31186,-33.73225],[150.31181,-33.73214],[150.31235,-33.73232],[150.31239,-33.73216],[150.31244,-33.73198],[150.31265,-33.73195],[150.31285,-33.73198],[150.31305,-33.73203],[150.31321,-33.73209],[150.31343,-33.73204],[150.31357,-33.73204],[150.31373,-33.73205],[150.31391,-33.73212],[150.31403,-33.73222],[150.31414,-33.73233],[150.31427,-33.7324],[150.31439,-33.73254],[150.31445,-33.7327],[150.31448,-33.73286],[150.31449,-33.73305],[150.31448,-33.73319],[150.31444,-33.7333],[150.3144,-33.73349],[150.31447,-33.7336],[150.31462,-33.73365],[150.31473,-33.73372],[150.31484,-33.73381],[150.31493,-33.73367],[150.315,-33.73353],[150.31494,-33.73332],[150.31483,-33.7331],[150.31481,-33.73275],[150.3147,-33.73257],[150.31467,-33.73238],[150.31488,-33.73217],[150.31507,-33.73208],[150.31529,-33.73195],[150.31554,-33.73194],[150.31554,-33.73173],[150.31558,-33.73161],[150.3158,-33.73122],[150.31589,-33.73097],[150.31603,-33.7308],[150.31602,-33.73039],[150.3158,-33.73039],[150.31571,-33.73027],[150.31573,-33.73005],[150.31569,-33.72981],[150.31569,-33.72967],[150.3156,-33.72958],[150.31557,-33.72945],[150.31554,-33.72928],[150.31562,-33.72919],[150.31575,-33.72909],[150.31588,-33.72905],[150.31612,-33.72898],[150.31618,-33.72869],[150.31626,-33.72857],[150.31631,-33.72845],[150.31622,-33.72823],[150.31624,-33.72811],[150.31634,-33.72796],[150.31646,-33.72786],[150.31658,-33.7278],[150.31672,-33.72769],[150.31695,-33.72756],[150.31726,-33.72756],[150.3174,-33.72739],[150.31753,-33.72725],[150.3176,-33.72713],[150.31768,-33.72703],[150.31777,-33.72682],[150.31787,-33.72671],[150.31796,-33.72658],[150.31791,-33.72646],[150.3178,-33.72634],[150.31772,-33.7262],[150.31769,-33.72607],[150.31779,-33.72596],[150.31787,-33.72585],[150.31786,-33.72572],[150.31795,-33.72562],[150.31807,-33.72555],[150.31819,-33.72551],[150.31844,-33.72549],[150.31861,-33.72546],[150.31868,-33.72536],[150.31864,-33.72523],[150.31857,-33.72504],[150.31849,-33.72492],[150.31831,-33.72481],[150.31825,-33.7247],[150.31817,-33.72453],[150.31818,-33.72441],[150.3182,-33.72429],[150.31808,-33.72418],[150.318,-33.72396],[150.31783,-33.72369],[150.31776,-33.72351],[150.31759,-33.7235],[150.31744,-33.72348],[150.31726,-33.7234],[150.31719,-33.72327],[150.31733,-33.72309],[150.31749,-33.72298],[150.31747,-33.7228],[150.31748,-33.72267],[150.3174,-33.72247],[150.31739,-33.72233],[150.31746,-33.72222],[150.3178,-33.72211],[150.31771,-33.72203],[150.31752,-33.72191],[150.31743,-33.7217],[150.31726,-33.7215],[150.31712,-33.72127],[150.31711,-33.72115],[150.31719,-33.72099],[150.31728,-33.72077],[150.31748,-33.72062],[150.31762,-33.72053],[150.31788,-33.72047],[150.31803,-33.72047],[150.31822,-33.72056],[150.3184,-33.72066],[150.3185,-33.72079],[150.31859,-33.72096],[150.31873,-33.72104],[150.3189,-33.72108],[150.31902,-33.72122],[150.31917,-33.72135],[150.31937,-33.72158],[150.31961,-33.72178],[150.31972,-33.72186],[150.31986,-33.7219],[150.31996,-33.72205],[150.31993,-33.72191],[150.32044,-33.72166],[150.32053,-33.72175],[150.32068,-33.7219],[150.32063,-33.72201],[150.3205,-33.72198],[150.32032,-33.72197],[150.32012,-33.72204],[150.32004,-33.72209]],[[150.32037,-33.72152],[150.32028,-33.72144],[150.32034,-33.72133],[150.32035,-33.72115],[150.32037,-33.72129],[150.32043,-33.72104],[150.32063,-33.72103],[150.3208,-33.72109],[150.32097,-33.72125],[150.32113,-33.72134],[150.32128,-33.72134],[150.32184,-33.72152],[150.32179,-33.72139],[150.32151,-33.72128],[150.32134,-33.72131],[150.32189,-33.72156],[150.32193,-33.72132],[150.32195,-33.72146],[150.32217,-33.72096],[150.32231,-33.72075],[150.32252,-33.72057],[150.32251,-33.7204],[150.32255,-33.72026],[150.32264,-33.72017],[150.32298,-33.72012],[150.32303,-33.72031],[150.32307,-33.72042],[150.32312,-33.72065],[150.32303,-33.72095],[150.32301,-33.72106],[150.32308,-33.72123],[150.32321,-33.72139],[150.32336,-33.72152],[150.3234,-33.72164],[150.32326,-33.72178],[150.32319,-33.72188],[150.32323,-33.72199],[150.32333,-33.72207],[150.32349,-33.72213],[150.3236,-33.7222],[150.32373,-33.72232],[150.32394,-33.72237],[150.32405,-33.72248],[150.32407,-33.72261],[150.32399,-33.72272],[150.32407,-33.72284],[150.32421,-33.72287],[150.32437,-33.72293],[150.3245,-33.72305],[150.32455,-33.72316],[150.32452,-33.72327],[150.3245,-33.72349],[150.32461,-33.72357],[150.32476,-33.72348],[150.32494,-33.72338],[150.3251,-33.72338],[150.32522,-33.72344],[150.32525,-33.72363],[150.32524,-33.72375],[150.32535,-33.72389],[150.32535,-33.72378],[150.32543,-33.7239],[150.3256,-33.72388],[150.32574,-33.72393],[150.32594,-33.72407],[150.32598,-33.7242],[150.32599,-33.72431],[150.32595,-33.72443],[150.32599,-33.72456],[150.32611,-33.7246],[150.32624,-33.72463],[150.32633,-33.72473],[150.32631,-33.72484],[150.32626,-33.72503],[150.32616,-33.72513],[150.32606,-33.72533],[150.32598,-33.72543],[150.32605,-33.72555],[150.32617,-33.7256],[150.32623,-33.7257],[150.32637,-33.72564],[150.3265,-33.72562],[150.32664,-33.72572],[150.32676,-33.72577],[150.32689,-33.7257],[150.327,-33.72563],[150.32713,-33.72553],[150.32725,-33.72541],[150.32736,-33.72535],[150.32746,-33.72526],[150.32762,-33.72536],[150.32804,-33.72544],[150.32801,-33.72531],[150.32783,-33.72534],[150.32768,-33.72538],[150.32814,-33.72556],[150.32805,-33.72546],[150.32822,-33.72575],[150.32814,-33.72566],[150.32833,-33.72579],[150.32847,-33.72574],[150.32857,-33.72565],[150.32869,-33.72559],[150.32885,-33.72556],[150.32895,-33.72563],[150.32896,-33.72576],[150.32892,-33.72589],[150.32895,-33.726],[150.32911,-33.72598],[150.32923,-33.72604],[150.32938,-33.72611],[150.32951,-33.72614],[150.32963,-33.72619],[150.32996,-33.72617],[150.33012,-33.72613],[150.33028,-33.72615],[150.3304,-33.72621],[150.33055,-33.72617],[150.33068,-33.72614],[150.33092,-33.72613],[150.33107,-33.72617],[150.3312,-33.72628],[150.33133,-33.72638],[150.33143,-33.7263],[150.33135,-33.72619],[150.33142,-33.72602],[150.33154,-33.72589],[150.33163,-33.72579],[150.33184,-33.72576],[150.33206,-33.72577],[150.33219,-33.72558],[150.33224,-33.72547],[150.33228,-33.72535],[150.33228,-33.72519],[150.33232,-33.72506],[150.33239,-33.72497],[150.33249,-33.72489],[150.3326,-33.72483],[150.33267,-33.72466]]]}}