{"type":"Feature","properties":{"slug":"seongpanak-trail-hallasan","osm_id":16555366,"name":"성판악코스","length_km":9.3,"closed":false,"endpoints":{"start":[33.38485,126.61907],"end":[33.361,126.53572]},"source":"https://www.openstreetmap.org/relation/16555366"},"geometry":{"type":"MultiLineString","coordinates":[[[126.61907,33.38485],[126.61884,33.38482],[126.61862,33.38479],[126.61844,33.38473],[126.61811,33.38443],[126.6178,33.38424],[126.61758,33.38414],[126.6174,33.38414],[126.61704,33.38419],[126.61689,33.3842],[126.61649,33.38419],[126.61617,33.38416],[126.61584,33.38427],[126.61552,33.38429],[126.61526,33.38422],[126.61498,33.38405],[126.61474,33.38402],[126.61457,33.38406],[126.61441,33.38405],[126.61338,33.38372],[126.61272,33.38353],[126.61195,33.38318],[126.61103,33.38283],[126.6108,33.38273],[126.61043,33.38247],[126.61032,33.38241],[126.61015,33.38238],[126.60947,33.38255],[126.60918,33.3826],[126.60897,33.38254],[126.60854,33.38258],[126.60833,33.38263],[126.6081,33.38259],[126.60789,33.38243],[126.60759,33.38234],[126.60745,33.38234],[126.60726,33.38236],[126.60707,33.38233],[126.60694,33.38235],[126.60667,33.3825],[126.6065,33.38262],[126.60627,33.3827],[126.60608,33.38269],[126.60586,33.38282],[126.60567,33.38289],[126.60548,33.38287],[126.60529,33.38288],[126.6051,33.38279],[126.60489,33.38267],[126.6046,33.38266],[126.60404,33.38261],[126.60387,33.38258],[126.60359,33.38249],[126.60346,33.38254],[126.60336,33.38265],[126.60306,33.38266],[126.60265,33.38256],[126.60246,33.38264],[126.60226,33.38271],[126.60177,33.38275],[126.60139,33.38281],[126.60119,33.38275],[126.60104,33.38275],[126.60072,33.38285],[126.60041,33.38289],[126.60006,33.3829],[126.59991,33.38286],[126.5997,33.38284],[126.5995,33.38269],[126.59934,33.38269],[126.59914,33.38253],[126.59894,33.38256],[126.59869,33.38247],[126.59855,33.38243],[126.59823,33.38222],[126.59772,33.38185],[126.59756,33.38171],[126.59746,33.38157],[126.59729,33.38151],[126.597,33.38128],[126.5969,33.3812],[126.59651,33.38114],[126.59593,33.38092],[126.5952,33.38077],[126.59483,33.38078],[126.5946,33.38082],[126.59426,33.38076],[126.59409,33.38062],[126.59404,33.38046],[126.59381,33.38035],[126.59357,33.38034],[126.59339,33.38035],[126.59297,33.38022],[126.59252,33.38023],[126.59221,33.38018],[126.59206,33.38003],[126.59177,33.37992],[126.59148,33.37996],[126.59119,33.37998],[126.59094,33.37993],[126.59056,33.38003],[126.59029,33.38],[126.59005,33.37989],[126.58992,33.37982],[126.5897,33.37981],[126.58951,33.37976],[126.58932,33.37962],[126.589,33.37953],[126.58865,33.37949],[126.58839,33.37939],[126.58763,33.37943],[126.5872,33.37935],[126.58694,33.37935],[126.5867,33.37931],[126.58596,33.37906],[126.58552,33.37884],[126.58481,33.37866],[126.5844,33.37871],[126.58426,33.37868],[126.58412,33.37875],[126.58406,33.37886],[126.58396,33.37897],[126.58371,33.37903],[126.58354,33.37907],[126.58338,33.3791],[126.58328,33.3792],[126.58305,33.37939],[126.58269,33.37971],[126.5824,33.38004],[126.58206,33.38012],[126.58177,33.38011],[126.58163,33.38018],[126.58143,33.38023],[126.58111,33.38014],[126.58099,33.38027],[126.58055,33.38047],[126.58035,33.38061],[126.58022,33.38072],[126.57987,33.38076],[126.57946,33.38074],[126.57909,33.38068],[126.57886,33.38076],[126.57854,33.38071],[126.57819,33.38055],[126.57797,33.38052],[126.57785,33.38057],[126.5777,33.38049],[126.57731,33.38044],[126.57698,33.3803],[126.57683,33.38015],[126.57672,33.38002],[126.57632,33.37987],[126.57611,33.37974],[126.57601,33.37962],[126.576,33.37947],[126.57594,33.37937],[126.57589,33.37919],[126.57588,33.37893],[126.57575,33.37869],[126.57557,33.37848],[126.57535,33.37835],[126.57513,33.37821],[126.57488,33.37815],[126.57459,33.37809],[126.57432,33.37802],[126.57406,33.37792],[126.57378,33.37785],[126.57356,33.37781],[126.57334,33.37783],[126.57314,33.37791],[126.57298,33.37796],[126.57282,33.37796],[126.57268,33.37809],[126.57236,33.37818],[126.57218,33.37827],[126.57199,33.37821],[126.57175,33.37814],[126.57168,33.37804],[126.57164,33.37793],[126.57159,33.37779],[126.57153,33.37768],[126.57126,33.37741],[126.57094,33.37691],[126.57091,33.37675],[126.57086,33.37662],[126.57073,33.37657],[126.57033,33.37637],[126.57003,33.37618],[126.56984,33.37595],[126.56967,33.37581],[126.56951,33.37558],[126.56943,33.37522],[126.56927,33.37492],[126.56924,33.3748],[126.56927,33.37447],[126.56927,33.37433],[126.56934,33.37411],[126.56936,33.37396],[126.56909,33.37372],[126.56903,33.37359],[126.56888,33.37349],[126.56864,33.3733],[126.56855,33.37321],[126.56836,33.37289],[126.56813,33.37278],[126.56793,33.37276],[126.56771,33.37278],[126.56752,33.37284],[126.56712,33.37289],[126.56687,33.37286],[126.56666,33.37269],[126.56644,33.37257],[126.56635,33.37249],[126.56616,33.37226],[126.56604,33.3722],[126.56588,33.37215],[126.5657,33.37204],[126.56549,33.37178],[126.56535,33.37159],[126.56509,33.37133],[126.56486,33.37123],[126.56461,33.37116],[126.56437,33.37115],[126.56401,33.37119],[126.56361,33.3711],[126.56342,33.37105],[126.56319,33.37106],[126.56291,33.37113],[126.56269,33.37113],[126.56222,33.37094],[126.56194,33.37093],[126.56177,33.37101],[126.5616,33.37108],[126.5613,33.37108],[126.56116,33.37103],[126.5609,33.37082],[126.56071,33.37079],[126.56058,33.37075],[126.56016,33.37054],[126.5599,33.37034],[126.55968,33.37026],[126.55951,33.37019],[126.55932,33.37016],[126.55902,33.3701],[126.5588,33.37002],[126.55855,33.37002],[126.55834,33.37004],[126.55827,33.3702],[126.55806,33.37029],[126.55749,33.37018],[126.55728,33.37011],[126.55714,33.37],[126.55697,33.36992],[126.55672,33.36973],[126.55636,33.36969],[126.55586,33.36956],[126.55554,33.36948],[126.55515,33.3693],[126.55499,33.36923],[126.55445,33.36918],[126.55421,33.36922],[126.55403,33.36918],[126.55392,33.36907],[126.5537,33.36893],[126.55342,33.36861],[126.55319,33.36849],[126.55307,33.36842],[126.55295,33.36829],[126.55282,33.3681],[126.55276,33.36791],[126.55246,33.36769],[126.55217,33.3676],[126.55193,33.36739],[126.55169,33.36728],[126.55144,33.36718],[126.55114,33.367],[126.55091,33.36695],[126.55077,33.36688],[126.55057,33.36667],[126.55043,33.3666],[126.55033,33.36651],[126.55013,33.36645],[126.55,33.36635],[126.54986,33.36619],[126.54964,33.36607],[126.54944,33.36603],[126.54924,33.3659],[126.54896,33.36567],[126.54868,33.36553],[126.54844,33.36552],[126.54831,33.36544],[126.54821,33.36534],[126.54804,33.36532],[126.54762,33.3651],[126.5474,33.36509],[126.54718,33.36502],[126.547,33.36501],[126.54684,33.36491],[126.54664,33.36489],[126.54633,33.36475],[126.54616,33.36462],[126.54577,33.3646],[126.54525,33.36443],[126.54512,33.36439],[126.54502,33.36431],[126.54481,33.36435],[126.54467,33.36436],[126.54446,33.36424],[126.54421,33.36416],[126.5438,33.36391],[126.54363,33.36388],[126.54341,33.36391],[126.54322,33.36387],[126.54296,33.36376],[126.54281,33.36375],[126.54252,33.36383],[126.54236,33.36381],[126.542,33.36365],[126.54176,33.36358],[126.54157,33.36343],[126.54115,33.3633],[126.54101,33.36318],[126.54076,33.36311],[126.54061,33.36302],[126.54059,33.36286],[126.54032,33.36276],[126.54018,33.3627],[126.54004,33.36258],[126.53982,33.36232],[126.53963,33.3621],[126.53937,33.36189],[126.53922,33.36182],[126.53906,33.36166],[126.53882,33.3616],[126.53871,33.36154],[126.5384,33.3615],[126.53819,33.36127],[126.53801,33.36112],[126.53787,33.36105],[126.53773,33.36101],[126.53754,33.36099],[126.53738,33.36092],[126.53708,33.36085],[126.53687,33.36083],[126.53659,33.36089],[126.53642,33.36087],[126.53624,33.36086],[126.53601,33.36087],[126.53579,33.36093],[126.53572,33.361]]]}}