{"type":"Feature","properties":{"slug":"svartifoss-trail","osm_id":5449040,"name":"Svartifoss - Sjónarsker - Sel","length_km":5.1,"closed":true,"endpoints":{"start":[64.01649,-16.96786],"end":[64.01635,-16.96723]},"source":"https://www.openstreetmap.org/relation/5449040"},"geometry":{"type":"MultiLineString","coordinates":[[[-16.96786,64.01649],[-16.96723,64.01635],[-16.96932,64.01676],[-16.96965,64.01677],[-16.9715,64.01659],[-16.97173,64.01665],[-16.97208,64.01665],[-16.97237,64.0167],[-16.97202,64.01685],[-16.97223,64.0169],[-16.97265,64.01694],[-16.97304,64.01695],[-16.9742,64.01717],[-16.97487,64.01729],[-16.97515,64.01742],[-16.97543,64.01749],[-16.97563,64.01762],[-16.97626,64.01789],[-16.97679,64.01808],[-16.97722,64.01821],[-16.97773,64.01849],[-16.97786,64.0186],[-16.978,64.01884],[-16.97811,64.01911],[-16.97814,64.01929],[-16.97828,64.01941],[-16.97837,64.01951],[-16.97841,64.01964],[-16.97879,64.01961],[-16.97903,64.01952],[-16.97939,64.01951],[-16.97942,64.01962],[-16.9793,64.01973],[-16.97957,64.01979],[-16.97956,64.01991],[-16.97952,64.02002],[-16.97956,64.02015],[-16.97947,64.02035],[-16.97922,64.02044],[-16.97902,64.02059],[-16.97893,64.02079],[-16.97934,64.02131],[-16.97952,64.02141],[-16.97925,64.02159],[-16.97895,64.02165],[-16.97875,64.02179],[-16.97862,64.02192],[-16.97847,64.02203],[-16.9781,64.02224],[-16.9778,64.02239],[-16.97726,64.02264],[-16.97715,64.02275],[-16.97698,64.02285],[-16.97681,64.02298],[-16.97638,64.02315],[-16.97627,64.02328],[-16.97587,64.02354],[-16.97558,64.02364],[-16.97521,64.02391],[-16.97507,64.02401],[-16.975,64.02415],[-16.97484,64.02431],[-16.97461,64.02446],[-16.97448,64.02459],[-16.97435,64.02468],[-16.97424,64.02488],[-16.97423,64.02506],[-16.97433,64.02525],[-16.97438,64.02538],[-16.97432,64.02561],[-16.97402,64.02568],[-16.97376,64.02581],[-16.97362,64.02593],[-16.9734,64.02599],[-16.9733,64.02609],[-16.97349,64.02618],[-16.97371,64.02626],[-16.97376,64.02638],[-16.97358,64.0265],[-16.97389,64.0266],[-16.97415,64.02665],[-16.97433,64.02675],[-16.97473,64.02693],[-16.97512,64.02685],[-16.9754,64.02681],[-16.97571,64.02669],[-16.97594,64.02663],[-16.97627,64.02662],[-16.97651,64.02666],[-16.97665,64.02676],[-16.97693,64.02667],[-16.97721,64.02657],[-16.97759,64.02647],[-16.9781,64.02633],[-16.97853,64.02625],[-16.97914,64.02616],[-16.97945,64.02611],[-16.98003,64.02607],[-16.98045,64.02604],[-16.98073,64.02599],[-16.98113,64.02594],[-16.98138,64.02589],[-16.98155,64.02576],[-16.98175,64.0256],[-16.98181,64.02539],[-16.98194,64.02514],[-16.98204,64.02502],[-16.98193,64.0249],[-16.98184,64.02474],[-16.98186,64.02426],[-16.98191,64.02413],[-16.98208,64.024],[-16.98277,64.02396],[-16.98324,64.02396],[-16.98357,64.02398],[-16.98406,64.02401],[-16.9846,64.02401],[-16.98513,64.02394],[-16.98575,64.02397],[-16.98631,64.02398],[-16.98679,64.02393],[-16.9873,64.02383],[-16.98761,64.02375],[-16.98805,64.02365],[-16.9885,64.02356],[-16.98907,64.02352],[-16.98934,64.02351],[-16.98969,64.02351],[-16.99003,64.0235],[-16.99035,64.02349],[-16.99067,64.02349],[-16.99101,64.02349],[-16.99133,64.02345],[-16.99164,64.0234],[-16.99141,64.02334],[-16.99099,64.02323],[-16.99068,64.02317],[-16.99029,64.02312],[-16.99003,64.02308],[-16.98968,64.02303],[-16.98934,64.02295],[-16.98874,64.02278],[-16.98839,64.02264],[-16.98811,64.02253],[-16.98786,64.02244],[-16.98761,64.02233],[-16.98743,64.02221],[-16.98725,64.02209],[-16.98705,64.02193],[-16.98685,64.02179],[-16.98666,64.0217],[-16.98644,64.02162],[-16.98623,64.02155],[-16.98574,64.02143],[-16.98499,64.02134],[-16.984,64.02121],[-16.98366,64.02118],[-16.98327,64.02112],[-16.98286,64.02106],[-16.98236,64.02097],[-16.98188,64.02087],[-16.98135,64.02108],[-16.9811,64.02109],[-16.98093,64.02095],[-16.98087,64.02084],[-16.98064,64.02071],[-16.98076,64.02054],[-16.98074,64.02041],[-16.98078,64.02029],[-16.98077,64.02015],[-16.98117,64.01985],[-16.98129,64.01973],[-16.98115,64.01961],[-16.98119,64.01941],[-16.98127,64.01916],[-16.98158,64.01902],[-16.98168,64.01883],[-16.98188,64.01869],[-16.98202,64.0186],[-16.98175,64.0183],[-16.98163,64.01814],[-16.98132,64.018],[-16.98157,64.01785],[-16.98173,64.01777],[-16.982,64.01773],[-16.98243,64.01768],[-16.98243,64.01751],[-16.98236,64.0174],[-16.98277,64.01729],[-16.98225,64.01717],[-16.9819,64.01711],[-16.98092,64.01694],[-16.98134,64.01699],[-16.98169,64.01706],[-16.98042,64.01692],[-16.98012,64.01691],[-16.97975,64.01693],[-16.9794,64.01685],[-16.97916,64.01677],[-16.97888,64.01667],[-16.97859,64.01655],[-16.97837,64.01648],[-16.9778,64.01645],[-16.97723,64.01646],[-16.97645,64.01645],[-16.97558,64.01649],[-16.97491,64.0165],[-16.97461,64.01648],[-16.97427,64.01649],[-16.97377,64.01652],[-16.97344,64.01655],[-16.97314,64.01655],[-16.97285,64.0165],[-16.97171,64.01657],[-16.9727,64.01648],[-16.96965,64.01677],[-16.96932,64.01676],[-16.96786,64.01649],[-16.96723,64.01635]]]}}