{"type":"Feature","properties":{"slug":"tongariro-alpine-crossing","osm_id":104369,"name":"Tongariro Alpine Crossing","length_km":19.7,"closed":false,"endpoints":{"start":[-39.14448,175.58098],"end":[-39.07382,175.66385]},"source":"https://www.openstreetmap.org/relation/104369"},"geometry":{"type":"MultiLineString","coordinates":[[[175.58098,-39.14448],[175.58112,-39.14448],[175.58129,-39.1445],[175.58142,-39.14461],[175.58149,-39.1447],[175.58156,-39.14484],[175.58164,-39.14499],[175.5817,-39.14516],[175.58169,-39.14528],[175.58182,-39.14558],[175.58188,-39.14568],[175.58195,-39.14579],[175.58204,-39.14592],[175.58216,-39.146],[175.58234,-39.14603],[175.58251,-39.14606],[175.58287,-39.14617],[175.583,-39.14621],[175.58316,-39.14624],[175.58332,-39.14632],[175.58346,-39.14636],[175.58363,-39.14636],[175.58383,-39.14642],[175.58395,-39.14648],[175.58407,-39.14658],[175.58418,-39.14666],[175.58434,-39.14666],[175.58449,-39.14659],[175.58456,-39.14645],[175.58457,-39.14632],[175.58463,-39.1462],[175.58477,-39.1461],[175.58494,-39.14603],[175.58513,-39.146],[175.58534,-39.14602],[175.58551,-39.14605],[175.58567,-39.14609],[175.58592,-39.14616],[175.58631,-39.14627],[175.58651,-39.14629],[175.58682,-39.14635],[175.58698,-39.14637],[175.5872,-39.14641],[175.58816,-39.1465],[175.5884,-39.14652],[175.58859,-39.14655],[175.58876,-39.14656],[175.58926,-39.14661],[175.58945,-39.14664],[175.58961,-39.14666],[175.58978,-39.14667],[175.59008,-39.14672],[175.59029,-39.14677],[175.59047,-39.14681],[175.59062,-39.14684],[175.59079,-39.14687],[175.59094,-39.14692],[175.5911,-39.14701],[175.59125,-39.14712],[175.59139,-39.1472],[175.59157,-39.14724],[175.59176,-39.1473],[175.59194,-39.14736],[175.59208,-39.14739],[175.59227,-39.14735],[175.59252,-39.14729],[175.59269,-39.14724],[175.59285,-39.14719],[175.59299,-39.14714],[175.59319,-39.14708],[175.59339,-39.14701],[175.59364,-39.14694],[175.59382,-39.1469],[175.59399,-39.14684],[175.59415,-39.14679],[175.59431,-39.14678],[175.59448,-39.14676],[175.59465,-39.14672],[175.59482,-39.14669],[175.59497,-39.14668],[175.59514,-39.1467],[175.59529,-39.14672],[175.59542,-39.14665],[175.59564,-39.14647],[175.5958,-39.14636],[175.59595,-39.14631],[175.59608,-39.14625],[175.5962,-39.14617],[175.59635,-39.14612],[175.5965,-39.1461],[175.59665,-39.14603],[175.59677,-39.14596],[175.59689,-39.14587],[175.59709,-39.14583],[175.59726,-39.1458],[175.59744,-39.14576],[175.59759,-39.14572],[175.59776,-39.1457],[175.5979,-39.14563],[175.59801,-39.14552],[175.5981,-39.14539],[175.5982,-39.14531],[175.59835,-39.14524],[175.59847,-39.14519],[175.59856,-39.1451],[175.59866,-39.14502],[175.59878,-39.14497],[175.59889,-39.1449],[175.59898,-39.1448],[175.59908,-39.14472],[175.59916,-39.14463],[175.59925,-39.14454],[175.5994,-39.14446],[175.59952,-39.14437],[175.59959,-39.14426],[175.5996,-39.14415],[175.59977,-39.14411],[175.59993,-39.14412],[175.60006,-39.14407],[175.60011,-39.14396],[175.60022,-39.14387],[175.60032,-39.14379],[175.6004,-39.14369],[175.60054,-39.1436],[175.60067,-39.14354],[175.60082,-39.14351],[175.60095,-39.14345],[175.6011,-39.14342],[175.6013,-39.14342],[175.60144,-39.14342],[175.60159,-39.14341],[175.60174,-39.14337],[175.60188,-39.14331],[175.60204,-39.14326],[175.60216,-39.14318],[175.60229,-39.14313],[175.60243,-39.14312],[175.60257,-39.1431],[175.60272,-39.14313],[175.60286,-39.14317],[175.60298,-39.1431],[175.60312,-39.14308],[175.60322,-39.14299],[175.60334,-39.1429],[175.60341,-39.1428],[175.60349,-39.1427],[175.60358,-39.14259],[175.60351,-39.14249],[175.60357,-39.14237],[175.60366,-39.14229],[175.6038,-39.14226],[175.60394,-39.14222],[175.60409,-39.14221],[175.60427,-39.14223],[175.60446,-39.14224],[175.60465,-39.14225],[175.6048,-39.14223],[175.60496,-39.14219],[175.60511,-39.1422],[175.60526,-39.14219],[175.60543,-39.14215],[175.60559,-39.14213],[175.60575,-39.14213],[175.6059,-39.14213],[175.60608,-39.14213],[175.60623,-39.14212],[175.60641,-39.14212],[175.60661,-39.14208],[175.60674,-39.14205],[175.60693,-39.142],[175.60708,-39.14202],[175.60722,-39.14199],[175.60737,-39.14195],[175.60753,-39.14193],[175.60766,-39.14188],[175.6078,-39.14184],[175.60796,-39.14182],[175.60812,-39.14179],[175.60825,-39.14174],[175.60831,-39.14164],[175.60836,-39.14154],[175.60849,-39.14149],[175.60863,-39.14146],[175.60884,-39.14142],[175.60903,-39.14141],[175.60917,-39.14136],[175.60933,-39.14133],[175.60947,-39.14131],[175.60963,-39.14132],[175.60977,-39.14135],[175.60996,-39.14136],[175.61024,-39.14135],[175.61042,-39.1413],[175.6106,-39.14129],[175.61075,-39.14127],[175.61094,-39.14129],[175.61108,-39.14128],[175.61123,-39.14127],[175.61139,-39.14124],[175.61164,-39.14117],[175.61183,-39.14114],[175.61196,-39.14104],[175.61207,-39.14096],[175.61221,-39.14091],[175.61236,-39.14089],[175.61252,-39.14085],[175.6127,-39.14084],[175.61284,-39.14083],[175.61305,-39.14076],[175.6132,-39.14074],[175.61338,-39.14072],[175.61351,-39.14066],[175.61367,-39.14063],[175.61385,-39.14062],[175.61402,-39.14059],[175.6142,-39.1406],[175.61449,-39.1406],[175.61469,-39.14065],[175.61487,-39.14066],[175.61503,-39.14065],[175.61517,-39.14062],[175.61531,-39.14062],[175.6155,-39.14059],[175.61567,-39.14054],[175.61588,-39.14041],[175.616,-39.14034],[175.61629,-39.14017],[175.61642,-39.14009],[175.61656,-39.14005],[175.61669,-39.14002],[175.61681,-39.13995],[175.61693,-39.13986],[175.61701,-39.13974],[175.61715,-39.13972],[175.61727,-39.13966],[175.61743,-39.13962],[175.61757,-39.13957],[175.61771,-39.13958],[175.61785,-39.13952],[175.61799,-39.13947],[175.61813,-39.13946],[175.61833,-39.13941],[175.61851,-39.13939],[175.61881,-39.13934],[175.61897,-39.13936],[175.61911,-39.13942],[175.61927,-39.1394],[175.61942,-39.1394],[175.61956,-39.13938],[175.61972,-39.13939],[175.6199,-39.13935],[175.62005,-39.13934],[175.62022,-39.13932],[175.62036,-39.13932],[175.62058,-39.13937],[175.62108,-39.13949],[175.6214,-39.13945],[175.62157,-39.13945],[175.62203,-39.13954],[175.62234,-39.13956],[175.62298,-39.13967],[175.62321,-39.13971],[175.62357,-39.13975],[175.62397,-39.13985],[175.62427,-39.13988],[175.62455,-39.13994],[175.62471,-39.13997],[175.62491,-39.14004],[175.62505,-39.1401],[175.62518,-39.14025],[175.62531,-39.1404],[175.6255,-39.14055],[175.62569,-39.1407],[175.62578,-39.14081],[175.62591,-39.14085],[175.62593,-39.141],[175.62597,-39.14117],[175.62599,-39.14129],[175.62596,-39.14139],[175.62599,-39.14153],[175.62585,-39.14175],[175.62575,-39.14189],[175.62589,-39.14196],[175.62596,-39.14206],[175.62603,-39.14217],[175.62619,-39.14224],[175.6262,-39.14238],[175.62623,-39.1425],[175.62616,-39.14262],[175.6261,-39.14273],[175.62599,-39.14282],[175.62594,-39.14294],[175.6259,-39.14304],[175.62578,-39.14311],[175.62562,-39.14313],[175.62548,-39.14309],[175.62531,-39.14312],[175.62514,-39.14315],[175.62499,-39.14323],[175.62486,-39.14327],[175.62469,-39.14327],[175.62456,-39.14332],[175.62457,-39.14344],[175.62448,-39.14352],[175.62441,-39.14364],[175.62426,-39.1437],[175.62416,-39.14384],[175.6241,-39.14395],[175.62402,-39.14404],[175.62398,-39.14415],[175.62388,-39.14423],[175.62381,-39.14434],[175.62387,-39.14448],[175.62388,-39.14466],[175.6239,-39.14476],[175.62394,-39.14488],[175.62401,-39.145],[175.62418,-39.14506],[175.62429,-39.14512],[175.62429,-39.14524],[175.62431,-39.14535],[175.62436,-39.14548],[175.62434,-39.14561],[175.62446,-39.14576],[175.62463,-39.14573],[175.62475,-39.14567],[175.6249,-39.14567],[175.62505,-39.14565],[175.6252,-39.14566],[175.62535,-39.1456],[175.62564,-39.14564],[175.62581,-39.14557],[175.62596,-39.14557],[175.62615,-39.14552],[175.62627,-39.14545],[175.62655,-39.14528],[175.6267,-39.14531],[175.62679,-39.14522],[175.62695,-39.14518],[175.62726,-39.14524],[175.62747,-39.14528],[175.62768,-39.14528],[175.62779,-39.14537],[175.62801,-39.14543],[175.62817,-39.14546],[175.62831,-39.14552],[175.62847,-39.14551],[175.62869,-39.14526],[175.62883,-39.14525],[175.62897,-39.14529],[175.62909,-39.14536],[175.62912,-39.14547],[175.62925,-39.1455],[175.62935,-39.14558],[175.62965,-39.14564],[175.62983,-39.14569],[175.62997,-39.14568],[175.63007,-39.14576],[175.63032,-39.1457],[175.63058,-39.14569],[175.63079,-39.14572],[175.63095,-39.14571],[175.6311,-39.14568],[175.63128,-39.14566],[175.63139,-39.14557],[175.63153,-39.14551],[175.63153,-39.14536],[175.6317,-39.14536],[175.63175,-39.14525],[175.63175,-39.14514],[175.63181,-39.14504],[175.63194,-39.145],[175.63208,-39.14495],[175.63223,-39.1449],[175.63235,-39.14485],[175.6323,-39.14475],[175.6324,-39.14461],[175.63249,-39.14451],[175.63263,-39.14447],[175.63277,-39.14445],[175.63294,-39.1444],[175.63301,-39.14429],[175.63317,-39.14423],[175.63323,-39.14413],[175.6332,-39.14401],[175.63327,-39.14389],[175.63325,-39.14374],[175.63343,-39.14366],[175.6336,-39.14368],[175.63375,-39.14367],[175.63392,-39.14365],[175.63402,-39.14354],[175.63411,-39.14341],[175.6342,-39.14332],[175.6343,-39.14322],[175.63445,-39.14314],[175.63469,-39.14305],[175.63592,-39.14271],[175.63698,-39.14246],[175.63795,-39.14226],[175.63841,-39.14221],[175.63903,-39.14215],[175.6398,-39.14211],[175.64054,-39.14207],[175.64133,-39.14205],[175.64247,-39.14196],[175.6427,-39.14194],[175.64303,-39.14192],[175.64502,-39.14181],[175.64517,-39.1418],[175.64536,-39.14177],[175.64555,-39.14173],[175.64573,-39.14168],[175.6459,-39.14167],[175.64611,-39.14152],[175.64625,-39.14144],[175.64635,-39.1412],[175.64643,-39.1411],[175.64648,-39.14099],[175.64655,-39.14082],[175.64661,-39.14072],[175.64674,-39.14068],[175.64674,-39.14022],[175.64679,-39.14007],[175.64685,-39.13995],[175.64687,-39.13985],[175.64687,-39.13966],[175.64692,-39.13953],[175.64705,-39.13936],[175.6471,-39.13925],[175.64716,-39.13906],[175.64717,-39.13888],[175.64716,-39.13869],[175.64719,-39.13855],[175.64732,-39.13824],[175.64746,-39.13813],[175.64754,-39.13784],[175.64767,-39.1376],[175.64773,-39.13747],[175.64775,-39.13731],[175.64779,-39.1372],[175.64796,-39.13701],[175.64831,-39.13685],[175.6486,-39.13676],[175.6489,-39.13663],[175.64904,-39.13654],[175.64953,-39.13621],[175.64966,-39.13613],[175.64977,-39.13599],[175.64989,-39.13583],[175.65001,-39.13576],[175.65028,-39.1356],[175.65052,-39.13542],[175.6507,-39.13531],[175.6509,-39.13521],[175.65112,-39.13516],[175.65143,-39.13504],[175.65185,-39.13496],[175.65223,-39.13484],[175.65237,-39.13477],[175.65247,-39.13467],[175.65256,-39.13458],[175.65274,-39.13447],[175.65295,-39.13434],[175.65309,-39.13429],[175.65324,-39.1343],[175.65338,-39.13428],[175.65369,-39.13408],[175.65383,-39.13403],[175.654,-39.13402],[175.65413,-39.13391],[175.65429,-39.13384],[175.65442,-39.1338],[175.65458,-39.13376],[175.65472,-39.13371],[175.6549,-39.13364],[175.65514,-39.13358],[175.65535,-39.13354],[175.65548,-39.13346],[175.65569,-39.13312],[175.65577,-39.13302],[175.65587,-39.13292],[175.65602,-39.13282],[175.65617,-39.13272],[175.65633,-39.13266],[175.65644,-39.1325],[175.65651,-39.13239],[175.65687,-39.13222],[175.65709,-39.13204],[175.65713,-39.13193],[175.65719,-39.13183],[175.65727,-39.13171],[175.6574,-39.13158],[175.65764,-39.13139],[175.65847,-39.13063],[175.65858,-39.13055],[175.65873,-39.13039],[175.65884,-39.13032],[175.65893,-39.13021],[175.65904,-39.1301],[175.65931,-39.12987],[175.65953,-39.12969],[175.65962,-39.12959],[175.65974,-39.12947],[175.6599,-39.12939],[175.66013,-39.12932],[175.66022,-39.12904],[175.66034,-39.12885],[175.66047,-39.12872],[175.66059,-39.12865],[175.66061,-39.12854],[175.66056,-39.1283],[175.66058,-39.12818],[175.66057,-39.12801],[175.66044,-39.12776],[175.66028,-39.12769],[175.65993,-39.12727],[175.6598,-39.12708],[175.65966,-39.12702],[175.65954,-39.12694],[175.65941,-39.12685],[175.65922,-39.12674],[175.65908,-39.1267],[175.65891,-39.12664],[175.65829,-39.1263],[175.65817,-39.12618],[175.65808,-39.12608],[175.65794,-39.12597],[175.65771,-39.12585],[175.65761,-39.12576],[175.65753,-39.12565],[175.65751,-39.12553],[175.65742,-39.1254],[175.65728,-39.12524],[175.6572,-39.12515],[175.65713,-39.12502],[175.65712,-39.12491],[175.65701,-39.12481],[175.65687,-39.12463],[175.65685,-39.12451],[175.65687,-39.12438],[175.65674,-39.12434],[175.65661,-39.12431],[175.65648,-39.12426],[175.65639,-39.12417],[175.6563,-39.12407],[175.65617,-39.124],[175.65605,-39.12393],[175.65593,-39.12388],[175.65569,-39.12361],[175.65561,-39.1235],[175.65547,-39.12329],[175.65538,-39.12305],[175.65531,-39.12291],[175.65518,-39.12259],[175.65516,-39.12236],[175.65524,-39.12182],[175.65519,-39.1217],[175.65518,-39.12159],[175.65519,-39.12147],[175.65528,-39.12135],[175.65538,-39.12126],[175.65546,-39.12116],[175.6555,-39.12105],[175.65554,-39.12082],[175.65555,-39.12065],[175.65542,-39.1206],[175.65529,-39.12058],[175.65515,-39.12052],[175.65521,-39.12039],[175.65517,-39.12023],[175.65523,-39.12009],[175.65523,-39.11998],[175.65521,-39.11987],[175.65519,-39.11974],[175.6552,-39.11961],[175.65519,-39.1195],[175.65512,-39.11939],[175.6552,-39.1192],[175.65521,-39.119],[175.65525,-39.11889],[175.65526,-39.11875],[175.65527,-39.11849],[175.65527,-39.1183],[175.65525,-39.1181],[175.65518,-39.118],[175.65495,-39.11785],[175.65501,-39.11773],[175.65516,-39.11749],[175.65523,-39.11738],[175.65516,-39.11728],[175.655,-39.11723],[175.65485,-39.11718],[175.65478,-39.11709],[175.65479,-39.11698],[175.65481,-39.11681],[175.65473,-39.11664],[175.65466,-39.11654],[175.65455,-39.11647],[175.65446,-39.11638],[175.65448,-39.11627],[175.65446,-39.11615],[175.65451,-39.11605],[175.65457,-39.11595],[175.65459,-39.11579],[175.65459,-39.11567],[175.65456,-39.11555],[175.65449,-39.11545],[175.65442,-39.11534],[175.6544,-39.11522],[175.65436,-39.1151],[175.65426,-39.11502],[175.65423,-39.11486],[175.65409,-39.11478],[175.65397,-39.1147],[175.65405,-39.11451],[175.65407,-39.11439],[175.65412,-39.11428],[175.65425,-39.11412],[175.65432,-39.11401],[175.65436,-39.1139],[175.65431,-39.11378],[175.65431,-39.11362],[175.65433,-39.1135],[175.65427,-39.11333],[175.65425,-39.11314],[175.65425,-39.11296],[175.65421,-39.11285],[175.65414,-39.11273],[175.65403,-39.11263],[175.65386,-39.11255],[175.65367,-39.11252],[175.65352,-39.11243],[175.65339,-39.11238],[175.65329,-39.11228],[175.65304,-39.11223],[175.65292,-39.11217],[175.65279,-39.11209],[175.65247,-39.11198],[175.65261,-39.11195],[175.65276,-39.11193],[175.65293,-39.11195],[175.65306,-39.11201],[175.65318,-39.11194],[175.65335,-39.1119],[175.65351,-39.11191],[175.65366,-39.11196],[175.6538,-39.11199],[175.65401,-39.11184],[175.6542,-39.11174],[175.65441,-39.11169],[175.6546,-39.11167],[175.65476,-39.11167],[175.6549,-39.11168],[175.65485,-39.11157],[175.65468,-39.11151],[175.65452,-39.11145],[175.6543,-39.1114],[175.65415,-39.11141],[175.65403,-39.11147],[175.6539,-39.11154],[175.65368,-39.11145],[175.65358,-39.11131],[175.65345,-39.11122],[175.65328,-39.11122],[175.65314,-39.11128],[175.65298,-39.11125],[175.65288,-39.11113],[175.65283,-39.11101],[175.65267,-39.11098],[175.65251,-39.11094],[175.65237,-39.1109],[175.65217,-39.11084],[175.65203,-39.11082],[175.65218,-39.11074],[175.65232,-39.11072],[175.65247,-39.11073],[175.65261,-39.11071],[175.65274,-39.11065],[175.65291,-39.11061],[175.65318,-39.11072],[175.65333,-39.11076],[175.65343,-39.11068],[175.65353,-39.11057],[175.6537,-39.11055],[175.65385,-39.11069],[175.65397,-39.11062],[175.65411,-39.11052],[175.65435,-39.11033],[175.65448,-39.11021],[175.65458,-39.11013],[175.65469,-39.11005],[175.65477,-39.10996],[175.65487,-39.10987],[175.65501,-39.10981],[175.65517,-39.10977],[175.65532,-39.10974],[175.65548,-39.10981],[175.65561,-39.10973],[175.65574,-39.10967],[175.65589,-39.10964],[175.65604,-39.10965],[175.65594,-39.10956],[175.65578,-39.10952],[175.65564,-39.10955],[175.65553,-39.10943],[175.65548,-39.10932],[175.65537,-39.10924],[175.65518,-39.10927],[175.65504,-39.10927],[175.65486,-39.10928],[175.65461,-39.10939],[175.65446,-39.10947],[175.65432,-39.10954],[175.65421,-39.1096],[175.65409,-39.10967],[175.65396,-39.10963],[175.65385,-39.10953],[175.65378,-39.1094],[175.65376,-39.10928],[175.65376,-39.10915],[175.65376,-39.10904],[175.6537,-39.10886],[175.65356,-39.10888],[175.65337,-39.10901],[175.65322,-39.10893],[175.65318,-39.10878],[175.65314,-39.10863],[175.65311,-39.10841],[175.65311,-39.1083],[175.65311,-39.10818],[175.65306,-39.10808],[175.6531,-39.10797],[175.65324,-39.10797],[175.65332,-39.10784],[175.65337,-39.1077],[175.65341,-39.10756],[175.65343,-39.10744],[175.65347,-39.10731],[175.65348,-39.10719],[175.65344,-39.10707],[175.65337,-39.10693],[175.65332,-39.10682],[175.65323,-39.10671],[175.65315,-39.1066],[175.65314,-39.10649],[175.6531,-39.10636],[175.65306,-39.10624],[175.65312,-39.10608],[175.65312,-39.10594],[175.65311,-39.10577],[175.65307,-39.10565],[175.65304,-39.10553],[175.65304,-39.10534],[175.65299,-39.10522],[175.65298,-39.1051],[175.65309,-39.10502],[175.65318,-39.10492],[175.65322,-39.10481],[175.65311,-39.10472],[175.65305,-39.10462],[175.65315,-39.10452],[175.65332,-39.10446],[175.65345,-39.10442],[175.65361,-39.10433],[175.6538,-39.10432],[175.65395,-39.10433],[175.6541,-39.10429],[175.65406,-39.10417],[175.65394,-39.10411],[175.65381,-39.10402],[175.6537,-39.10393],[175.65384,-39.10388],[175.65401,-39.10386],[175.65413,-39.10379],[175.65406,-39.1037],[175.65387,-39.10355],[175.65374,-39.10346],[175.65365,-39.10337],[175.65355,-39.10326],[175.65348,-39.10316],[175.65337,-39.10308],[175.65324,-39.10301],[175.65308,-39.10296],[175.65296,-39.10289],[175.65284,-39.10283],[175.65267,-39.10287],[175.65252,-39.10289],[175.65237,-39.10294],[175.65224,-39.10299],[175.65211,-39.10306],[175.65197,-39.1031],[175.65182,-39.10317],[175.65163,-39.10325],[175.65152,-39.10333],[175.65141,-39.10342],[175.65131,-39.10353],[175.65117,-39.10361],[175.65107,-39.10369],[175.65099,-39.10379],[175.65089,-39.10388],[175.65076,-39.10393],[175.65063,-39.10387],[175.65047,-39.10384],[175.65043,-39.10369],[175.65044,-39.10357],[175.65044,-39.10345],[175.65045,-39.10333],[175.65046,-39.10322],[175.6505,-39.10311],[175.65051,-39.10297],[175.65053,-39.10285],[175.65059,-39.10274],[175.65062,-39.10263],[175.65061,-39.10252],[175.65061,-39.10238],[175.65064,-39.10227],[175.65066,-39.10215],[175.6507,-39.102],[175.65077,-39.10189],[175.65089,-39.10175],[175.65098,-39.10163],[175.65101,-39.10153],[175.65096,-39.10143],[175.65081,-39.10138],[175.65054,-39.10134],[175.65038,-39.10133],[175.65013,-39.10128],[175.64994,-39.1013],[175.64979,-39.10134],[175.64964,-39.10127],[175.6495,-39.10127],[175.64936,-39.10125],[175.64922,-39.1012],[175.64906,-39.1012],[175.64894,-39.10114],[175.64884,-39.10106],[175.64881,-39.10095],[175.64873,-39.10084],[175.64867,-39.10074],[175.64868,-39.10057],[175.64864,-39.10046],[175.6486,-39.10035],[175.64861,-39.10022],[175.64862,-39.10011],[175.64859,-39.1],[175.6486,-39.09989],[175.64842,-39.09985],[175.64829,-39.09976],[175.64824,-39.09965],[175.64814,-39.09956],[175.64814,-39.09943],[175.64816,-39.09932],[175.64809,-39.09922],[175.64802,-39.09908],[175.64801,-39.09894],[175.64818,-39.09894],[175.64836,-39.09893],[175.64851,-39.0989],[175.64851,-39.09877],[175.64844,-39.09867],[175.64829,-39.09862],[175.64823,-39.09851],[175.6481,-39.09835],[175.64826,-39.09828],[175.64843,-39.09824],[175.64859,-39.09829],[175.64873,-39.09833],[175.64886,-39.0984],[175.64901,-39.09843],[175.64912,-39.09833],[175.6492,-39.09819],[175.6493,-39.09811],[175.64946,-39.09808],[175.64955,-39.09798],[175.64949,-39.09787],[175.64947,-39.09776],[175.6496,-39.09765],[175.64971,-39.09752],[175.64974,-39.09737],[175.64975,-39.09723],[175.64971,-39.09709],[175.64971,-39.09698],[175.64971,-39.09685],[175.64972,-39.09674],[175.64973,-39.09655],[175.64977,-39.09642],[175.64978,-39.09631],[175.64977,-39.09617],[175.64971,-39.09599],[175.64966,-39.09585],[175.6496,-39.09569],[175.64956,-39.09557],[175.64951,-39.09545],[175.64952,-39.09525],[175.64952,-39.0951],[175.64923,-39.09466],[175.6491,-39.09458],[175.64897,-39.09453],[175.64893,-39.09441],[175.64901,-39.09427],[175.64907,-39.09414],[175.64905,-39.09397],[175.64899,-39.09383],[175.64902,-39.09371],[175.64909,-39.0935],[175.64913,-39.09324],[175.64913,-39.0931],[175.6491,-39.09299],[175.64915,-39.09284],[175.6492,-39.0927],[175.64955,-39.09225],[175.64969,-39.09206],[175.64978,-39.09194],[175.6499,-39.09181],[175.65013,-39.09159],[175.65028,-39.09142],[175.65034,-39.09132],[175.65055,-39.09118],[175.65063,-39.09108],[175.6509,-39.09074],[175.65098,-39.09062],[175.6511,-39.09045],[175.65117,-39.09028],[175.65122,-39.09012],[175.65129,-39.08995],[175.65133,-39.08984],[175.6514,-39.0897],[175.65141,-39.08955],[175.65137,-39.0894],[175.65131,-39.08925],[175.65122,-39.08911],[175.65109,-39.08882],[175.65092,-39.08856],[175.65078,-39.08833],[175.65083,-39.08816],[175.65092,-39.08802],[175.65109,-39.08772],[175.65119,-39.08754],[175.65125,-39.08743],[175.65132,-39.08728],[175.65164,-39.087],[175.65181,-39.08691],[175.65203,-39.08678],[175.65219,-39.08682],[175.65221,-39.08668],[175.65214,-39.08658],[175.65209,-39.08648],[175.65195,-39.08638],[175.65177,-39.08628],[175.65109,-39.08598],[175.65036,-39.08586],[175.65015,-39.08578],[175.65097,-39.0856],[175.6518,-39.08552],[175.65245,-39.08559],[175.65305,-39.08562],[175.65397,-39.08546],[175.6541,-39.08535],[175.654,-39.08522],[175.65366,-39.08505],[175.65316,-39.08485],[175.65238,-39.08449],[175.65219,-39.08438],[175.65213,-39.08423],[175.65185,-39.08404],[175.65177,-39.08387],[175.65181,-39.08363],[175.65193,-39.08345],[175.65206,-39.08339],[175.65237,-39.08341],[175.65269,-39.08339],[175.65301,-39.0829],[175.65335,-39.08279],[175.65367,-39.08284],[175.65402,-39.08265],[175.65422,-39.08238],[175.65424,-39.08219],[175.65434,-39.08185],[175.65465,-39.08182],[175.65485,-39.08209],[175.65517,-39.08203],[175.65565,-39.08205],[175.65597,-39.082],[175.65612,-39.08204],[175.6563,-39.08204],[175.65643,-39.08197],[175.65632,-39.08175],[175.65642,-39.08149],[175.6564,-39.08128],[175.65652,-39.08107],[175.65655,-39.08094],[175.65659,-39.08081],[175.6565,-39.08058],[175.65644,-39.08043],[175.65622,-39.08011],[175.65631,-39.07974],[175.65628,-39.07955],[175.65627,-39.07939],[175.65637,-39.07928],[175.65619,-39.07881],[175.65609,-39.07852],[175.6561,-39.07829],[175.656,-39.07807],[175.65607,-39.07788],[175.65625,-39.07783],[175.65659,-39.07765],[175.65658,-39.07727],[175.65657,-39.07694],[175.65678,-39.0765],[175.65697,-39.07636],[175.65726,-39.07625],[175.65755,-39.07615],[175.65801,-39.07618],[175.65852,-39.07603],[175.65906,-39.07591],[175.65958,-39.07572],[175.65986,-39.07559],[175.6601,-39.07548],[175.66034,-39.07525],[175.66058,-39.07519],[175.66121,-39.075],[175.66182,-39.07484],[175.66214,-39.07486],[175.66257,-39.07475],[175.66297,-39.07476],[175.66329,-39.07474],[175.66334,-39.07456],[175.66374,-39.07421],[175.66382,-39.07407],[175.66381,-39.07394],[175.66385,-39.07382]]]}}